name,nameEn,region,city,municipality,postcode,suburb,lon,lat,address,,,,,,
Музеј на современата уметност,Contemporary Art Museum of Macedonia,Skopje Region,Skopje,Municipality of Centar,1000,Debar Maalo,42.00388665,21.43295144,"Contemporary Art Museum of Macedonia, Samoilova, 1000 Skopje, North Macedonia",,,,,,
Национална галерија „Даут-пашин амам“,Daut Pasha Hamam National Gallery,Skopje Region,Skopje,Municipality of Centar,1000,Madzhir Maalo,41.9987239,21.43572365,"Daut Pasha Hamam National Gallery, Плоштад Карпошово Востание""",,, 1000 Skopje," North Macedonia""",172171547,
Национална галерија на Македонија „Чифте-амам“,Chifte Hammam National Gallery of Macedonia,Skopje Region,Skopje,Municipality of Chair,1000,Dukjandzhik,42.0011289,21.43727285,"Chifte Hammam National Gallery of Macedonia, Леблебиџиска, 1000 Skopje, North Macedonia",,,,,,
Драмски Театар,,Skopje Region,Skopje,Municipality of Karposh,1000,Karposh 2,42.0021876,21.40798528,"Драмски Театар, Шекспирова 15, 1000 Skopje, North Macedonia",,,,,,
Македонска Филхармонија,Macedonian Philharmonics,Skopje Region,Skopje,Municipality of Centar,1000,Madzhir Maalo,41.9975067,21.43588376,"Macedonian Philharmonics, Mother Teresa Square, 1000 Skopje, North Macedonia",,,,,,
Војдан Чернодрински,Vojdan Chernodrinski,Pelagonia Region,Prilep,Municipality of Prilep,7500,Charshija,41.34162795,21.55810881,"Vojdan Chernodrinski, Borka Taleski-Modernoto 111, 7500 Prilep, North Macedonia",,,,,,
Atelje Bojar,,Skopje Region,Skopje,Municipality of Centar,1000,Vodno,41.9847107,21.4220562,"Atelje Bojar, Славејко Арсов, 1000 Skopje, North Macedonia",,,,,,
Куршумли-ан,,Skopje Region,Skopje,Municipality of Chair,1000,Dukjandzhik,42.0031499,21.43684302,"Куршумли-ан, Атанас Бабата, 1000 Skopje, North Macedonia",,,,,,
Македонска опера и балет,Macedonian Opera and Ballet,Skopje Region,Skopje,Municipality of Centar,1000,Madzhir Maalo,41.99757115,21.43708871,"Macedonian Opera and Ballet, Пајко Маало, 1000 Skopje, North Macedonia",,,,,,
Музеј на икони,,Pelagonia Region,Prilep,Municipality of Prilep,7500,Charshija,41.3439183,21.55867555,"Музеј на икони, Republikanska, 7500 Prilep, North Macedonia",,,,,,
Театар Комедија,Theater Comedy,Skopje Region,Skopje,Municipality of Centar,1000,Kapishtec,41.9944758,21.42526656,"Theater Comedy, Kliment Ohridski Boulevard, 1000 Skopje, North Macedonia",,,,,,
Дом на АРМ,Army Hall Cultural Centre,Skopje Region,Skopje,Municipality of Centar,1000,Madzhir Maalo,41.9934117,21.43213339,"Army Hall Cultural Centre, Dimitrie Chupovski, 1000 Skopje, North Macedonia",,,,,,
Младински Културен Центар,Youth Cultural Center,Skopje Region,Skopje,Municipality of Centar,1000,Madzhir Maalo,41.9964224,21.44277467,"Youth Cultural Center, Kej Dimitar Vlahov, 1000 Skopje, North Macedonia",,,,,,
Турски Театар,,Skopje Region,Skopje,Municipality of Chair,1000,Dukjandzhik,42.004385,21.43848465,"Турски Театар, Никола Мартиновски 41, 1000 Skopje, North Macedonia",,,,,,
Центар на културата Бели мугри,Cultural Center Beli Mugri,Eastern Region,Kochani,Municipality of Kochani,2300,,41.9165045,22.41244876,"Cultural Center Beli Mugri, Kej na revolucijata, 2300 Kochani, North Macedonia",,,,,,
Дом на Култура,,Pelagonia Region,Bitola,Municipality of Bitola,7000,Borimechka,41.02795155,21.3347431,"Дом на Култура, Пеце Матичевски, 7000 Bitola, North Macedonia",,,,,,
Трајко Прокопиев,,Northeastern Region,Kumanovo,Municipality of Kumanovo,1300,,42.13480855,21.72011024,"Трајко Прокопиев, Циганско сокаче, 1300 Kumanovo, North Macedonia",,,,,,
Македонски народен театар,Macedonian National Theatre,Skopje Region,Skopje,Municipality of Centar,1000,Debar Maalo,41.99858255,21.43236693,"Macedonian National Theatre, 11 Март, 1000 Skopje, North Macedonia",,,,,,
Дом на Градежници,,Skopje Region,Skopje,Municipality of Centar,1000,Debar Maalo,41.9957362,21.42696147,"Дом на Градежници, Liberty Square, 1000 Skopje, North Macedonia",,,,,,
Три Круши,,Skopje Region,Drachevo,Municiplity of Kisela Voda,1050,,41.92919055,21.5228115,"Три Круши, Драчевска-2, 1050 Drachevo, North Macedonia",,,,,,
Никола Мартиноски,Nikola Martinoski,Pelagonia Region,Krushevo OT,Municipality of Krushevo,7550,Струнга,41.36894095,21.25231391,"Nikola Martinoski, Niko Doaga-Koljka, 7550 Krushevo OT, North Macedonia",,,,,,
Дом на културата,,Vardar Region,Kavadarci,Municipality of Kavadarci,1430,,41.4339576,22.0122027,"Дом на културата, 7ми Септември, 1430 Kavadarci, North Macedonia",,,,,,
Детски театарски центар,,Skopje Region,Skopje,Municipality of Chair,1009,Dukjandzhik,42.0021643,21.43838231,"Детски театарски центар, Евлија Челебија 1, 1009 Skopje, North Macedonia",,,,,,
Градски театар - Штип,,Eastern Region,Shtip,Municipality of Shtip,2000,,41.73765405,22.19836799,"Градски театар - Штип, General Mihaylo Apostolski St., 2000 Shtip, North Macedonia",,,,,,
"Theater ""Dzhinot"" - Veles",,Vardar Region,Veles,Municipality of Veles,1400,,41.7175479,21.77628389,"Theater Dzhinot"" - Veles",,,"Благој Ѓорев, 1400 Veles, North Macedonia",512073131,,
Дом на културата „Крсте Петков Мисирков“,"Cultural centre ""Krste Petkov Misirkov""",Vardar Region,Sveti Nikole,Municipality of Sveti Nikole,2220,Рецко Маало,41.8643089,21.94047546,"Cultural centre Krste Petkov Misirkov""",,,"City square Ilinden""", 2220 Sveti Nikole," North Macedonia""",839048204
МКЦ Ленин,MKC Lenin,Eastern Region,Kochani,Municipality of Kochani,2300,,41.9195442,22.40976245,"MKC Lenin, Marshal Tito, 2300 Kochani, North Macedonia",,,,,,
Васил Иљоски,Vasil Iljoski,Pelagonia Region,Krushevo OT,Municipality of Krushevo,7550,Miak,41.3693527,21.24657441,"Vasil Iljoski, Mishe Ivanoski - Petre 0, 7550 Krushevo OT, North Macedonia",,,,,,
Арт Институт,,Skopje Region,Skopje,Municipality of Centar,1111,Vodno,41.9879934,21.4313748,"Арт Институт, Zheleznichka, 1111 Skopje, North Macedonia",,,,,,
Народен театар,,Northeastern Region,Kumanovo,Municipality of Kumanovo,1300,,42.1326476,21.7193518,"Народен театар, Народна Револуција 43, 1300 Kumanovo, North Macedonia",,,,,,
Театар за деца и младинци,,Skopje Region,Skopje,Municipality of Centar,1111,Debar Maalo,41.9945773,21.4312276,"Театар за деца и младинци, Dimitrie Chupovski 4, 1111 Skopje, North Macedonia",,,,,,
Салон 19 19,,Skopje Region,Skopje,Municipality of Centar,1111,Madzhir Maalo,41.9932496,21.4354132,"Салон 19 19, Stiv Naumov, 1111 Skopje, North Macedonia",,,,,,
Албански Театар,,Skopje Region,Skopje,Municipality of Chair,1000,Dukjandzhik,42.0044498,21.4386535,"Албански Театар, Никола Мартиновски 41, 1000 Skopje, North Macedonia",,,,,,
Музеј на современата уметност,Contemporary Art Museum of Macedonia,Skopje Region,Skopje,Municipality of Centar,1000,Debar Maalo,42.00388665,21.43295144,"Contemporary Art Museum of Macedonia, Samoilova, 1000 Skopje, North Macedonia",,,,,,
Национална галерија „Даут-пашин амам“,Daut Pasha Hamam National Gallery,Skopje Region,Skopje,Municipality of Centar,1000,Madzhir Maalo,41.9987239,21.43572365,"Daut Pasha Hamam National Gallery, Плоштад Карпошово Востание""",,, 1000 Skopje," North Macedonia""",172171547,
Музеј на македонската борба,Museum of the Macedonian struggle,Skopje Region,Skopje,Municipality of Centar,1000,Debar Maalo,41.9979421,21.43318647,"Museum of the Macedonian struggle, 11 Март 1, 1000 Skopje, North Macedonia",,,,,,
Спомен куќа на Мајка Тереза,Memorial House of Mother Teresa,Skopje Region,Skopje,Municipality of Centar,1000,Debar Maalo,41.9938448,21.43086346,"Memorial House of Mother Teresa, Makedonija, 1000 Skopje, North Macedonia",,,,,,
Меморијален центар на холокаустот на Евреите од Македонија,Holocaust Memorial Center for the Jews of Macedonia,Skopje Region,Skopje,Municipality of Centar,1000,Debar Maalo,41.9984656,21.43338324,"Holocaust Memorial Center for the Jews of Macedonia, Самоилова 2, 1000 Skopje, North Macedonia",,,,,,
Музеј на Град Скопје,Museum of the City of Skopje,Skopje Region,Skopje,Municipality of Centar,1000,Kapishtec,41.99083115,21.42919817,"Museum of the City of Skopje, Bulevard Makedonija, 1000 Skopje, North Macedonia",,,,,,
Музеј на Илинденското востание и Крушевската Република,Museum of the Ilinden Uprising and the Republic of Krushevo,Pelagonia Region,Krushevo OT,Municipality of Krushevo,7550,Arnaut Neighbourhood,41.3690527,21.2453034,"Museum of the Ilinden Uprising and the Republic of Krushevo, Dimitar Berberoski - Takja Berber 44А, 7550 Krushevo OT, North Macedonia",,,,,,
Леарница,Foundry,Pelagonia Region,Krushevo OT,Municipality of Krushevo,7550,Miak,41.37217175,21.2466584,"Foundry, Toma Niklev 0, 7550 Krushevo OT, North Macedonia",,,,,,
Музеј,Museum,Pelagonia Region,Prilep,Municipality of Prilep,7500,Rid,41.342827,21.55939354,"Museum, Aleksandar Makedonski 400, 7500 Prilep, North Macedonia",,,,,,
Galerija RA,Gallery RA,Skopje Region,Skopje,Municipality of Karposh,1000,Taftalidzhe 2,41.9989569,21.3865879,"Gallery RA, Vojvoda Vasil Chakalarov 94, 1000 Skopje, North Macedonia",,,,,,
Македониум,,Pelagonia Region,Krushevo OT,Municipality of Krushevo,7550,Upper Krushevo,41.3774084,21.24837151,"Македониум, Плато, 7550 Krushevo OT, North Macedonia",,,,,,
Куршумли-ан,,Skopje Region,Skopje,Municipality of Chair,1000,Dukjandzhik,42.0031499,21.43684302,"Куршумли-ан, Атанас Бабата, 1000 Skopje, North Macedonia",,,,,,
Музеј на Македонија,Museum of Macedonia,Skopje Region,Skopje,Municipality of Chair,1000,Dukjandzhik,42.0026418,21.43580709,"Museum of Macedonia, Св. Прохор Пчињски, 1000 Skopje, North Macedonia",,,,,,
Природонаучен Музеј,Macedonian Museum of Natural History,Skopje Region,Skopje,Municipality of Centar,1000,Debar Maalo,42.005709,21.4174425,"Macedonian Museum of Natural History, Boulevard Ilinden, 1000 Skopje, North Macedonia",,,,,,
Археолошки музеј на Македонија,Archaeological Museum of Macedonia,Skopje Region,Skopje,Municipality of Centar,1000,Madzhir Maalo,41.9968813,21.43436569,"Archaeological Museum of Macedonia, Мост на цивилизациите во Македонија, 1000 Skopje, North Macedonia",,,,,,
Музеј Штип,,Eastern Region,Shtip,Municipality of Shtip,2000,Кежовица,41.73666625,22.18975125,"Музеј Штип, Marshal Tito St., 2000 Shtip, North Macedonia",,,,,,
Безистен Штип,,Eastern Region,Shtip,Municipality of Shtip,2000,Кежовица,41.73754,22.19269966,"Безистен Штип, Кузман Јосифовски Питу, 2000 Shtip, North Macedonia",,,,,,
Спомен-дом Блаже Конески,Blazhe Koneski Memorial House,Pelagonia Region,Prilep (Vicinity),Municipality of Prilep,7513,,41.4492956,21.55843252,"Blazhe Koneski Memorial House, Hiking trail Prilep - Treskavec, 7513 Prilep (Vicinity), North Macedonia",,,,,,
Музеј на Битола,Museum of Bitola,Pelagonia Region,Bitola,Municipality of Bitola,7000,Borimechka,41.0238366,21.33604317,"Museum of Bitola, Saint Clement of Ohrid 18, 7000 Bitola, North Macedonia",,,,,,
Меморијален музеј Народен херој Кузман Јосифоски-Питу,People's hero Kuzman Josifoski-Pitu Memorial museum,Pelagonia Region,Prilep,Municipality of Prilep,7500,Rid,41.34252545,21.55973095,"People's hero Kuzman Josifoski-Pitu Memorial museum, Mara Josifoska-Gjurgja 20, 7500 Prilep, North Macedonia",,,,,,
Магаза,Magaza gallery,Pelagonia Region,Bitola,Municipality of Bitola,7000,Borimechka,41.0299321,21.33512472,"Magaza gallery, Magnolia Square, 7000 Bitola, North Macedonia",,,,,,
Спомен Костурница,Kosturnica Memorial,Vardar Region,Veles,Municipality of Veles,1400,,41.72329265,21.78945368,"Kosturnica Memorial, Ганчо Хаџи Панзов, 1400 Veles, North Macedonia",,,,,,
11 Октомври 1941,"October the 11th, 1941",Pelagonia Region,Prilep,Municipality of Prilep,7500,Charshija,41.345014,21.55235949,"October the 11th, 1941, Metodija Andonov - Chento, 7500 Prilep, North Macedonia",,,,,,
Музеј на НОВ,,Pelagonia Region,Krushevo,Municipality of Krushevo,7550,Upper Krushevo,41.37561085,21.24571983,"Музеј на НОВ, Nikola Karev, 7550 Krushevo, North Macedonia",,,,,,
Ел Калем,,Skopje Region,Arnakija,Municipality of Saraj,,,41.9869501,21.28764869,"Ел Калем, R1206, Arnakija, North Macedonia",,,,,,
Музеј Галерија Кавадарци,Muzej Galerija Kavadarci,Vardar Region,Kavadarci,Municipality of Kavadarci,1430,,41.4343634,22.0163228,"Muzej Galerija Kavadarci, 7 Septemvri, 1430 Kavadarci, North Macedonia",,,,,,
"Muzeu ""Dëshmorët e kombit""",,Northeastern Region,Slupchane,Municipality of Lipkovo,,,42.1791184,21.62037817,"Muzeu Dëshmorët e kombit""",,,"R29272, Slupchane, North Macedonia",834714782,,
Народен Музеј,,Vardar Region,Sveti Nikole,Municipality of Sveti Nikole,2220,Рецко Маало,41.8650268,21.94190668,"Народен Музеј, Karposheva, 2220 Sveti Nikole, North Macedonia",,,,,,
Ловен Дом,,Eastern Region,Kochani,Municipality of Kochani,2300,,41.9151239,22.41379184,"Ловен Дом, 8mi Septemvri, 2300 Kochani, North Macedonia",,,,,,
Goce Delchev Memorial House,,Pelagonia Region,Bitola,Municipality of Bitola,7000,Borimechka,41.0268975,21.33220846,"Goce Delchev Memorial House, Stevo Patako, 7000 Bitola, North Macedonia",,,,,,
Museum Teracotta,,Eastern Region,Vinica,Municipality of Vinica,2310,,41.8841902,22.5049622,"Museum Teracotta, Angel of Vinica 1a, 2310 Vinica, North Macedonia",,,,,,
Museum of Wine,,Vardar Region,Demir Kapija,Municipality of Demir Kapija,1442,,41.4085959,22.2447656,"Museum of Wine, Marshal Tito, 1442 Demir Kapija, North Macedonia",,,,,,
Спомен куќа на Страшо Пинџур,Memorial house - Strasho Pindjur,Vardar Region,Municipality of Kavadarci,,1430,Vatasha,41.4184594,22.0181317,"Memorial house - Strasho Pindjur, Boro Vataskhi, 1430 Municipality of Kavadarci, North Macedonia",,,,,,
"Auto and etno museum ""Filip""","Auto and etno museum ""Filip""",Pelagonia Region,Krklino,Municipality of Bitola,7000,,41.0748026,21.3299172,"Auto and etno museum Filip""",,,"R1305, 7000 Krklino, North Macedonia",10932198705,,
Museum of illusions,Museum of illusions,Skopje Region,Skopje,Municipality of Centar,1111,Debar Maalo,41.9962134,21.4291373,"Museum of illusions, Maksim Gorki 10, 1111 Skopje, North Macedonia",,,,,,
Национален парк Шар Планина,National Park Shar Planina,Polog Region,,,,,41.9560681,20.84767532,"National Park Shar Planina, Polog Region, North Macedonia",,,,,,
Национален Парк Пелистер,Pelister National Park,Pelagonia Region,,,,,40.9653429,21.23754491,"Pelister National Park, Pelagonia Region, North Macedonia",,,,,,
Природен Резерват Јасен,National Park Jasen,Southwestern Region,,,,,41.81565485,21.20576641,"National Park Jasen, City of Skopje, North Macedonia",,,,,,
Paragliding Info Center,Paragliding Info Center,Pelagonia Region,Krushevo OT,Municipality of Krushevo,7550,Lower Krushevo,41.3676364,21.2486406,"Paragliding Info Center, Ilindenska, 7550 Krushevo OT, North Macedonia",,,,,,
Воин на коњ,Warrior on a Horse,Skopje Region,Skopje,Municipality of Centar,1111,Debar Maalo,41.9959035,21.4314474,"Warrior on a Horse, Macedonia Square, 1111 Skopje, North Macedonia",,,,,,
Св. Климент Охридски,Clement of Ohrid,Skopje Region,Skopje,Municipality of Centar,1111,Debar Maalo,41.9983057,21.4254968,"Clement of Ohrid, Bulevard Kliment Ohridski, 1111 Skopje, North Macedonia",,,,,,
Скендербег,Skanderbeg,Skopje Region,Skopje,Municipality of Chair,1111,Dukjandzhik,41.9993163,21.437162,"Skanderbeg Square, 1111 Skopje, North Macedonia",,,,,,
Св. Климент Охридски и Наум Охридски Чудотворец,Saints Clement of Ohrid and Naum,Skopje Region,Skopje,Municipality of Centar,1111,Madzhir Maalo,41.9975624,21.4341509,"Saints Clement of Ohrid and Naum, Плоштад Карпошово Востание""",,, 1111 Skopje," North Macedonia""",4128156210,
Цар Самоил,Tsar Samuel,Skopje Region,Skopje,Municipality of Centar,1000,Debar Maalo,41.9953917,21.4313414,"Tsar Samuel, Macedonia Square, 1000 Skopje, North Macedonia",,,,,,
Јустинијан I,Justinian I,Skopje Region,Skopje,Municipality of Centar,1111,Debar Maalo,41.9968799,21.4323054,"Justinian I, Macedonia Square, 1111 Skopje, North Macedonia",,,,,,
Кире Гаврилоски-Јане,Kire Gavriloski-Jane,Pelagonia Region,Prilep,Municipality of Prilep,7500,Shtavichko Maalo,41.3360133,21.5554027,"Kire Gavriloski-Jane, Car Samoil ББ, 7500 Prilep, North Macedonia",,,,,,
Круме Волнароски-Коља,Krume Volnaroski-Kolja,Pelagonia Region,Prilep,Municipality of Prilep,7500,Shtavichko Maalo,41.3356523,21.554537,"Krume Volnaroski-Kolja, Car Samoil ББ, 7500 Prilep, North Macedonia",,,,,,
Народен херој Мирче Ацев-Стојче,People's hero Mirche Acev-Stojche,Pelagonia Region,Prilep,Municipality of Prilep,7500,Shtavichko Maalo,41.3358036,21.5548999,"People's hero Mirche Acev-Stojche, Car Samoil ББ, 7500 Prilep, North Macedonia",,,,,,
Рампо Левков-Левков,Rampo Levkov-Levkata,Pelagonia Region,Prilep,Municipality of Prilep,7500,Shtavichko Maalo,41.3357217,21.5547035,"Rampo Levkov-Levkata, Car Samoil ББ, 7500 Prilep, North Macedonia",,,,,,
Борка Талески-Модерното,Borka Taleski-Modernoto,Pelagonia Region,Prilep,Municipality of Prilep,7500,Shtavichko Maalo,41.3358954,21.55512,"Borka Taleski-Modernoto, Car Samoil ББ, 7500 Prilep, North Macedonia",,,,,,
Лазо Колевски-Лавски,Lazo Kolevski-Lavski,Pelagonia Region,Prilep,Municipality of Prilep,7500,Shtavichko Maalo,41.3356849,21.5546151,"Lazo Kolevski-Lavski, Car Samoil ББ, 7500 Prilep, North Macedonia",,,,,,
Борка Велески-Горанов,Borka Veleski-Goranov,Pelagonia Region,Prilep,Municipality of Prilep,7500,Shtavichko Maalo,41.335763,21.5548025,"Borka Veleski-Goranov, Car Samoil ББ, 7500 Prilep, North Macedonia",,,,,,
Народен херој Кузман Јосифоски-Питу,People's hero Kuzman Josifoski-Pitu,Pelagonia Region,Prilep,Municipality of Prilep,7500,Shtavichko Maalo,41.3358485,21.5550074,"People's hero Kuzman Josifoski-Pitu, Car Samoil ББ, 7500 Prilep, North Macedonia",,,,,,
Јордан Чопела-Орде,Jordan Chopela-Orde,Pelagonia Region,Prilep,Municipality of Prilep,7500,Shtavichko Maalo,41.3359385,21.5552234,"Jordan Chopela-Orde, Car Samoil ББ, 7500 Prilep, North Macedonia",,,,,,
Илија Игески-Цветан,Ilija Igeski-Cvetan,Pelagonia Region,Prilep,Municipality of Prilep,7500,Shtavichko Maalo,41.3359728,21.5553055,"Ilija Igeski-Cvetan, Car Samoil ББ, 7500 Prilep, North Macedonia",,,,,,
Јоска Јорданоски - Сандански,Joska Jordanoski - Sandanski,Pelagonia Region,Prilep,Municipality of Prilep,7510,Vishne,41.3476525,21.5594109,"Joska Jordanoski - Sandanski, Joska Jordanoski-Sandanski, 7510 Prilep, North Macedonia",,,,,,
Филип II Македонски,Philip II of Macedon,Skopje Region,Skopje,Municipality of Centar,1111,Madzhir Maalo,41.9984602,21.4349949,"Philip II of Macedon, Плоштад Карпошово Востание""",,, 1111 Skopje," North Macedonia""",1859114111,
Македонка,,Northeastern Region,Kumanovo,Municipality of Kumanovo,1300,,42.145271,21.7225477,"Македонка, Средорек, 1300 Kumanovo, North Macedonia",,,,,,
Народен херој Мице Козароски-Јандре,People's hero Mice Kozaroski-Jandre,Pelagonia Region,Prilep,Municipality of Prilep,7500,Charshija,41.3464763,21.5529446,"People's hero Mice Kozaroski-Jandre, Alexandria Square, 7500 Prilep, North Macedonia",,,,,,
Josip Broz Tito,,Skopje Region,Skopje,Municipality of Centar,1000,Debar Maalo,41.9952169,21.426153,"Josip Broz Tito, Dimitrie Čupovski, 1000 Skopje, North Macedonia",,,,,,
Св. Кирил и Методиј,Saints Cyril and Methodius,Skopje Region,Skopje,Municipality of Centar,1111,Madzhir Maalo,41.9977079,21.4339766,"Saints Cyril and Methodius, Плоштад Карпошово Востание""",,, 1111 Skopje," North Macedonia""",4128156209,
Круме Волнароски-Коља,Krume Volnaroski-Kolja,Pelagonia Region,Topolchani,Municipality of Prilep,7512,,41.2257975,21.4316498,"Krume Volnaroski-Kolja, Тополчани 6, 7512 Topolchani, North Macedonia",,,,,,
Даме Груев,Dame Gruev,Skopje Region,Skopje,Municipality of Centar,1111,Debar Maalo,41.9964949,21.4321474,"Dame Gruev, Macedonia Square, 1111 Skopje, North Macedonia",,,,,,
Олимпија,Olympias,Skopje Region,Skopje,Municipality of Centar,1111,Madzhir Maalo,41.9979046,21.4344182,"Olympias, Плоштад Карпошово Востание""",,, 1111 Skopje," North Macedonia""",4161249330,
Статуа Филип II,Philip II Statue,Pelagonia Region,Bitola,Municipality of Bitola,7000,Borimechka,41.0302025,21.3347596,"Philip II Statue, Magnolia Square, 7000 Bitola, North Macedonia",,,,,,
Wall Street Bull,Wall Street Bull,Skopje Region,Skopje,Municipality of Centar,1111,Debar Maalo,41.9930933,21.4298952,"Wall Street Bull, Makedonija, 1111 Skopje, North Macedonia",,,,,,
Staute,,Skopje Region,Skopje,Municipality of Centar,1000,Debar Maalo,42.0017162,21.4213151,"Staute, Mihail Cokov, 1000 Skopje, North Macedonia",,,,,,
Школка,Shell,Skopje Region,Skopje,Municipality of Centar,1111,Debar Maalo,42.0053056,21.4223506,"Shell, Stoltenberg, 1111 Skopje, North Macedonia",,,,,,
Дамчевски,Damchevski,Skopje Region,Skopje,Municipality of Karposh,1000,Vlae,42.010912,21.3796723,"Damchevski, Франц Прешерн 227, 1000 Skopje, North Macedonia",,,,,,
Гоце Делчев,Goce Delchev,Skopje Region,Skopje,Municipality of Centar,1111,Debar Maalo,41.9963577,21.4323793,"Goce Delchev, Macedonia Square, 1111 Skopje, North Macedonia",,,,,,
Градот убав,Street Art & Graffiti Gallery,Skopje Region,Skopje,Municipality of Centar,1111,Madzhir Maalo,41.9941112,21.4340211,"Street Art & Graffiti Gallery, ГТЦ, 1111 Skopje, North Macedonia",,,,,,
Дрво на животот,,Pelagonia Region,Bitola,Municipality of Bitola,7000,Borimechka,41.0327147,21.335686,"Дрво на животот, Filip Vtori Makedonski, 7000 Bitola, North Macedonia",,,,,,
Естреја Овадија-Мара,,Pelagonia Region,Bitola,Municipality of Bitola,7000,Borimechka,41.0334398,21.3356797,"Естреја Овадија-Мара, Pande Nikolov, 7000 Bitola, North Macedonia",,,,,,
ТИТО,,Pelagonia Region,Prilep (Vicinity),Municipality of Prilep,7513,Kozle,41.3597742,21.5348671,"ТИТО, Borka Lopach, 7513 Prilep (Vicinity), North Macedonia",,,,,,
Дане Крапчев,,Skopje Region,Skopje,Municipality of Centar,1000,Debar Maalo,42.0045279,21.4182143,"Дане Крапчев, Boulevard Ilinden, 1000 Skopje, North Macedonia",,,,,,
Христијан Тодоровски Карпош,,Skopje Region,Skopje,Municipality of Karposh,1000,Karposh 2,42.0038675,21.4135021,"Христијан Тодоровски Карпош, Руѓер Бошковиќ, 1000 Skopje, North Macedonia",,,,,,
Киро Бајрамоски,Kiro Bajramoski,Pelagonia Region,Prilep,Municipality of Prilep,7510,Gjorgji Delchev-Goce,41.345092,21.5643393,"Kiro Bajramoski, R1101, 7510 Prilep, North Macedonia",,,,,,
Македонски бранители,,Skopje Region,Skopje,Municipality of Centar,1111,Madzhir Maalo,41.9942061,21.4330139,"Македонски бранители, 1111 Skopje, North Macedonia",,,,,,
Тарас Шевченко,,Skopje Region,Skopje,Municipality of Centar,1111,Madzhir Maalo,41.9940194,21.433845,"Тарас Шевченко, 1111 Skopje, North Macedonia",,,,,,
Славко Јаневски,Slavko Janevski,Skopje Region,Skopje,Municipality of Centar,1111,Madzhir Maalo,41.9940981,21.4337313,"Slavko Janevski, 1111 Skopje, North Macedonia",,,,,,
Петар Богданов,,Skopje Region,Skopje,Municipality of Centar,1111,Madzhir Maalo,41.9939364,21.433093,"Петар Богданов, 11 Oktomvri, 1111 Skopje, North Macedonia",,,,,,
Кузман Јосифоски-Питу,,Skopje Region,Skopje,Municipality of Centar,1111,Madzhir Maalo,41.9940383,21.4330051,"Кузман Јосифоски-Питу, 11 Oktomvri, 1111 Skopje, North Macedonia",,,,,,
Татковина - Копнеж за прогонатите,,Skopje Region,Skopje,Municipality of Centar,1111,Madzhir Maalo,41.9940199,21.4332951,"Татковина - Копнеж за прогонатите, ГТЦ, 1111 Skopje, North Macedonia",,,,,,
Основачите на Македонската револуционерна организација,,Skopje Region,Skopje,Municipality of Centar,1111,Madzhir Maalo,41.9933258,21.4335226,"Основачите на Македонската револуционерна организација, Dimitrie Chupovski, 1111 Skopje, North Macedonia",,,,,,
Првото заседание на АСНОМ,,Skopje Region,Skopje,Municipality of Centar,1111,Madzhir Maalo,41.9931516,21.4336429,"Првото заседание на АСНОМ, Dimitrie Chupovski, 1111 Skopje, North Macedonia",,,,,,
Споменик на жената борец,,Skopje Region,Skopje,Municipality of Centar,1111,Madzhir Maalo,41.9936316,21.4340468,"Споменик на жената борец, ГТЦ, 1111 Skopje, North Macedonia",,,,,,
Паднати херои за Македонија,,Skopje Region,Skopje,Municipality of Centar,1111,Madzhir Maalo,41.9933504,21.4338554,"Паднати херои за Македонија, Stiv Naumov, 1111 Skopje, North Macedonia",,,,,,
Народен херој Трајко Бошкоски-Тарцан,People's hero Trajko Boshkoski-Tarcan,Pelagonia Region,Prilep,Municipality of Prilep,7500,Charshija,41.3464898,21.5529611,"People's hero Trajko Boshkoski-Tarcan, Alexandria Square, 7500 Prilep, North Macedonia",,,,,,
Душко Наумоски,Dushko Naumoski,,,,,,41.3419581,21.5572436,,,,,,,
"Свети Гаврил Лесновски 22 / 5,000 Translation results Свети Гаврил Лесновски",,Eastern Region,Probishtip,Municipality of Probishtip,,,41.9998775,22.1784244,"Свети Гаврил Лесновски 22 / 5,000 Translation results Свети Гаврил Лесновски, Јаким Стојковски, Probishtip, North Macedonia",,,,,,
Веле Марков,Vele Markov,Pelagonia Region,Krushevo,Municipality of Krushevo,7550,Upper Krushevo,41.3747391,21.2465877,"Vele Markov, Гумење, 7550 Krushevo, North Macedonia",,,,,,
Жан Анри Динан,Jean-Henri Dunant,Pelagonia Region,Prilep,Municipality of Prilep,7500,Bonchejca,41.3431449,21.5461897,"Jean-Henri Dunant, Jole Andonoski, 7500 Prilep, North Macedonia",,,,,,
Denkmal Neєat Agoli,,Skopje Region,Skopje,Municipality of Centar,1111,Madzhir Maalo,41.9961595,21.4328538,"Denkmal Neєat Agoli, Плоштад Македониja, 1111 Skopje, North Macedonia",,,,,,
Dimitrija-Chupovski-Denkmal,,Skopje Region,Skopje,Municipality of Centar,1111,Debar Maalo,41.9961265,21.4309955,"Dimitrija-Chupovski-Denkmal, Macedonia Square, 1111 Skopje, North Macedonia",,,,,,
Споменик „Димитрија Поп-Георгиев Беровски“,,Skopje Region,Skopje,Municipality of Centar,1111,Madzhir Maalo,41.9962615,21.4327484,"Споменик „Димитрија Поп-Георгиев Беровски“, Плоштад Македониja, 1111 Skopje, North Macedonia",,,,,,
Споменик Пливач,,Skopje Region,Skopje,Municipality of Centar,1111,Madzhir Maalo,41.9966814,21.4331314,"Споменик Пливач, Stone Bridge, 1111 Skopje, North Macedonia",,,,,,
Споменик „Ѓорѓија Пулевски“,,Skopje Region,Skopje,Municipality of Centar,1111,Madzhir Maalo,41.9975108,21.4335157,"Споменик „Ѓорѓија Пулевски“, Плоштад Карпошово Востание""",,, 1111 Skopje," North Macedonia""",10913797908,
Споменик „Карпош“,,Skopje Region,Skopje,Municipality of Centar,1111,Madzhir Maalo,41.9972261,21.4337566,"Споменик „Карпош“, Плоштад Карпошово Востание""",,, 1111 Skopje," North Macedonia""",10913797909,
Споменик „Архиепископ г.г. Доситеј“,,Skopje Region,Skopje,Municipality of Centar,1111,Debar Maalo,41.9981848,21.4262452,"Споменик „Архиепископ г.г. Доситеј“, Boulevard Partizanski Odredi, 1111 Skopje, North Macedonia",,,,,,
Споменик „Мајка Тереза“,,Skopje Region,Skopje,Municipality of Centar,1111,Debar Maalo,41.9940198,21.4306972,"Споменик „Мајка Тереза“, Makedonija, 1111 Skopje, North Macedonia",,,,,,
Shoe Cleaner Statue,,Skopje Region,Skopje,Municipality of Centar,1111,Debar Maalo,41.9950978,21.4309977,"Shoe Cleaner Statue, Makedonija, 1111 Skopje, North Macedonia",,,,,,
Burial Mound of the Undefeated,Burial Mound of the Undefeated,Pelagonia Region,Prilep,Municipality of Prilep,7500,Chachorica,41.33433345,21.55448598,"Burial Mound of the Undefeated, Mound of the undefeated, 7500 Prilep, North Macedonia",,,,,,
Видиковец - Водно,,Skopje Region,Skopje,Municipality of Karposh,1054,Karposh,41.9776318,21.4209659,"Видиковец - Водно, R2138, 1054 Skopje, North Macedonia",,,,,,
Видиковец „Скопско кале“,,Skopje Region,Skopje,Municipality of Centar,1111,Debar Maalo,42.0004463,21.432538,"Видиковец „Скопско кале“, Самоилова, 1111 Skopje, North Macedonia",,,,,,
Милениумски Крст,,Skopje Region,Skopje,Municipality of Karposh,1054,Karposh,41.9651264,21.3945115,"Милениумски Крст, Карпи, 1054 Skopje, North Macedonia",,,,,,
Црн Врв,,Skopje Region,Breznica,Municipality of Petrovec,,,41.8594296,21.738296,"Црн Врв, Breznica, Skopje Region, North Macedonia",,,,,,
Св. Пантелејмон,,Skopje Region,Gorno Nerezi,Municipality of Karposh,1000,Karposh,41.977049,21.3747577,"Св. Пантелејмон, R2138, 1000 Gorno Nerezi, North Macedonia",,,,,,
Три Круши,,Skopje Region,Drachevo,Municiplity of Kisela Voda,1050,,41.9288003,21.5227,"Три Круши, 1050 Drachevo, North Macedonia",,,,,,
Matka canyon viewpoint near golden cross,,Skopje Region,Dolna Matka,Municipality of Saraj,,,41.961308,21.292864,"Matka canyon viewpoint near golden cross, Path to Golden Cross, Dolna Matka, North Macedonia",,,,,,
LastraProjekt,,Polog Region,Chegrane,Municipality of Gostivar,1237,,41.8410032,20.989908,"LastraProjekt, Rruga për te bunarët e Cile, 1237 Chegrane, North Macedonia",,,,,,
Lali Trans,,Polog Region,Chegrane,Municipality of Gostivar,1237,,41.8416059,20.98878,"Lali Trans, Rruga për te bunarët e Cile, 1237 Chegrane, North Macedonia",,,,,,
Platform A,,Northeastern Region,Kokino,Municipality of Staro Nagorichane,,,42.2632133,21.952618,"Platform A, R2244, Kokino, North Macedonia",,,,,,
Platform B,,Northeastern Region,Kokino,Municipality of Staro Nagorichane,,,42.2633296,21.9533467,"Platform B, R2244, Kokino, North Macedonia",,,,,,
Platform C,,Northeastern Region,Kokino,Municipality of Staro Nagorichane,,,42.2630995,21.9524936,"Platform C, R2244, Kokino, North Macedonia",,,,,,
Platform D,,Northeastern Region,Kokino,Municipality of Staro Nagorichane,,,42.2635002,21.9529791,"Platform D, R2244, Kokino, North Macedonia",,,,,,
Ограденица,Sanctuary Wall E,Northeastern Region,Kokino,Municipality of Staro Nagorichane,,,42.2637118,21.95375,"Sanctuary Wall E, R2244, Kokino, North Macedonia",,,,,,
Белица -> Бегово,Belica towards Begovo,Southwestern Region,Belica,Municipality of Makedonski Brod,,,41.6819113,21.277302,"Belica towards Begovo, Belica, Southwestern Region, North Macedonia",,,,,,
ЈОВИЦА РЕЗИДЕНЦИЈА,Jovica's Residence,Skopje Region,Skopje,Municiplity of Kisela Voda,1054,Pripor,41.9633464,21.4405542,"Jovica's Residence, Христо Татарчев 14, 1054 Skopje, North Macedonia",,,,,,
DOMOT NA ALEKSANDAR I IGOR IVANOVI,THE HOME OF ALEKSANDAR AND IGOR IVANOVI,Skopje Region,Skopje,Municipality of Centar,1000,Vodno,41.9901898,21.4191111,"THE HOME OF ALEKSANDAR AND IGOR IVANOVI, Vladimir Nazor, 1000 Skopje, North Macedonia",,,,,,
53,,Skopje Region,Skopje,Municiplity of Kisela Voda,1111,Cvetan Dimov,41.9805568,21.4395882,"53, Vera Jocikj, 1111 Skopje, North Macedonia",,,,,,
Прашка 24а тука некаде,,Skopje Region,Skopje,Municipality of Karposh,1020,Taftalidzhe 1,41.9982669,21.4010749,"Прашка 24а тука некаде, Prashka, 1020 Skopje, North Macedonia",,,,,,
"Жил Верн 11, 11а, 11б",,Skopje Region,Skopje,Municiplity of Kisela Voda,1001,Cvetan Dimov,41.9838309,21.441234,"Жил Верн 11, 11а, 11б, Жил Верн, 1001 Skopje, North Macedonia",,,,,,
Havanska 4,,Skopje Region,Skopje,Municipality of Karposh,1020,Taftalidzhe 1,42.0012377,21.3986567,"Havanska 4, Хаванска, 1020 Skopje, North Macedonia",,,,,,
Сава Ковачевиќ 47 т,,Skopje Region,Skopje,Municiplity of Kisela Voda,1001,11 Oktomvri,41.9767479,21.4442957,"Сава Ковачевиќ 47 т, Народни Херои, 1001 Skopje, North Macedonia",,,,,,
Сава Ковачевиќ 47 ц,,Skopje Region,Skopje,Municiplity of Kisela Voda,1001,11 Oktomvri,41.9766573,21.4448034,"Сава Ковачевиќ 47 ц, Народни Херои, 1001 Skopje, North Macedonia",,,,,,
Мајка Тереза 60,,Skopje Region,Skopje,Municipality of Centar,1000,Vodno,41.9884165,21.4176856,"Мајка Тереза 60, Ацо Караманов, 1000 Skopje, North Macedonia",,,,,,
Анри Барбис 13,,Skopje Region,Skopje,Municipality of Gazi Baba,1001,Madzhari,42.0007158,21.4875986,"Анри Барбис 13, Анри Барбис, 1001 Skopje, North Macedonia",,,,,,
Кратовска 18,,Skopje Region,Skopje,Municiplity of Kisela Voda,1000,Crniche,41.982197,21.4276466,"Кратовска 18, Кратовска, 1000 Skopje, North Macedonia",,,,,,
Стогово 17б,,Skopje Region,Skopje,Municipality of Karposh,1020,Kozle,41.9939383,21.4049623,"Стогово 17б, Стогово, 1020 Skopje, North Macedonia",,,,,,
Челопек 76,,Skopje Region,Skopje,Municipality of Chair,1001,Dukjandzhik,42.0037361,21.4453566,"Челопек 76, Челопек, 1001 Skopje, North Macedonia",,,,,,
Kratovska 15,,Skopje Region,Skopje,Municiplity of Kisela Voda,1000,Crniche,41.9822809,21.4280215,"Kratovska 15, Кратовска, 1000 Skopje, North Macedonia",,,,,,
Blagoja Stefkovski 27,,Skopje Region,Skopje,Municipality of Gazi Baba,1001,Madzhari,41.997308,21.4964989,"Blagoja Stefkovski 27, Благоја Стефковски, 1001 Skopje, North Macedonia",,,,,,
11 Oktomvri 46,,Skopje Region,Skopje,Municipality of Centar,1000,Centar,41.988602,21.4360252,"11 Oktomvri 46, 1000 Skopje, North Macedonia",,,,,,
Tome Arsovski 6,,Skopje Region,Skopje,Municiplity of Kisela Voda,1111,Cvetan Dimov,41.9854097,21.4320224,"Tome Arsovski 6, Tome Arsovski, 1111 Skopje, North Macedonia",,,,,,
50 divizija 39 stan 17,,Skopje Region,Skopje,Municipality of Centar,1000,Vodno,41.9893676,21.4278442,"50 divizija 39 stan 17, 50 Divizija, 1000 Skopje, North Macedonia",,,,,,
Narodni heroi 18,,Skopje Region,Skopje,Municiplity of Kisela Voda,1001,Cvetan Dimov,41.9789896,21.4493623,"Narodni heroi 18, Михаил Чаков, 1001 Skopje, North Macedonia",,,,,,
Христо Чернопеев 9,,Skopje Region,Skopje,Municipality of Centar,1000,Vodno,41.984918,21.423258,"Христо Чернопеев 9, Христо Чернопеев, 1000 Skopje, North Macedonia",,,,,,
Рилски конгрес 100,,Skopje Region,Skopje,Municiplity of Kisela Voda,1000,Crniche,41.9791819,21.431652,"Рилски конгрес 100, Рилски Конгрес, 1000 Skopje, North Macedonia",,,,,,
Варшавска 15,,Skopje Region,Skopje,Municipality of Karposh,1020,Taftalidzhe 1,42.0007768,21.3975936,"Варшавска 15, Варшавска, 1020 Skopje, North Macedonia",,,,,,
Варшавска 15а,,Skopje Region,Skopje,Municipality of Karposh,1020,Taftalidzhe 1,42.0007949,21.3975403,"Варшавска 15а, Варшавска, 1020 Skopje, North Macedonia",,,,,,
Јосиф Јосифовски Свештарот 39,,Skopje Region,Skopje,Municipality of Centar,1111,Centar,41.9899211,21.4369843,"Јосиф Јосифовски Свештарот 39, Josif Josifovski Sveshtarot, 1111 Skopje, North Macedonia",,,,,,
Јосиф Јосифовски Свештарот 38,,Skopje Region,Skopje,Municipality of Centar,1111,Centar,41.9901377,21.4370828,"Јосиф Јосифовски Свештарот 38, Josif Josifovski Sveshtarot, 1111 Skopje, North Macedonia",,,,,,
Будимпештанска 14,,Skopje Region,Skopje,Municipality of Karposh,9100,Taftalidzhe 2,42.0001963,21.3871218,"Будимпештанска 14, Budimpestanska, 9100 Skopje, North Macedonia",,,,,,
Vasko Karangeleski 17,,Skopje Region,Skopje,Municipality of Aerodrom,1001,Aerodrom,41.9835067,21.4582162,"Vasko Karangeleski 17, Васко Карангелески, 1001 Skopje, North Macedonia",,,,,,
Тодор Александров 85,,Skopje Region,Skopje,Municipality of Centar,1000,Centar,41.9815782,21.4212136,"Тодор Александров 85, Todor Aleksandrov, 1000 Skopje, North Macedonia",,,,,,
Todor Panica 7,,Skopje Region,Skopje,Municiplity of Kisela Voda,1001,Cvetan Dimov,41.9805073,21.4406935,"Todor Panica 7, Тодор Паница, 1001 Skopje, North Macedonia",,,,,,
Ruska rezidencija,,Skopje Region,Bardovci,Municipality of Karposh,1060,,42.028905,21.381609,"Ruska rezidencija, Street 6D, 1060 Bardovci, North Macedonia",,,,,,
Ulica 6 br 52,,Skopje Region,Bardovci,Municipality of Karposh,1060,,42.0288099,21.379023,"Ulica 6 br 52, Street 6, 1060 Bardovci, North Macedonia",,,,,,
Todor Aleksandrov 77,,Skopje Region,Skopje,Municipality of Centar,1000,Vodno,41.9834597,21.4191368,"Todor Aleksandrov 77, Todor Aleksandrov, 1000 Skopje, North Macedonia",,,,,,
Teodosij Gologanov 63,,,,,,,41.9961233,21.4020147,,,,,,,
Настел,,Skopje Region,Skopje,Municipality of Karposh,1020,Trnodol,41.9965472,21.3940285,"Настел, Yuri Gagarin, 1020 Skopje, North Macedonia",,,,,,
Gavril Konstantinovik 32a,,Skopje Region,Skopje,Municipality of Aerodrom,1001,Lisiche,41.9756138,21.4740568,"Gavril Konstantinovik 32a, Гаврил Константиновиќ, 1001 Skopje, North Macedonia",,,,,,
Jurij Gagarin 65a,,Skopje Region,Skopje,Municipality of Karposh,1020,Trnodol,41.9970637,21.3927793,"Jurij Gagarin 65a, Yuri Gagarin, 1020 Skopje, North Macedonia",,,,,,
Tome Arsovski 9,,Skopje Region,Skopje,Municiplity of Kisela Voda,1111,Cvetan Dimov,41.9855528,21.4320729,"Tome Arsovski 9, Tome Arsovski, 1111 Skopje, North Macedonia",,,,,,
Крчин 11б,,Skopje Region,Skopje,Municipality of Karposh,1020,Kozle,41.9922852,21.4044155,"Крчин 11б, Крчин, 1020 Skopje, North Macedonia",,,,,,
Рилски конгрес 28,,Skopje Region,Skopje,Municiplity of Kisela Voda,1000,Crniche,41.9834995,21.4266709,"Рилски конгрес 28, Рилски Конгрес, 1000 Skopje, North Macedonia",,,,,,
Teodosij Gologanov 69,,Skopje Region,Skopje,Municipality of Centar,1000,Kapishtec,41.994869,21.413215,"Teodosij Gologanov 69, Naroden Front, 1000 Skopje, North Macedonia",,,,,,
Strezovo 2,,Skopje Region,Skopje,Municipality of Karposh,1020,Kozle,41.9935889,21.4004663,"Strezovo 2, Strezovo, 1020 Skopje, North Macedonia",,,,,,
Питу Гули 31,,Skopje Region,Skopje,Municipality of Centar,1000,Vodno,41.9880922,21.4125895,"Питу Гули 31, Питу Гули, 1000 Skopje, North Macedonia",,,,,,
Томе Арсовски 26,,Skopje Region,Skopje,Municiplity of Kisela Voda,1111,Cvetan Dimov,41.9839599,21.4330518,"Томе Арсовски 26, Tome Arsovski, 1111 Skopje, North Macedonia",,,,,,
Cocev kamen,,Northeastern Region,Shopsko Rudare,Municipality of Kratovo,,,42.081857,21.9862604,"Cocev kamen, R29277, Shopsko Rudare, North Macedonia",,,,,,
Видиковец,,Skopje Region,Gorno Nerezi,Municipality of Karposh,9100,Karposh,41.963909,21.3820452,"Видиковец, Гунда, 9100 Gorno Nerezi, North Macedonia",,,,,,
Поглед кон Кичево,Kichevo Landscape,Southwestern Region,Kichevo,Municipality of Kichevo,6250,Bichinci,41.5165711,20.9761313,"Kichevo Landscape, Kichevo - Mala Korija Hiking Path, 6250 Kichevo, North Macedonia",,,,,,
Gipsy Neighbourhood,,Pelagonia Region,Krushevo OT,Municipality of Krushevo,7550,Gipsy Neighbourhood,41.3436497,21.256663,"Gipsy Neighbourhood, 7550 Krushevo OT, North Macedonia",,,,,,
Peak with wiew,Peak with wiew,Skopje Region,Matka,Municipality of Saraj,,,41.9507352,21.2974019,"Peak with wiew, Přehrada Matka - hráz, Matka, North Macedonia",,,,,,
Споменик „Филип || Македонски“,,Skopje Region,Skopje,Municipality of Centar,1111,Madzhir Maalo,41.9984293,21.43492434,"Споменик „Филип || Македонски“, Crvena Skopska Opshtina, 1111 Skopje, North Macedonia",,,,,,
Brunen Pferde,,Skopje Region,Skopje,Municipality of Centar,1111,Madzhir Maalo,41.9978752,21.433908,"Brunen Pferde, Плоштад Карпошово Востание""",,, 1111 Skopje," North Macedonia""",415035843,
Brunnen Centar,,Skopje Region,Skopje,Municipality of Centar,1111,Madzhir Maalo,41.9975378,21.434374,"Brunnen Centar, Плоштад Карпошово Востание""",,, 1111 Skopje," North Macedonia""",415035844,
Фонтана „Олимпија - Мајка на Александар III Македонски“,,Skopje Region,Skopje,Municipality of Centar,1111,Madzhir Maalo,41.9979449,21.43443192,"Фонтана „Олимпија - Мајка на Александар III Македонски“, Crvena Skopska Opshtina, 1111 Skopje, North Macedonia",,,,,,
Водоскоци,,Skopje Region,Skopje,Municipality of Centar,1111,Debar Maalo,41.99621415,21.43193675,"Водоскоци, Macedonia Square, 1111 Skopje, North Macedonia",,,,,,
Fontana,,Skopje Region,Skopje,Municipality of Gazi Baba,,Hipodrom,41.9955723,21.5095269,"Fontana, Париска Комуна, Skopje, North Macedonia",,,,,,
Фонтана на „Пресв. Богородица“,,Skopje Region,Skopje,Municipality of Karposh,1000,Karposh,41.9768382,21.40842042,"Фонтана на „Пресв. Богородица“, R2138, 1000 Skopje, North Macedonia",,,,,,
Фонтаната на Саармаале,,Vardar Region,Veles,Municipality of Veles,1400,,41.7174584,21.7820448,"Фонтаната на Саармаале, 8-ми Септември, 1400 Veles, North Macedonia",,,,,,
Фонтана на Оризот,Rice's Fountain,Eastern Region,Kochani,Municipality of Kochani,2300,,41.9175554,22.4106142,"Rice's Fountain, Димитар Влахов, 2300 Kochani, North Macedonia",,,,,,
Probistip Square,,Eastern Region,Probishtip,Municipality of Probishtip,,,41.9998748,22.1786529,"Probistip Square, Јаким Стојковски, Probishtip, North Macedonia",,,,,,
Батко Ѓорѓија,,Northeastern Region,Kumanovo,Municipality of Kumanovo,1300,,42.1358945,21.7181397,"Батко Ѓорѓија, Градски Плоштад, 1300 Kumanovo, North Macedonia",,,,,,
Четири бандере,,Northeastern Region,Kumanovo,Municipality of Kumanovo,1300,,42.1358695,21.7189012,"Четири бандере, Градски Плоштад, 1300 Kumanovo, North Macedonia",,,,,,
Фонтана Тоше Проески,,Skopje Region,Skopje,Municipality of Aerodrom,1001,Novo Lisiche,41.9845529,21.4768318,"Фонтана Тоше Проески, Тоше Проески (Детска Улица), 1001 Skopje, North Macedonia",,,,,,
Парк на светлината,Garden of lights,Skopje Region,Skopje,Municipality of Aerodrom,1001,Aerodrom,41.9873843,21.461329,"Garden of lights, Vasko Karangelevski, 1001 Skopje, North Macedonia",,,,,,
Паркот на езерата,The garden of lakes,Skopje Region,Skopje,Municipality of Aerodrom,1001,Jane Sandanski,41.9934584,21.4634442,"The garden of lakes, АСНОМ, 1001 Skopje, North Macedonia",,,,,,
Drinking Water,,Skopje Region,Skopje,Municipality of Chair,1009,Dukjandzhik,42.0045699,21.4402013,"Drinking Water, Boulevard Krste Misirkov, 1009 Skopje, North Macedonia",,,,,,
Drinking water,,Skopje Region,Skopje,Municipality of Centar,1000,Debar Maalo,41.9993717,21.4187328,"Drinking water, Boulevard Partizanski Odredi, 1000 Skopje, North Macedonia",,,,,,
Drinking water,,Skopje Region,Skopje,Municipality of Centar,1111,Centar,41.9920157,21.4403539,"Drinking water, Благој Деспотовски Шовељ, 1111 Skopje, North Macedonia",,,,,,
Фонтана,,Southwestern Region,Drugovo,Municipality of Kichevo,6261,,41.4830837,20.9229367,"Фонтана, Гоце Делчев, 6261 Drugovo, North Macedonia",,,,,,
Alexander the Great Statue,Alexander the Great Statue,Skopje Region,Skopje,Municipality of Centar,,Debar Maalo,41.99592345,21.43146719,"Alexander the Great Statue, Debar Maalo, Skopje, City of Skopje, North Macedonia",,,,,,
Саат Кула,Clock Tower,Pelagonia Region,Bitola,Municipality of Bitola,7000,Borimechka,41.0308805,21.33389765,"Clock Tower, Јорго Османо, 7000 Bitola, North Macedonia",,,,,,
Watchmaker OMEGA 1963,,Skopje Region,Skopje,Municipality of Chair,1000,Dukjandzhik,41.9999239,21.4362676,"Watchmaker OMEGA 1963, Салих Асим 23, 1000 Skopje, North Macedonia",,,,,,
Стоби,Stobi,Vardar Region,Gradsko,Municipality of Gradsko,1422,,41.55197745,21.97327698,"Stobi, Friendship, 1422 Gradsko, North Macedonia",,,,,,
Меморијален центар на холокаустот на Евреите од Македонија,Holocaust Memorial Center for the Jews of Macedonia,Skopje Region,Skopje,Municipality of Centar,1000,Debar Maalo,41.9984656,21.43338324,"Holocaust Memorial Center for the Jews of Macedonia, Самоилова 2, 1000 Skopje, North Macedonia",,,,,,
Isar-Marvinci,,Southeastern Region,Marvinci,Municipality of Valandovo,2463,,41.2774695,22.49371779,"Isar-Marvinci, R1401, 2463 Marvinci, North Macedonia",,,,,,
Порта Македонија,Porta Macedonia,Skopje Region,Skopje,Municipality of Centar,1000,Madzhir Maalo,41.9944541,21.43242535,"Porta Macedonia, 11 Oktomvri 4А, 1000 Skopje, North Macedonia",,,,,,
Скопско кале,Skopje Fortress,Skopje Region,Skopje,Municipality of Centar,1111,Debar Maalo,42.00080145,21.43304746,"Skopje Fortress, Самоилова, 1111 Skopje, North Macedonia",,,,,,
Могила на непобедените,,Pelagonia Region,Prilep,Municipality of Prilep,7500,,41.335059,21.55392237,"Могила на непобедените, 7500 Prilep, North Macedonia",,,,,,
Резиденцијата Главинов,Residence Glavinov,Skopje Region,Skopje,Municiplity of Kisela Voda,1000,Pripor,41.958616,21.4422187,"Residence Glavinov, Hristo Tatarchev 292 А, 1000 Skopje, North Macedonia",,,,,,
Македониум,,Pelagonia Region,Krushevo OT,Municipality of Krushevo,7550,Upper Krushevo,41.3774084,21.24837151,"Македониум, Плато, 7550 Krushevo OT, North Macedonia",,,,,,
Куќата на Мантови,House of Mantov,Pelagonia Region,Prilep,Municipality of Prilep,7513,Kozle,41.3555998,21.54033435,"House of Mantov, Naroden Heroj Jordan Chopela-Kulak, 7513 Prilep, North Macedonia",,,,,,
Маркови Кули,Marko's Towers,Pelagonia Region,Prilep (Vicinity),Municipality of Prilep,7513,,41.3616628,21.53875863,"Marko's Towers, Markukule, 7513 Prilep (Vicinity), North Macedonia",,,,,,
Скупи,Scupi,Skopje Region,Skopje,Municipality of Karposh,1020,Zlokukjani,42.01650785,21.39228802,"Scupi, Улица 10, 1020 Skopje, North Macedonia",,,,,,
Саат Кула,Clock Tower,Pelagonia Region,Bitola,Municipality of Bitola,7000,Borimechka,41.0308805,21.33389765,"Clock Tower, Јорго Османо, 7000 Bitola, North Macedonia",,,,,,
Плоштад Македонија,Macedonia Square,Skopje Region,Skopje,Municipality of Centar,,Debar Maalo,41.996094,21.43173662,"Macedonia Square, Debar Maalo, Skopje, City of Skopje, North Macedonia",,,,,,
Аквадукт Скопје,Skopje Aqueduct,Skopje Region,Skopje,Municipality of Butel,1009,Butel,42.0222287,21.4189735,"Skopje Aqueduct, Булевар Словенија, 1009 Skopje, North Macedonia",,,,,,
Лесновски манастир,Lesnovo Monastery,Eastern Region,Dreveno,Municipality of Probishtip,,,42.01325205,22.22829392,"Lesnovo Monastery, R1309, Dreveno, North Macedonia",,,,,,
Баргала,Bargala,Eastern Region,Radanje,Municipality of Karbinci,,,41.79875415,22.29040312,"Bargala, R2431, Radanje, North Macedonia",,,,,,
Џамија Ајдар Кади,,Pelagonia Region,Bitola,Municipality of Bitola,7000,Borimechka,41.0349732,21.33846918,"Џамија Ајдар Кади, Цане Василев, 7000 Bitola, North Macedonia",,,,,,
Тумба Маџари,Tumba Madzhari,Skopje Region,Skopje,Municipality of Gazi Baba,,Gazi Baba,42.0013717,21.5054241,"Tumba Madzhari, 22, Skopje, North Macedonia",,,,,,
Стибера,Stibera,Pelagonia Region,Topolchani,Municipality of Prilep,7512,,41.2437681,21.39753193,"Stibera, Тополчани, 7512 Topolchani, North Macedonia",,,,,,
Могила на непобедените,Mound of the undefeated,Pelagonia Region,Prilep,Municipality of Prilep,,Chachorica,41.33419995,21.55460056,"Могила на непобедените, Mound of the undefeated, Prilep, North Macedonia",,,,,,
Св. Великомаченик Георгиј,Church of St. George,Northeastern Region,Staro Nagorichane,Municipality of Staro Nagorichane,,,42.19823985,21.82807678,"Church of St. George, R1207, Staro Nagorichane, North Macedonia",,,,,,
Меморијален комплекс на паднатите борци на Револуцијата,,Eastern Region,Shtip,Municipality of Shtip,2000,Кежовица,41.73838535,22.1875376,"Меморијален комплекс на паднатите борци на Револуцијата, 4 та Македонска бригада, 2000 Shtip, North Macedonia",,,,,,
Исар,,Eastern Region,Shtip,Municipality of Shtip,2000,Кежовица,41.7387539,22.18693279,"Исар, 4 та Македонска бригада, 2000 Shtip, North Macedonia",,,,,,
Скупи,Scupi,Skopje Region,Skopje,Municipality of Karposh,1020,Karposh,42.02043115,21.388207,"Scupi, Улица 10, 1020 Skopje, North Macedonia",,,,,,
Споменик на слободата,Monument of Freedom,Eastern Region,Kochani,Municipality of Kochani,2300,,41.9188903,22.4069917,"Monument of Freedom, Kirili i Metodij, 2300 Kochani, North Macedonia",,,,,,
Штакле,Castle Stakle,Skopje Region,Skopje,Municipality of Chair,1000,Dukjandzhik,42.00552865,21.44764825,"Castle Stakle, Менделеева 58-a, 1000 Skopje, North Macedonia",,,,,,
Билазора,,Vardar Region,Sveti Nikole,Municipality of Sveti Nikole,2220,Бел Камен,41.84715315,21.9124755,"Билазора, Септемвриска, 2220 Sveti Nikole, North Macedonia",,,,,,
Плоштад Скендербег,Skanderbeg Square,Skopje Region,Skopje,Municipality of Chair,,Dukjandzhik,41.99928785,21.43714398,"Skanderbeg Square, Dukjandzhik, Skopje, City of Skopje, North Macedonia",,,,,,
Александар Македонски,,Eastern Region,Shtip,Municipality of Shtip,2000,Кежовица,41.73725115,22.19403747,"Александар Македонски, Marshal Tito St., 2000 Shtip, North Macedonia",,,,,,
Масакр кај Карпалак,Karpalak massacre,Polog Region,Rogle,Municipality of Zhelino,,,41.9769697,21.16756484,"Karpalak massacre, Rogle, Polog Region, North Macedonia",,,,,,
Гориче,Goriche,Pelagonia Region,Belche,Municipality of Demir Hisar/Murgashevo,7240,,41.23813075,21.20094674,"Goriche, R1305, 7240 Belche, North Macedonia",,,,,,
Кале,Kale,Pelagonia Region,Zrze,Municipality of Dolneni,7505,,41.5229554,21.34230745,"Kale, R29375, 7505 Zrze, North Macedonia",,,,,,
Мариовски Манастир,Monastery of Mariovo,Pelagonia Region,Manastir,Municipality of Prilep,,,41.16506545,21.72606952,"Monastery of Mariovo, Path to Chebren, Manastir, North Macedonia",,,,,,
Градот / Маркови Кули,Gradot / Markovi Kuli,Pelagonia Region,Manastir,Municipality of Prilep,,,41.2061566,21.71845881,"Gradot / Markovi Kuli, R1107, Manastir, North Macedonia",,,,,,
Старо Бонче,Staro Bonche,Pelagonia Region,Bonche,Municipality of Prilep,,,41.2066558,21.58839628,"Staro Bonche, R1107, Bonche, North Macedonia",,,,,,
Пелагон,Pelagon,Pelagonia Region,Kalen,Municipality of Prilep,,,41.20789235,21.61624259,"Pelagon, R1107, Kalen, North Macedonia",,,,,,
Кула,Kula,Southwestern Region,Barbaros,Municipality of Makedonski Brod,6530,,41.5070505,21.27355847,"Kula, R1303, 6530 Barbaros, North Macedonia",,,,,,
Воин на коњ,Warrior on a Horse,Skopje Region,Skopje,Municipality of Centar,1111,Debar Maalo,41.9959035,21.4314474,"Warrior on a Horse, Macedonia Square, 1111 Skopje, North Macedonia",,,,,,
Девини Кули,Devini Kuli,Southwestern Region,Devich,Municipality of Makedonski Brod,6530,,41.5417571,21.23741581,"Devini Kuli, R1106, 6530 Devich, North Macedonia",,,,,,
Св. Никола,St. Nicholas,Pelagonia Region,Zrze,Municipality of Dolneni,7505,,41.5183837,21.34997847,"St. Nicholas, R29375, 7505 Zrze, North Macedonia",,,,,,
Куќата на Ѓошеви,House of Gjoshev,Pelagonia Region,Prilep,Municipality of Prilep,7513,Kozle,41.3588274,21.53294046,"House of Gjoshev, Borka Lopach, 7513 Prilep, North Macedonia",,,,,,
Мучеинци,Mucheinci,Pelagonia Region,Loznani,Municipality of Mogila,7512,,41.2017673,21.40006855,"Mucheinci, A3, 7512 Loznani, North Macedonia",,,,,,
Св. Климент Охридски,Clement of Ohrid,Skopje Region,Skopje,Municipality of Centar,1111,Debar Maalo,41.9983057,21.4254968,"Clement of Ohrid, Bulevard Kliment Ohridski, 1111 Skopje, North Macedonia",,,,,,
Скендербег,Skanderbeg,Skopje Region,Skopje,Municipality of Chair,1111,Dukjandzhik,41.9993163,21.437162,"Skanderbeg Square, 1111 Skopje, North Macedonia",,,,,,
Костоперска Карпа,,Northeastern Region,Mlado Nagorichane,Municipality of Staro Nagorichane,,,42.1706665,21.809838,"Костоперска Карпа, A2, Mlado Nagorichane, North Macedonia",,,,,,
Кокино,,Northeastern Region,Kokino,Municipality of Staro Nagorichane,,,42.2633818,21.953118,"Кокино, R2244, Kokino, North Macedonia",,,,,,
Ножот,,Pelagonia Region,Rakle,Municipality of Prilep,,,41.4293251,21.7629669,"Ножот, Rakle, Pelagonia Region, North Macedonia",,,,,,
Римски театар,Roman theater,Vardar Region,Gradsko,Municipality of Gradsko,1422,,41.5516379,21.9751675,"Roman theater, Friendship, 1422 Gradsko, North Macedonia",,,,,,
Цоцев Камен,Cocev Kamen,Northeastern Region,Shopsko Rudare,Municipality of Kratovo,,,42.0836218,21.9862589,"Cocev Kamen, Shopsko Rudare, Northeastern Region, North Macedonia",,,,,,
Zebrnjak,,,,,,,42.1491368,21.7853235,,,,,,,
Христо Узунов,,Southwestern Region,Cer,Municipality of Kichevo,,,41.4182291,21.0770931,"R.I.P. Христо Узунов, Cer, North Macedonia",,,,,,
Маркови Кули,Markovi Kuli,Skopje Region,Skopje,Municipality of Karposh,1054,Karposh,41.9682709,21.4313461,"Markovi Kuli, R2138, 1054 Skopje, North Macedonia",,,,,,
Св. Климент Охридски и Наум Охридски Чудотворец,Saints Clement of Ohrid and Naum,Skopje Region,Skopje,Municipality of Centar,1111,Madzhir Maalo,41.9975624,21.4341509,"Saints Clement of Ohrid and Naum, Плоштад Карпошово Востание""",,, 1111 Skopje," North Macedonia""",4128156210,
Цар Самоил,Tsar Samuel,Skopje Region,Skopje,Municipality of Centar,1000,Debar Maalo,41.9953917,21.4313414,"Tsar Samuel, Macedonia Square, 1000 Skopje, North Macedonia",,,,,,
Јустинијан I,Justinian I,Skopje Region,Skopje,Municipality of Centar,1111,Debar Maalo,41.9968799,21.4323054,"Justinian I, Macedonia Square, 1111 Skopje, North Macedonia",,,,,,
Vila Varvarka,Vila Varvarka,Skopje Region,Rakotinci,Municipality of Sopishte,1050,,41.9130467,21.4333848,"Vila Varvarka, R1106, 1050 Rakotinci, North Macedonia",,,,,,
Kanda - Geoglif Sv. Nikole,,Vardar Region,Dolno Crnilishte,Municipality of Sveti Nikole,2220,Каракански Бавчи,41.8289715,21.9562049,"Kanda - Geoglif Sv. Nikole, R1204, 2220 Dolno Crnilishte, North Macedonia",,,,,,
Бањичко Кале,Banjica Fortress,Vardar Region,Drenovo,Municipality of Chashka,,,41.6952366,21.628172,"Banjica Fortress, R2344, Drenovo, North Macedonia",,,,,,
Љубе Грујоски,Ljube Grujoski,Pelagonia Region,Pashino Ruvci,Municipality of Krivogashtani,7525,,41.2754595,21.3684104,"Љубе Грујоски, Ljube Grujoski, 7525 Pashino Ruvci, North Macedonia",,,,,,
Дабнички масакр,Masacre of Dabnica,Pelagonia Region,Prilep,Municipality of Prilep,7510,Tri Bagremi,41.3724643,21.5605466,"Masacre of Dabnica, Dabnichka, 7510 Prilep, North Macedonia",,,,,,
Толе Паша,Tole Pasha,Pelagonia Region,Dunje,Municipality of Prilep,,,41.2064953,21.6536957,"Tole Pasha, R1107, Dunje, North Macedonia",,,,,,
Масакр во Ваташа,Vatasha Massacre,Vardar Region,Municipality of Kavadarci,,1430,Vatasha,41.4014262,22.0284286,"Vatasha Massacre, R1107, 1430 Municipality of Kavadarci, North Macedonia",,,,,,
Сухои Су-25УБ,Sukhoi Su25UB,Skopje Region,Miladinovci,Municipality of Ilinden,1043,,41.9755167,21.6216919,"Sukhoi Su25UB, A2, 1043 Miladinovci, North Macedonia",,,,,,
Сухои Су-25К,Sukhoi Su25K,Skopje Region,Miladinovci,Municipality of Ilinden,1043,,41.9754577,21.6219516,"Sukhoi Su25K, A2, 1043 Miladinovci, North Macedonia",,,,,,
Сухои Су-25К,Sukhoi Su25K,Skopje Region,Miladinovci,Municipality of Ilinden,1043,,41.9753556,21.6221983,"Sukhoi Su25K, A2, 1043 Miladinovci, North Macedonia",,,,,,
Сухои Су-25К,Sukhoi Su25K,Skopje Region,Miladinovci,Municipality of Ilinden,1043,,41.975287,21.6224322,"Sukhoi Su25K, A2, 1043 Miladinovci, North Macedonia",,,,,,
Филип II Македонски,Philip II of Macedon,Skopje Region,Skopje,Municipality of Centar,1111,Madzhir Maalo,41.9984602,21.4349949,"Philip II of Macedon, Плоштад Карпошово Востание""",,, 1111 Skopje," North Macedonia""",1859114111,
Француски гробишта,French Cemetery,Skopje Region,Skopje,Municipality of Centar,1009,Debar Maalo,42.00834675,21.42983538,"French Cemetery, Samoilova, 1009 Skopje, North Macedonia",,,,,,
Споменик Костурница,,Northeastern Region,Kumanovo,Municipality of Kumanovo,1300,,42.1454142,21.72264768,"Споменик Костурница, Средорек, 1300 Kumanovo, North Macedonia",,,,,,
Винарија Грков,Grkov Winery,Vardar Region,Krnjevo,Municipality of Kavadarci,,winery,41.3154452,22.12806428,"Grkov Winery, R29171, Krnjevo, North Macedonia",,,,,,
Манастир Св. Богородица,St. Holy Mother of God Monastery,Skopje Region,Pobozhje,Municipality of Chucher Sandevo,,,42.12561345,21.42829508,"St. Holy Mother of God Monastery, R2239, Pobozhje, North Macedonia",,,,,,
Манастир Св. Никола,Saint Nicholas Monastery,Skopje Region,Brodec,Municipality of Chucher Sandevo,,,42.10977925,21.46959973,"Saint Nicholas Monastery, Љубанци - Бродец, Brodec, North Macedonia",,,,,,
Средновековна Кула,Medieval Tower,Eastern Region,Kochani,Municipality of Kochani,2300,,41.921549,22.40906635,"Medieval Tower, Ilindenska, 2300 Kochani, North Macedonia",,,,,,
Средновековна Кула,Medieval Tower,Eastern Region,Kochani,Municipality of Kochani,2300,,41.92340425,22.41208105,"Medieval Tower, Krushevska, 2300 Kochani, North Macedonia",,,,,,
Китино Кале,Kita Castle,Southwestern Region,Kichevo,Municipality of Kichevo,6250,Podvarosh,41.51296155,20.96639378,"Kita Castle, Амит Челопечанец, 6250 Kichevo, North Macedonia",,,,,,
Спомен куќа Тоше Проески,,Pelagonia Region,Krushevo,Municipality of Krushevo,7550,Upper Krushevo,41.3744405,21.24628933,"Спомен куќа Тоше Проески, Гумење, 7550 Krushevo, North Macedonia",,,,,,
Кале,,Pelagonia Region,Buchin,Municipality of Krushevo,7525,,41.2581743,21.31474592,"Кале, R2335, 7525 Buchin, North Macedonia",,,,,,
Антички театар,ancient theater of Stobi,Vardar Region,Gradsko,Municipality of Gradsko,1422,,41.55140205,21.97459165,"ancient theater of Stobi, Friendship, 1422 Gradsko, North Macedonia",,,,,,
Милениумски крст,Millennium Cross,Skopje Region,Skopje,Municipality of Karposh,1054,Karposh,41.96497835,21.39458801,"Millennium Cross, Карпи, 1054 Skopje, North Macedonia",,,,,,
Маркови Кули,Markovi Kuli,Skopje Region,Letevci,Municipality of Petrovec,,,41.83810685,21.69933596,"Markovi Kuli, Friendship, Letevci, North Macedonia",,,,,,
Градиште,Gradishte,Pelagonia Region,Graishte,Municipality of Demir Hisar/Murgashevo,7240,,41.2409898,21.21856052,"Gradishte, R2339, 7240 Graishte, North Macedonia",,,,,,
Стибера,,Pelagonia Region,Topolchani,Municipality of Prilep,7512,,41.2441667,21.39857367,"Стибера, Тополчани, 7512 Topolchani, North Macedonia",,,,,,
Безистен,,,,,,,42.00144135,21.4370402,,,,,,,
Антигона,,Vardar Region,Negotino,Municipality of Negotino,1440,,41.50339145,22.10027239,"Антигона, R1103, 1440 Negotino, North Macedonia",,,,,,
Питу Гули,,Skopje Region,Skopje,Municipality of Centar,1111,Madzhir Maalo,41.9936737,21.433319,"Питу Гули, Dimitrie Chupovski, 1111 Skopje, North Macedonia",,,,,,
Гоце Делчев,,Skopje Region,Skopje,Municipality of Centar,1111,Debar Maalo,42.0032812,21.4233737,"Гоце Делчев, Наум Наумовски Борче, 1111 Skopje, North Macedonia",,,,,,
Влез на Скопското кале,Skopje Fortress Gate,Skopje Region,Skopje,Municipality of Centar,1111,Madzhir Maalo,42.0008716,21.4338778,"Skopje Fortress Gate, Samoilova, 1111 Skopje, North Macedonia",,,,,,
Костурница,Kosturnica,Vardar Region,Kavadarci,Municipality of Kavadarci,1430,,41.4325212,22.0228463,"Kosturnica, Дисанска, 1430 Kavadarci, North Macedonia",,,,,,
Мечкин Камен,Mechkin Kamen,Pelagonia Region,Krushevo OT,Municipality of Krushevo,7550,Gipsy Neighbourhood,41.3377228,21.257898,"Mechkin Kamen, R1306, 7550 Krushevo OT, North Macedonia",,,,,,
Слива,,Pelagonia Region,Krushevo OT,Municipality of Krushevo,7550,,41.3880768,21.2273776,"Слива, R2337, 7550 Krushevo OT, North Macedonia",,,,,,
Камен мост,Stone Bridge,Skopje Region,Skopje,Municipality of Centar,1111,Madzhir Maalo,41.9972545,21.4334562,"Камен мост, Stone Bridge, 1111 Skopje, North Macedonia",,,,,,
Трескавец,Treskavec,Pelagonia Region,Prilep (Vicinity),Municipality of Prilep,7513,,41.40530025,21.53792204,"Hiking trail Prilep - Treskavec, 7513 Prilep (Vicinity), North Macedonia",,,,,,
Гоце Делчев,,Eastern Region,Shtip,Municipality of Shtip,2000,Кежовица,41.73631045,22.18210515,"Гоце Делчев, Dimitar Vlahov, 2000 Shtip, North Macedonia",,,,,,
св. Тројица,Sv. Trojitca,Skopje Region,Banjane,Municipality of Chucher Sandevo,,,42.1027654,21.37854295,"Sv. Trojitca, Манастир Св. Илија, Banjane, North Macedonia",,,,,,
Мост на уметноста,Bridge of Artists,Skopje Region,Skopje,Municipality of Centar,1111,Madzhir Maalo,41.9957163,21.43593497,"Bridge of Artists, Bridge of the Arts, 1111 Skopje, North Macedonia",,,,,,
Света Недела,Holy Sunday,Skopje Region,Matka,Municipality of Saraj,,,41.9497131,21.29151425,"Holy Sunday, Sveta Nedela, Matka, North Macedonia",,,,,,
Св. Андреј,,Skopje Region,Matka,Municipality of Saraj,,,41.952326,21.2988152,"Св. Андреј, Matka, City of Skopje, North Macedonia",,,,,,
Колонада,,,,,,,41.99641253,21.43574695,,,,,,,
Geoglif Sv. Nikole,,Vardar Region,Dolno Crnilishte,Municipality of Sveti Nikole,2220,Каракански Бавчи,41.82913655,21.95650557,"Geoglif Sv. Nikole, R1204, 2220 Dolno Crnilishte, North Macedonia",,,,,,
Bilazora - Water Reservoir,,Vardar Region,Sveti Nikole,Municipality of Sveti Nikole,2220,Бел Камен,41.84973375,21.9099884,"Bilazora - Water Reservoir, Септемвриска, 2220 Sveti Nikole, North Macedonia",,,,,,
Велешки Гемиџија,,Vardar Region,Veles,Municipality of Veles,1400,,41.716152,21.78342051,"Велешки Гемиџија, R1312, 1400 Veles, North Macedonia",,,,,,
Спомен плоча - Ѓурѓејца,,Southwestern Region,Karbunica,Municipality of Kichevo,6250,,41.45308785,20.96611594,"Спомен плоча - Ѓурѓејца, Патека кон с.Кладник / репетитор, 6250 Karbunica, North Macedonia",,,,,,
Споменик на Народоослободителната борба,,Vardar Region,Sveti Nikole,Municipality of Sveti Nikole,2220,Лозов Расадник,41.8647413,21.9388571,"Споменик на Народоослободителната борба, Кочо Рацин, 2220 Sveti Nikole, North Macedonia",,,,,,
Споменик „Александар Серафимов“,,Vardar Region,Sveti Nikole,Municipality of Sveti Nikole,2220,Рецко Маало,41.8647297,21.93981675,"Споменик „Александар Серафимов“, City square Ilinden""",,, 2220 Sveti Nikole," North Macedonia""",839150824,
Пешта,Peshta,Pelagonia Region,Gradeshnica,Municipality of Novaci,,,41.08806725,21.74435335,"Peshta, R2338, Gradeshnica, North Macedonia",,,,,,
Марков Ѕид,Marko's Wall,Pelagonia Region,Shtavica,Municipality of Prilep,,,41.29936995,21.58962052,"Marko's Wall, R1107, Shtavica, North Macedonia",,,,,,
Градиште,Gradishte,Pelagonia Region,Kalen,Municipality of Prilep,,,41.20492915,21.64428485,"Gradishte, R1107, Kalen, North Macedonia",,,,,,
Бабо,Babo,Pelagonia Region,Dunje,Municipality of Prilep,,,41.1967792,21.65211903,"Babo, R1107, Dunje, North Macedonia",,,,,,
Споменин на Слободата,Freedom Monument,Eastern Region,Kochani,Municipality of Kochani,2300,,41.91888895,22.40699364,"Freedom Monument, Kirili i Metodij, 2300 Kochani, North Macedonia",,,,,,
19.12.1942,,Pelagonia Region,Shtavica,Municipality of Prilep,,,41.28955205,21.59606691,"19.12.1942, R1107, Shtavica, North Macedonia",,,,,,
Viničko Kale,,Eastern Region,Vinica,Municipality of Vinica,2310,,41.87728705,22.5027353,"Viničko Kale, 30 Avgust, 2310 Vinica, North Macedonia",,,,,,
Свет Крст,,Eastern Region,Vinica,Municipality of Vinica,2310,,41.8789089,22.51060373,"Свет Крст, 4-та Македонска Бригада, 2310 Vinica, North Macedonia",,,,,,
Св Кирил и Методи,,Eastern Region,Shtip,Municipality of Shtip,2000,Кежовица,41.7362862,22.18829584,"Св Кирил и Методи, Мост Св.Никола, 2000 Shtip, North Macedonia",,,,,,
Rimska crkva,,Skopje Region,Orman,Municipality of Gjorche Petrov,1060,,42.0586697,21.3527926,"Rimska crkva, Mother Teresa, 1060 Orman, North Macedonia",,,,,,
Давина Кула,Davina Kula,Skopje Region,Gluvo,Municipality of Chucher Sandevo,,,42.0843452,21.3548716,"Davina Kula, A4, Gluvo, North Macedonia",,,,,,
Голема Кула - Кучково,,Skopje Region,Gorno Svilare,Municipality of Saraj,1060,,42.0587494,21.2786993,"Голема Кула - Кучково, Street 1, 1060 Gorno Svilare, North Macedonia",,,,,,
Мала Кула - Кучково,,Skopje Region,Kuchkovo,Municipality of Gjorche Petrov,,,42.0585741,21.2844339,"Мала Кула - Кучково, Улица 103, Kuchkovo, North Macedonia",,,,,,
Zena,,Northeastern Region,Kumanovo,Municipality of Kumanovo,1300,,42.1355189,21.7200501,"Zena, Иво Лола Рибар, 1300 Kumanovo, North Macedonia",,,,,,
Gradiste kaj s.Brazda,,Skopje Region,Brazda,Municipality of Chucher Sandevo,,,42.0766913,21.398848,"Gradiste kaj s.Brazda, R2239, Brazda, North Macedonia",,,,,,
Манастир Св. Андреј,Monastery St. Andrej,Skopje Region,Matka,Municipality of Saraj,,,41.9505936,21.2991931,"Monastery St. Andrej, Přehrada Matka - hráz, Matka, North Macedonia",,,,,,
Филип Втори,,Skopje Region,Skopje,Municipality of Gazi Baba,1001,Автокоманда,42.0017233,21.4617772,"Филип Втори, Плоштад Автокоманда, 1001 Skopje, North Macedonia",,,,,,
Јосип Броз - Тито,,Northeastern Region,Kumanovo,Municipality of Kumanovo,1300,,42.1355778,21.7194275,"Јосип Броз - Тито, Иво Лола Рибар, 1300 Kumanovo, North Macedonia",,,,,,
Марков Град,Markov Grad,Vardar Region,Koreshnica,Municipality of Demir Kapija,1442,,41.4094203,22.2541295,"Markov Grad, Friendship, 1442 Koreshnica, North Macedonia",,,,,,
Меморијален центар АСНОМ,Memorial Center ASNOM,Northeastern Region,Pelince,Municipality of Staro Nagorichane,,,42.2782511,21.8500367,"Memorial Center ASNOM, R1207, Pelince, North Macedonia",,,,,,
Sahat Kula,,Polog Region,Gostivar,Municipality of Gostivar,1230,,41.794932,20.9108574,"Sahat Kula, Nikola Parapunov, 1230 Gostivar, North Macedonia",,,,,,
Орашко Кале,Orashko Kale,Polog Region,Nerashte,Municipality of Jegunovce,,,42.1068795,21.1545235,"Orashko Kale, R2234, Nerashte, North Macedonia",,,,,,
Саат кула,,Southwestern Region,Kichevo,Municipality of Kichevo,6250,Bichinci,41.5119269,20.9702432,"Саат кула, Јане Сандански, 6250 Kichevo, North Macedonia",,,,,,
Саат кула,,Vardar Region,Veles,Municipality of Veles,1400,,41.7140782,21.7840512,"Саат кула, 8-ми Септември, 1400 Veles, North Macedonia",,,,,,
Isar / Idomenae,,Southeastern Region,Marvinci,Municipality of Valandovo,2463,,41.2775784,22.4937679,"Isar / Idomenae, R1401, 2463 Marvinci, North Macedonia",,,,,,
Куде сат,,Northeastern Region,Kumanovo,Municipality of Kumanovo,1300,,42.1346962,21.7192303,"Куде сат, Гане георгиев, 1300 Kumanovo, North Macedonia",,,,,,
Народен Херој Кузман Јосифоски-Питу,People's hero Kuzman Josifoski-Pitu,Pelagonia Region,Prilep,Municipality of Prilep,7500,Charshija,41.3451182,21.5519842,"People's hero Kuzman Josifoski-Pitu, Metodija Andonov - Chento, 7500 Prilep, North Macedonia",,,,,,
Пеце Атанасоски,,Pelagonia Region,Prilep,Municipality of Prilep,7500,Charshija,41.3451518,21.554267,"Пеце Атанасоски, Borka Taleski-Modernoto, 7500 Prilep, North Macedonia",,,,,,
Ѓорче Петров,Gjorche Petrov,Pelagonia Region,Prilep,Municipality of Prilep,7500,Charshija,41.3452617,21.5522173,"Gjorche Petrov, Metodija Andonov - Chento, 7500 Prilep, North Macedonia",,,,,,
Питу Гули,,Pelagonia Region,Krushevo,Municipality of Krushevo,7550,Upper Krushevo,41.3748344,21.2480535,"Питу Гули, Гумење, 7550 Krushevo, North Macedonia",,,,,,
Тоше Проески,,Pelagonia Region,Krushevo,Municipality of Krushevo,7550,Upper Krushevo,41.3748686,21.2482546,"Тоше Проески, Гумење, 7550 Krushevo, North Macedonia",,,,,,
Никола Карев,,Pelagonia Region,Krushevo,Municipality of Krushevo,7550,Upper Krushevo,41.3736665,21.2463296,"Никола Карев, Nikola Karev, 7550 Krushevo, North Macedonia",,,,,,
Стефан Наумов-Стив,Stefan Naumov-Stiv,Pelagonia Region,Bitola,Municipality of Bitola,7000,Borimechka,41.024615,21.3368929,"Stefan Naumov-Stiv, Makedonska Falanga, 7000 Bitola, North Macedonia",,,,,,
Питу Гули,Pitu Guli,Pelagonia Region,Krushevo OT,Municipality of Krushevo,7550,Влашко Маало,41.3649692,21.2497316,"Pitu Guli, Kocha Milenku, 7550 Krushevo OT, North Macedonia",,,,,,
Наум Наумоски-Борче,Naum Naumoski-Borche,Pelagonia Region,Krushevo OT,Municipality of Krushevo,7550,Влашко Маало,41.3653856,21.2484409,"Naum Naumoski-Borche, Kocha Milenku, 7550 Krushevo OT, North Macedonia",,,,,,
99.4-053,,Southwestern Region,Kichevo,Municipality of Kichevo,6250,Pod Krusino,41.5126479,20.951411,"99.4-053, Boulevard Osloboduvanje, 6250 Kichevo, North Macedonia",,,,,,
Карпалак,,Pelagonia Region,Prilep,Municipality of Prilep,7500,Charshija,41.3475544,21.5564074,"Карпалак, Gjorgji Delchev-Goce, 7500 Prilep, North Macedonia",,,,,,
Мачка камен,Macka kamen,Northeastern Region,Konjuh,Municipality of Kratovo,,,42.0853984,21.9627449,"Macka kamen, R29277, Konjuh, North Macedonia",,,,,,
Споменик на жртви од НОВ,,Polog Region,Radiovce,Municipality of Brvenica,1213,,41.9062629,20.9636151,"Споменик на жртви од НОВ, 102, 1213 Radiovce, North Macedonia",,,,,,
Александар Македонски,,,,,,,41.3460556,21.5524989,,,,,,,
Методија Андонов-Ченто,,Pelagonia Region,Prilep,Municipality of Prilep,7500,Charshija,41.3462544,21.5528281,"Методија Андонов-Ченто, Alexandria Square, 7500 Prilep, North Macedonia",,,,,,
Св. Никола,,Pelagonia Region,Prilep,Municipality of Prilep,7500,Charshija,41.3462194,21.553243,"Св. Никола, Alexandria Square, 7500 Prilep, North Macedonia",,,,,,
Масакр кај Пуста Кула,,Vardar Region,Rudnik,Municipality of Veles,,,41.822914,21.7360635,"Масакр кај Пуста Кула, 10113, Rudnik, North Macedonia",,,,,,
Карпалак 2001,,Pelagonia Region,Prilep,Municipality of Prilep,7500,Bonchejca,41.3434323,21.5479723,"Карпалак 2001, Gjorgji Delchev-Goce, 7500 Prilep, North Macedonia",,,,,,
Крипта,Cript,Pelagonia Region,Prilep,Municipality of Prilep,7500,Shtavichko Maalo,41.3341123,21.554646,"Cript, Car Samoil ББ, 7500 Prilep, North Macedonia",,,,,,
Итар Пејо,Sly Peter,Pelagonia Region,Prilep,Municipality of Prilep,7500,Charshija,41.345456,21.5548417,"Итар Пејо, Sly Peter, 7500 Prilep, North Macedonia",,,,,,
Josip Broz Tito,,Skopje Region,Skopje,Municipality of Centar,1000,Debar Maalo,41.9952169,21.426153,"Josip Broz Tito, Dimitrie Čupovski, 1000 Skopje, North Macedonia",,,,,,
Св. Кирил и Методиј,Saints Cyril and Methodius,Skopje Region,Skopje,Municipality of Centar,1111,Madzhir Maalo,41.9977079,21.4339766,"Saints Cyril and Methodius, Плоштад Карпошово Востание""",,, 1111 Skopje," North Macedonia""",4128156209,
Даме Груев,Dame Gruev,Skopje Region,Skopje,Municipality of Centar,1111,Debar Maalo,41.9964949,21.4321474,"Dame Gruev, Macedonia Square, 1111 Skopje, North Macedonia",,,,,,
Олимпија,Olympias,Skopje Region,Skopje,Municipality of Centar,1111,Madzhir Maalo,41.9979046,21.4344182,"Olympias, Плоштад Карпошово Востание""",,, 1111 Skopje," North Macedonia""",4161249330,
Прометеј,Prometheus,Skopje Region,Skopje,Municipality of Centar,1111,Madzhir Maalo,41.993303,21.4337226,"Prometheus, Dimitrie Chupovski, 1111 Skopje, North Macedonia",,,,,,
Тодор Александров,,Skopje Region,Skopje,Municiplity of Kisela Voda,1111,Cvetan Dimov,41.9834333,21.439106,"Тодор Александров, Иван Козаров, 1111 Skopje, North Macedonia",,,,,,
Стара Рампа,,Skopje Region,Skopje,Municiplity of Kisela Voda,1111,Cvetan Dimov,41.986749,21.4369668,"Стара Рампа, Булевар Македонија, 1111 Skopje, North Macedonia",,,,,,
Бегова кула,Bey's Tower,Skopje Region,Skopje,Municipality of Centar,1111,Debar Maalo,41.9936684,21.4317487,"Bey's Tower, Dimitrie Chupovski, 1111 Skopje, North Macedonia",,,,,,
Борка Талески-Модерното / Лазо Филиповски-Лавски,Borka Taleski / Lazo Filipovski,Pelagonia Region,Pletvar,Municipality of Prilep,,,41.3661079,21.6749495,"Borka Taleski / Lazo Filipovski, R1101, Pletvar, North Macedonia",,,,,,
Споменик на загинатите евреи,,Eastern Region,Shtip,Municipality of Shtip,2000,Кежовица,41.736405,22.1903758,"Споменик на загинатите евреи, Marshal Tito St., 2000 Shtip, North Macedonia",,,,,,
Мустафа-пашина џамија,Murat Pasha Mosque,Skopje Region,Skopje,Municipality of Chair,1009,Dukjandzhik,42.000853,21.4375046,"Murat Pasha Mosque, Битпазарска, 1009 Skopje, North Macedonia",,,,,,
Споменик на Јуриј Гагарин,Yuri Gagarin Monument,Skopje Region,Skopje,Municipality of Karposh,1020,Kozle,41.9949279,21.4108745,"Yuri Gagarin Monument, Yuri Gagarin, 1020 Skopje, North Macedonia",,,,,,
Никола Карев,,Skopje Region,Skopje,Municipality of Centar,1111,Madzhir Maalo,41.9930188,21.4332009,"Никола Карев, Dimitrie Chupovski, 1111 Skopje, North Macedonia",,,,,,
Вера Јоциќ,Vera Jocik,Skopje Region,Skopje,Municipality of Centar,1111,Debar Maalo,42.0016804,21.4283664,"Vera Jocik, Јордан Хаџиконстантинов Џинот, 1111 Skopje, North Macedonia",,,,,,
Марко Мрњавчевиќ,Marko Mrnjavchevikj,Pelagonia Region,Prilep,Municipality of Prilep,7500,Charshija,41.3455416,21.5532375,"Marko Mrnjavchevikj, Metodija Andonov - Chento, 7500 Prilep, North Macedonia",,,,,,
Круме Кепески,,Pelagonia Region,Prilep,Municipality of Prilep,7500,Charshija,41.3450704,21.5505634,"Круме Кепески, Art Square, 7500 Prilep, North Macedonia",,,,,,
Блаже Конески,,Pelagonia Region,Prilep,Municipality of Prilep,7500,Charshija,41.3451329,21.5506707,"Блаже Конески, Art Square, 7500 Prilep, North Macedonia",,,,,,
Марко Цепенков,,Pelagonia Region,Prilep,Municipality of Prilep,7500,Charshija,41.3451792,21.5505581,"Марко Цепенков, Art Square, 7500 Prilep, North Macedonia",,,,,,
Китино Кале,Kita Castle,Southwestern Region,Kichevo,Municipality of Kichevo,6250,Podvarosh,41.5130946,20.9663459,"Kita Castle, Амит Челопечанец, 6250 Kichevo, North Macedonia",,,,,,
Борецот,,Pelagonia Region,Prilep (Vicinity),Municipality of Prilep,7513,,41.3738524,21.5025867,"Борецот, R1303, 7513 Prilep (Vicinity), North Macedonia",,,,,,
Емин-бегова кула,Emin Bey Tower,Northeastern Region,Kratovo,Municipality of Kratovo,,,42.0769461,22.1823517,"Emin Bey Tower, Скопска, Kratovo, North Macedonia",,,,,,
Крстева кула,Krste's Tower,Northeastern Region,Kratovo,Municipality of Kratovo,,,42.0768838,22.1826261,"Krste's Tower, Скопска, Kratovo, North Macedonia",,,,,,
Хаџикостова кула,Hadji Kostov Tower,Northeastern Region,Kratovo,Municipality of Kratovo,,,42.0768628,22.1822635,"Hadji Kostov Tower, Јосиф Даскалов, Kratovo, North Macedonia",,,,,,
Саат-кула,Clock Tower,Northeastern Region,Kratovo,Municipality of Kratovo,,,42.0792053,22.1818109,"Clock Tower, Браќа Миладинови, Kratovo, North Macedonia",,,,,,
Златковичева кула,Zlatkovich Tower,Northeastern Region,Kratovo,Municipality of Kratovo,,,42.0788289,22.1809805,"Zlatkovich Tower, Гоце Делчев, Kratovo, North Macedonia",,,,,,
Симиќева кула,Simikj Tower,Northeastern Region,Kratovo,Municipality of Kratovo,,,42.0786957,22.1794714,"Simikj Tower, Трајче Арсов, Kratovo, North Macedonia",,,,,,
Теракота,,Eastern Region,Vinica,Municipality of Vinica,2310,,41.8845661,22.5039935,"Теракота, Angel of Vinica, 2310 Vinica, North Macedonia",,,,,,
Гоце Делчев,Goce Delchev,Skopje Region,Skopje,Municipality of Centar,1111,Debar Maalo,41.9963577,21.4323793,"Goce Delchev, Macedonia Square, 1111 Skopje, North Macedonia",,,,,,
Konjuh,,Northeastern Region,Konjuh,Municipality of Kratovo,,,42.1003011,21.9665342,"R29277, Konjuh, North Macedonia",,,,,,
Rotonda Konjuh,,Northeastern Region,Konjuh,Municipality of Kratovo,,,42.0949995,21.9658672,"Rotonda Konjuh, R29277, Konjuh, North Macedonia",,,,,,
Bosko Chapel,,Northeastern Region,Konjuh,Municipality of Kratovo,,,42.0995746,21.9606298,"Bosko Chapel, R29277, Konjuh, North Macedonia",,,,,,
Bargala,,Eastern Region,Radanje,Municipality of Karbinci,,,41.7995125,22.289829,"Bargala, R2431, Radanje, North Macedonia",,,,,,
Doma,,Skopje Region,Skopje,Municipality of Chair,1009,Топанско Поле,42.0169571,21.4434502,"Doma, Kemal Sejfulla, 1009 Skopje, North Macedonia",,,,,,
Спомен плоча на Мајка Тереза,Mother Teresa Old House Place,Skopje Region,Skopje,Municipality of Centar,1000,Debar Maalo,41.9952759,21.4319995,"Mother Teresa Old House Place, 11 Oktomvri, 1000 Skopje, North Macedonia",,,,,,
Методија Андонов - Ченто,,Skopje Region,Skopje,Municipality of Centar,1111,Debar Maalo,41.9957136,21.4306041,"Методија Андонов - Ченто, Maksim Gorki, 1111 Skopje, North Macedonia",,,,,,
Monument Hristo Uzunov,,Skopje Region,Skopje,Municipality of Centar,1111,Debar Maalo,41.9950349,21.4293515,"Monument Hristo Uzunov, Nikola Vapcarov, 1111 Skopje, North Macedonia",,,,,,
patarina-160,,Skopje Region,Glumovo,Municipality of Saraj,,,41.9885405,21.2926787,"patarina-160, Mother Terese, Glumovo, North Macedonia",,,,,,
2 musicians and one dancing man,,Skopje Region,Skopje,Municipality of Centar,1111,Debar Maalo,41.9943288,21.4307922,"2 musicians and one dancing man, Makedonija, 1111 Skopje, North Macedonia",,,,,,
PMK301 / PH-KXL,,Skopje Region,Bunardjik,Municipality of Ilinden,1043,,41.9779001,21.6157628,"PMK301 / PH-KXL, A2, 1043 Bunardjik, North Macedonia",,,,,,
Ацо Ангеловски,,Skopje Region,Brnjarci,Municipality of Gazi Baba,1041,,42.022416,21.5476216,"Ацо Ангеловски, Методија Андонов Ченто, 1041 Brnjarci, North Macedonia",,,,,,
Кирил Петрушевски,,Skopje Region,Brnjarci,Municipality of Gazi Baba,1041,,42.0225556,21.5480468,"Кирил Петрушевски, Методија Андонов Ченто, 1041 Brnjarci, North Macedonia",,,,,,
Ерол Готак,,,,,,,42.0227044,21.5486015,,,,,,,
Нане Наумоски,,Polog Region,Rogle,Municipality of Zhelino,,,41.9764851,21.1660504,"Нане Наумоски, Масакр кај Карпалак, Rogle, North Macedonia",,,,,,
Сашо Китаноски,,Polog Region,Rogle,Municipality of Zhelino,,,41.977847,21.1773385,"Сашо Китаноски, Масакр кај Карпалак, Rogle, North Macedonia",,,,,,
Бранко Секулоски,,Polog Region,Rogle,Municipality of Zhelino,,,41.97753,21.1679024,"Бранко Секулоски, Масакр кај Карпалак, Rogle, North Macedonia",,,,,,
Горан Миноски,,Polog Region,Rogle,Municipality of Zhelino,,,41.9781971,21.1745241,"Горан Миноски, Масакр кај Карпалак, Rogle, North Macedonia",,,,,,
Марко Деспотоски,,Polog Region,Rogle,Municipality of Zhelino,,,41.977893,21.1713626,"Марко Деспотоски, Масакр кај Карпалак, Rogle, North Macedonia",,,,,,
Ердован Шабаноски,,Polog Region,Rogle,Municipality of Zhelino,,,41.9767167,21.1675604,"Ердован Шабаноски, R1206, Rogle, North Macedonia",,,,,,
Љубе Грујоски,,Polog Region,Rogle,Municipality of Zhelino,,,41.9772958,21.1694976,"Љубе Грујоски, R1206, Rogle, North Macedonia",,,,,,
Дарко Велјаноски,,Polog Region,Rogle,Municipality of Zhelino,,,41.9770406,21.1717935,"Дарко Велјаноски, R1206, Rogle, North Macedonia",,,,,,
Веби Рушитоски,,Polog Region,Rogle,Municipality of Zhelino,,,41.9767893,21.1747438,"Веби Рушитоски, R1206, Rogle, North Macedonia",,,,,,
Пеце Секулоски,,Polog Region,Rogle,Municipality of Zhelino,,,41.977042,21.1770879,"Пеце Секулоски, R1206, Rogle, North Macedonia",,,,,,
Карпалак,,Pelagonia Region,Lenishte,Municipality of Prilep,,,41.3575814,21.6256855,"Карпалак, R1101, Lenishte, North Macedonia",,,,,,
Пере Тошев,Pere Toshev,Pelagonia Region,Prilep,Municipality of Prilep,7500,Rid,41.3428704,21.5583071,"Pere Toshev, Aleksandar Makedonski, 7500 Prilep, North Macedonia",,,,,,
Гоце Делчев,,Southwestern Region,Drugovo,Municipality of Kichevo,6261,,41.4831122,20.9229426,"Гоце Делчев, 6261 Drugovo, North Macedonia",,,,,,
Христо Узунов,Hristo Uzunov,Southwestern Region,Drugovo,Municipality of Kichevo,6261,,41.483575,20.9222623,"Hristo Uzunov, Гоце Делчев, 6261 Drugovo, North Macedonia",,,,,,
Битката на Ѓурѓејца,Battle of Gjurgjejca,Southwestern Region,Karbunica,Municipality of Kichevo,6250,,41.4528994,20.9658462,"Battle of Gjurgjejca, Патека кон с.Кладник / репетитор, 6250 Karbunica, North Macedonia",,,,,,
Споменик Св. Никола,Monument of St. Nicholas,Vardar Region,Sveti Nikole,Municipality of Sveti Nikole,2220,Рецко Маало,41.8646892,21.942062,"Monument of St. Nicholas, Плоштад Илинден, 2220 Sveti Nikole, North Macedonia",,,,,,
Споменик „Лазар Колишевски“,,Vardar Region,Sveti Nikole,Municipality of Sveti Nikole,2220,Рецко Маало,41.8644645,21.9410121,"Споменик „Лазар Колишевски“, City square Ilinden""",,, 2220 Sveti Nikole," North Macedonia""",7833095397,
Св. Илија,,Vardar Region,Sveti Nikole,Municipality of Sveti Nikole,2220,Лиска,41.8627557,21.9386585,"Св. Илија, Ангел Трајчев, 2220 Sveti Nikole, North Macedonia",,,,,,
Споменик на Никола Карев,Monument to Nikola Karev,Eastern Region,Kochani,Municipality of Kochani,2300,,41.9156602,22.412778,"Monument to Nikola Karev, Kej na revolucijata, 2300 Kochani, North Macedonia",,,,,,
Кире Гаврилоски-Јане / Круме Волнароски-Коља,Kire Gavriloski-Jane / Krume Volnaroski-Kolja,Pelagonia Region,Prilep,Municipality of Prilep,7510,Marino,41.3464944,21.5629735,"Kire Gavriloski-Jane / Krume Volnaroski-Kolja, Spase Temelkoski, 7510 Prilep, North Macedonia",,,,,,
Александар Македонски,Alexander The Great,Pelagonia Region,Prilep,Municipality of Prilep,7500,Rid,41.3421058,21.5572532,"Alexander The Great, Aleksandar Makedonski, 7500 Prilep, North Macedonia",,,,,,
Манчу Матак,Manchu Matak,Pelagonia Region,Krushevo OT,Municipality of Krushevo,7550,Lower Krushevo,41.3677912,21.249738,"Manchu Matak, Ilindenska, 7550 Krushevo OT, North Macedonia",,,,,,
Мирослав Јоксимовиќ,Miroslav Joksimovikj,Pelagonia Region,Krushevo,Municipality of Krushevo,7550,Upper Krushevo,41.3761727,21.2464617,"Miroslav Joksimovikj, Nikola Karev, 7550 Krushevo, North Macedonia",,,,,,
Кица Петрески,Kica Petreski,Pelagonia Region,Krushevo OT,Municipality of Krushevo,7550,Влашко Маало,41.3653786,21.2488407,"Kica Petreski, Kocha Milenku, 7550 Krushevo OT, North Macedonia",,,,,,
VAM-304,,Skopje Region,Katlanovo,Municipality of Petrovec,1034,,41.8668125,21.6650899,"VAM-304, R2131, 1034 Katlanovo, North Macedonia",,,,,,
Ослободители на Скопје,The Liberators of Skopje Monument,Skopje Region,Skopje,Municipality of Centar,1111,Debar Maalo,41.9998632,21.4292436,"The Liberators of Skopje Monument, Boulevard Ilinden, 1111 Skopje, North Macedonia",,,,,,
08.12.1941,,Pelagonia Region,Prilep,Municipality of Prilep,7500,Charshija,41.3435127,21.5549177,"08.12.1941, Borka Taleski-Modernoto 64, 7500 Prilep, North Macedonia",,,,,,
Генерал Михаило Апостолски,,Skopje Region,Skopje,Municipality of Chair,1001,Dukjandzhik,41.9998618,21.4485415,"Генерал Михаило Апостолски, Alexander of Macedon Boulevard, 1001 Skopje, North Macedonia",,,,,,
Генерал Михајло Апостолски,,Skopje Region,Skopje,Municipality of Centar,1001,Madzhir Maalo,41.9988251,21.4506665,"Генерал Михајло Апостолски, Belasica, 1001 Skopje, North Macedonia",,,,,,
Krste Petkov Misirkov,,Skopje Region,Skopje,Municipality of Centar,1001,Madzhir Maalo,41.9960184,21.4412009,"Krste Petkov Misirkov, Kej Dimitar Vlahov, 1001 Skopje, North Macedonia",,,,,,
Blaže Koneski,,Skopje Region,Skopje,Municipality of Centar,1001,Madzhir Maalo,41.9960802,21.4408764,"Blaže Koneski, Булевар Крсте Мисирков, 1001 Skopje, North Macedonia",,,,,,
Sultana,,Polog Region,Kjafa,Municipality of Gostivar,6254,,41.6560282,21.0216359,"Sultana, Papradishte - Kjafa, 6254 Kjafa, North Macedonia",,,,,,
Xhemë Hasa,,Polog Region,Simnica,Municipality of Gostivar,,,41.7192252,20.881732,"Xhemë Hasa, Pruga uskog koloseka Skopje – Ohrid, Simnica, North Macedonia",,,,,,
Albanian Mother,,Southwestern Region,Zajas,Municipality of Kichevo,6250,,41.5964956,20.9510739,"Albanian Mother, A2, 6250 Zajas, North Macedonia",,,,,,
Павел Шатев,Pavel Šatev,Skopje Region,Skopje,Municipality of Centar,1111,Madzhir Maalo,41.9945304,21.4326511,"Pavel Šatev, 11 Oktomvri, 1111 Skopje, North Macedonia",,,,,,
Невена Георгиева-Дуња,,Skopje Region,Skopje,Municipality of Centar,1111,Madzhir Maalo,41.993726,21.4332709,"Невена Георгиева-Дуња, Dimitrie Chupovski, 1111 Skopje, North Macedonia",,,,,,
Dane kraptzew,,Skopje Region,Skopje,Municipality of Centar,1000,Debar Maalo,42.0043082,21.4185013,"Dane kraptzew, Алберт Ајнштајн, 1000 Skopje, North Macedonia",,,,,,
Атентат на Киро Глигоров,Atentat of Kiro Gligorov,Skopje Region,Skopje,Municipality of Centar,1111,Vodno,41.9918182,21.4296159,"Atentat of Kiro Gligorov, Makedonija, 1111 Skopje, North Macedonia",,,,,,
Св. Петка,St. Parascheva,Pelagonia Region,Lenishte,Municipality of Prilep,7510,,41.3643261,21.6070578,"St. Parascheva, R1101, 7510 Lenishte, North Macedonia",,,,,,
Браќата Просветители Св. Кирил и Методиј,,Eastern Region,Kochani,Municipality of Kochani,2300,,41.9135927,22.4105061,"Браќата Просветители Св. Кирил и Методиј, Gligor Apostolov Gocho, 2300 Kochani, North Macedonia",,,,,,
Љупчо Сантов,,Eastern Region,Kochani,Municipality of Kochani,2300,,41.9143473,22.410612,"Љупчо Сантов, Stevo Teodosievski, 2300 Kochani, North Macedonia",,,,,,
Братска гробница,,Pelagonia Region,Klepach,Municipality of Prilep,7512,,41.204511,21.4572557,"Братска гробница, R2340, 7512 Klepach, North Macedonia",,,,,,
Игуменија Катерина,,Pelagonia Region,Prisad,Municipality of Prilep,,,41.4286415,21.6200758,"Игуменија Катерина, R1312, Prisad, North Macedonia",,,,,,
Јаким Д Стојковски,,Eastern Region,Probishtip,Municipality of Probishtip,,,42.0001506,22.1778987,"Јаким Д Стојковски, Јордан Стојанов, Probishtip, North Macedonia",,,,,,
Viničko Kale,,Eastern Region,Vinica,Municipality of Vinica,2310,,41.8768098,22.5027575,"Viničko Kale, 30 Avgust, 2310 Vinica, North Macedonia",,,,,,
99.4-025,,Skopje Region,Skopje,Municipality of Gjorche Petrov,1060,Оризари,42.0080767,21.3631045,"99.4-025, Булевар Македонска Војска, 1060 Skopje, North Macedonia",,,,,,
83-064,,Skopje Region,Skopje,Municipality of Aerodrom,1001,Aerodrom,41.9780627,21.4618597,"83-064, 3 Makedonska Brigada, 1001 Skopje, North Macedonia",,,,,,
Споменик „Солунски атентатори и Гемиџии“,,Skopje Region,Skopje,Municipality of Centar,1111,Madzhir Maalo,41.9964125,21.4328484,"Споменик „Солунски атентатори и Гемиџии“, Плоштад Македониja, 1111 Skopje, North Macedonia",,,,,,
Света Троица и Свети Ѓорѓија,Holy Trinity and Holy George,Skopje Region,Matka,Municipality of Saraj,,,41.9538189,21.288822,"Holy Trinity and Holy George, Sveta Nedela, Matka, North Macedonia",,,,,,
Haji Balaban Masjid,Haji Balaban Masjid,Skopje Region,Skopje,Municipality of Chair,1009,Dukjandzhik,42.0048505,21.4368762,"Haji Balaban Masjid, Дрварска, 1009 Skopje, North Macedonia",,,,,,
The Bridge of Civilizations in Macedonia,The Bridge of Civilizations in Macedonia,Skopje Region,Skopje,Municipality of Centar,1111,Madzhir Maalo,41.9963717,21.4339472,"The Bridge of Civilizations in Macedonia, Bridge of Civilizations, 1111 Skopje, North Macedonia",,,,,,
Soldier with gun on horse,Soldier with gun on horse,Skopje Region,Skopje,Municipality of Centar,1111,Madzhir Maalo,41.9986089,21.4377285,"Soldier with gun on horse, Goce Delčev Boulevard, 1111 Skopje, North Macedonia",,,,,,
Католичка  црква,Sacred Heart of Jesus,Skopje Region,Skopje,Municipality of Centar,1000,Kapishtec,41.99497775,21.41778245,"Sacred Heart of Jesus, Петар Попарсов, 1000 Skopje, North Macedonia",,,,,,
Успение на Пресвета Богородица,Assumption of the Most Holy Mother of God,Pelagonia Region,Krushevo OT,Municipality of Krushevo,7550,Miak,41.3696783,21.24643329,"Assumption of the Most Holy Mother of God, Mishe Ivanoski - Petre 0, 7550 Krushevo OT, North Macedonia",,,,,,
Св. Преображение,Holy Transfiguration,Pelagonia Region,Prilep,Municipality of Prilep,7500,Charshija,41.34375205,21.55692007,"Holy Transfiguration, Republikanska 24, 7500 Prilep, North Macedonia",,,,,,
Св. Спас,Church of the Ascension of Jesus,Skopje Region,Skopje,Municipality of Centar,1111,Dukjandzhik,42.00079435,21.4357034,"Church of the Ascension of Jesus, Лазар Танев, 1111 Skopje, North Macedonia",,,,,,
Црква Св. Димитриј,St. Demetrius Church,Skopje Region,Skopje,Municipality of Centar,1000,Madzhir Maalo,41.99848045,21.43437272,"St. Demetrius Church, Плоштад Карпошово Востание""",,, 1000 Skopje," North Macedonia""",32855069,
Јени Џамија,Yeni Mosque,Pelagonia Region,Bitola,Municipality of Bitola,7000,Borimechka,41.03066665,21.33495374,"Yeni Mosque, Magnolia Square, 7000 Bitola, North Macedonia",,,,,,
Исак Џамија,Isak Mosque,Pelagonia Region,Bitola,Municipality of Bitola,7000,Borimechka,41.03211175,21.33396981,"Isak Mosque, Filip Vtori Makedonski, 7000 Bitola, North Macedonia",,,,,,
Св. Димитриј Солунски,St. Demetrius of Salonica,Pelagonia Region,Bitola,Municipality of Bitola,7000,Borimechka,41.029984,21.33392424,"St. Demetrius of Salonica, Ј. Османо, 7000 Bitola, North Macedonia",,,,,,
Султан Муратова џамија,,Skopje Region,Skopje,Municipality of Chair,1000,Dukjandzhik,42.0015657,21.44141281,"Султан Муратова џамија, Васил Анџеларски, 1000 Skopje, North Macedonia",,,,,,
Иса-бегова џамија,,Skopje Region,Skopje,Municipality of Chair,1000,Dukjandzhik,42.0032292,21.44176149,"Иса-бегова џамија, Петре Георгиев, 1000 Skopje, North Macedonia",,,,,,
Алаџа-џамија,Allaxha Mosque,Skopje Region,Skopje,Municipality of Chair,1000,Dukjandzhik,42.00464045,21.4397254,"Allaxha Mosque, Boulevard Krste Misirkov, 1000 Skopje, North Macedonia",,,,,,
Манастир Св. Пантелејмон,Monastery Sv. Pantelejmon,Skopje Region,Gorno Nerezi,Municipality of Karposh,1000,,41.9768751,21.37448351,"Monastery Sv. Pantelejmon, R2138, 1000 Gorno Nerezi, North Macedonia",,,,,,
Sv. Petka-Kuckovo,,Skopje Region,Kuchkovo,Municipality of Gjorche Petrov,,,42.0555954,21.30269167,"Sv. Petka-Kuckovo, Улица 103, Kuchkovo, North Macedonia",,,,,,
Sv. Nedela-Kuckovo,,Skopje Region,Kuchkovo,Municipality of Gjorche Petrov,,,42.05548185,21.30238955,"Sv. Nedela-Kuckovo, Улица 103, Kuchkovo, North Macedonia",,,,,,
Татар Синан Бег џамија,Tatar Sinan Pasha Mosque,Northeastern Region,Kumanovo,Municipality of Kumanovo,1300,Bedinje,42.1374679,21.71471731,"Tatar Sinan Pasha Mosque, 11-ти Октомври, 1300 Kumanovo, North Macedonia",,,,,,
Мустафа-пашина џамија,Mustafa Pasha's Mosque,Skopje Region,Skopje,Municipality of Chair,1000,Dukjandzhik,42.00202345,21.43546531,"Mustafa Pasha's Mosque, Свеќарска, 1000 Skopje, North Macedonia",,,,,,
Соборен храм Свети Климент Охридски,Church of St. Clement of Ohrid,Skopje Region,Skopje,Municipality of Centar,1000,Debar Maalo,41.99852765,21.42640895,"Church of St. Clement of Ohrid, Boulevard Partizanski Odredi, 1000 Skopje, North Macedonia",,,,,,
Марков Манастир,Marko's Monastery,Skopje Region,Markova Sushica,Municipality of Studenichani,1054,,41.89334405,21.40207743,"Marko's Monastery, R104, 1054 Markova Sushica, North Macedonia",,,,,,
Манастир Раѓање на Пресвета Богородица,Monastery Birth of the Holly Mother,Southwestern Region,Manastirec,Municipality of Makedonski Brod,6530,,41.62616265,21.19425553,"Monastery Birth of the Holly Mother, R1106, 6530 Manastirec, North Macedonia",,,,,,
Џамија Ајдар Кади,,Pelagonia Region,Bitola,Municipality of Bitola,7000,Borimechka,41.0349732,21.33846918,"Џамија Ајдар Кади, Цане Василев, 7000 Bitola, North Macedonia",,,,,,
Пресвета Богородица,Holy Mother,Pelagonia Region,Bitola,Municipality of Bitola,7000,Borimechka,41.03043455,21.33895571,"Holy Mother, Nikola Tesla, 7000 Bitola, North Macedonia",,,,,,
Св. Недела,St. Domenica,Pelagonia Region,Bitola,Municipality of Bitola,7000,Gorno Orizari,41.04080005,21.34877563,"St. Domenica, Dimitar Robev, 7000 Bitola, North Macedonia",,,,,,
Чарши Џамија,Charshi Mosque,Pelagonia Region,Prilep,Municipality of Prilep,7500,Charshija,41.3455524,21.55527066,"Charshi Mosque, Risto Stojanoski, 7500 Prilep, North Macedonia",,,,,,
Св. Јован Крстител,St. John the Baptist,Pelagonia Region,Prisad,Municipality of Prilep,,,41.461423,21.5705114,"St. John the Baptist, R1312, Prisad, North Macedonia",,,,,,
Husein Shah,,Skopje Region,Skopje,Municipality of Saraj,1060,Saraj,42.0016702,21.33109118,"Husein Shah, Улица 3, 1060 Skopje, North Macedonia",,,,,,
Камена,Kamena,Pelagonia Region,Debreshte,Municipality of Dolneni,7537,,41.4784311,21.31427874,"Kamena, R1303, 7537 Debreshte, North Macedonia",,,,,,
Св. Спас,,Vardar Region,Veles,Municipality of Veles,1400,,41.70685905,21.78928895,"Св. Спас, Прохор Пчински, 1400 Veles, North Macedonia",,,,,,
Св. Атанасиј,,Pelagonia Region,Novoselani,Municipality of Dolneni,,,41.38036465,21.41170115,"Св. Атанасиј, Marko Despotoski, Novoselani, North Macedonia",,,,,,
Араста-џамија,Arasta Mosque,Skopje Region,Skopje,Municipality of Chair,1000,Dukjandzhik,42.0019582,21.43695401,"Arasta Mosque, Кавтанџиска, 1000 Skopje, North Macedonia",,,,,,
Св. Недела,St. Domenica,Pelagonia Region,Dolneni,Municipality of Dolneni,7504,,41.4721913,21.46021504,"St. Domenica, R1303.1, 7504 Dolneni, North Macedonia",,,,,,
Св. Илија,St. Eliyah,Pelagonia Region,Dolneni,Municipality of Dolneni,7504,,41.4671102,21.46236465,"St. Eliyah, R1303.1, 7504 Dolneni, North Macedonia",,,,,,
Св. Георгиј,St. George,Pelagonia Region,Crnilishte,Municipality of Dolneni,7516,,41.5012596,21.4519441,"St. George, R2336, 7516 Crnilishte, North Macedonia",,,,,,
Св. Никола,St. Nicholas,Pelagonia Region,Slepche,Municipality of Dolneni,,,41.5026276,21.4650586,"St. Nicholas, Slepche, Pelagonia Region, North Macedonia",,,,,,
Св. Илија,St. Eliyah,Pelagonia Region,Strovija,Municipality of Dolneni,7516,,41.562662,21.40670065,"St. Eliyah, R2336, 7516 Strovija, North Macedonia",,,,,,
Св. Недела,St. Domenica,Pelagonia Region,Strovija,Municipality of Dolneni,7516,,41.5684649,21.4086364,"St. Domenica, R2336, 7516 Strovija, North Macedonia",,,,,,
Св. Илија,St. Eliyah,Pelagonia Region,Zrze,Municipality of Dolneni,7505,,41.53727455,21.3726372,"St. Eliyah, R29375, 7505 Zrze, North Macedonia",,,,,,
Успение на Пресвета Богородица,Dormition of Holy Mother of God,Pelagonia Region,Zrze,Municipality of Dolneni,7505,,41.5358905,21.3651009,"Dormition of Holy Mother of God, R29375, 7505 Zrze, North Macedonia",,,,,,
Св. Атанасиј,St. Athanasius,Pelagonia Region,Debreshte,Municipality of Dolneni,7537,,41.48745635,21.36086241,"St. Athanasius, R1303, 7537 Debreshte, North Macedonia",,,,,,
Св. Троица,Holy Trinity,Pelagonia Region,Ropotovo,Municipality of Dolneni,7537,,41.451705,21.37336884,"Holy Trinity, Andon Ivanoski, 7537 Ropotovo, North Macedonia",,,,,,
Еврејска заедница во Република Македонија,Jewish Community in the Republic of Macedonia,Skopje Region,Skopje,Municipality of Karposh,1000,Karposh 2,41.9976637,21.41983702,"Jewish Community in the Republic of Macedonia, Борка Талевски 24, 1000 Skopje, North Macedonia",,,,,,
Св. Великомаченик Георгиј,Church of St. George,Northeastern Region,Staro Nagorichane,Municipality of Staro Nagorichane,,,42.19823985,21.82807678,"Church of St. George, R1207, Staro Nagorichane, North Macedonia",,,,,,
Св. Георгиј,St. George,Pelagonia Region,Novoselani,Municipality of Dolneni,,,41.40187345,21.43077435,"St. George, Marko Despotoski, Novoselani, North Macedonia",,,,,,
Св. Богородица,Holy Mother of God,Pelagonia Region,Mazhuchishte,Municipality of Prilep,7513,,41.3835625,21.49982,"Holy Mother of God, R1303, 7513 Mazhuchishte, North Macedonia",,,,,,
Св. Недела,,Vardar Region,Veles,Municipality of Veles,1400,,41.7030643,21.78794068,"Св. Недела, R1102, 1400 Veles, North Macedonia",,,,,,
Света Петка,,Vardar Region,Sogle,Municipality of Chashka,,,41.63072865,21.48931668,"Света Петка, R2336, Sogle, North Macedonia",,,,,,
Рождество на Пресвета Богородица,Nativity of the Holy Mother of God,Pelagonia Region,Shtavica,Municipality of Prilep,,,41.2590865,21.56874205,"Nativity of the Holy Mother of God, R1107, Shtavica, North Macedonia",,,,,,
Св. Георгиј,St. George,Pelagonia Region,Belovodica,Municipality of Prilep,,,41.34059905,21.68981301,"St. George, R29172, Belovodica, North Macedonia",,,,,,
Св. Никола,St. Nicholas,Pelagonia Region,Belovodica,Municipality of Prilep,,,41.33561,21.70465719,"St. Nicholas, R29172, Belovodica, North Macedonia",,,,,,
Манастир Св. Ѓорѓија,,Skopje Region,Kuchkovo,Municipality of Gjorche Petrov,,,42.0690911,21.3001786,"Манастир Св. Ѓорѓија, Улица 103, Kuchkovo, North Macedonia",,,,,,
Св. Благовештение,Holy Annunciation,Pelagonia Region,Prilep,Municipality of Prilep,7500,Charshija,41.34348172,21.55791913,"Republikanska, 7500 Prilep, North Macedonia",,,,,,
Св. Никола,St. Nicholas,Pelagonia Region,Toplica,Municipality of Prilep,,,41.3782058,21.805722,"St. Nicholas, R1101, Toplica, North Macedonia",,,,,,
Св. Кузман и Дамјан,Ss. Cosma and Damian,Pelagonia Region,Pletvar,Municipality of Prilep,,,41.3703325,21.65326485,"Ss. Cosma and Damian, R1101, Pletvar, North Macedonia",,,,,,
Св. Петка,St. Parascheva,Pelagonia Region,Novo Lagovo,Municipality of Prilep,7515,,41.3092467,21.5150127,"St. Parascheva, 1 Makedonska Narodnoosloboditelna Udarna Brigada, 7515 Novo Lagovo, North Macedonia",,,,,,
Св. Пантелејмон,,Vardar Region,Veles,Municipality of Veles,1400,,41.70656805,21.78163459,"Св. Пантелејмон, Славе Петков, 1400 Veles, North Macedonia",,,,,,
Св. Кирил и Методиј,,Vardar Region,Veles,Municipality of Veles,1400,,41.717335,21.774303,"Св. Кирил и Методиј, Благој Ѓорев, 1400 Veles, North Macedonia",,,,,,
Црна Џамија,Black Mosque,Vardar Region,Veles,Municipality of Veles,1400,,41.71047115,21.78619072,"Black Mosque, Коле Цветков, 1400 Veles, North Macedonia",,,,,,
Успение на Пресвета Богородица,,Vardar Region,Veles,Municipality of Veles,1400,,41.7114612,21.78854911,"Успение на Пресвета Богородица, Прохор Пчински, 1400 Veles, North Macedonia",,,,,,
Џамија Хусамедин Паша,,Eastern Region,Shtip,Municipality of Shtip,2000,Кежовица,41.73565475,22.19557295,"Џамија Хусамедин Паша, Ленинова, 2000 Shtip, North Macedonia",,,,,,
Св. Петка,St. Parascheva,Pelagonia Region,Gostirazhni,Municipality of Dolneni,7516,,41.5511938,21.44031627,"St. Parascheva, R2336, 7516 Gostirazhni, North Macedonia",,,,,,
Св. Атанасиј Велики,St. Athanasius the Great,Pelagonia Region,Drenovci,Municipality of Dolneni,,,41.4732366,21.54459195,"St. Athanasius the Great, Drenovci, Pelagonia Region, North Macedonia",,,,,,
Св. Спас,Holy Salvation,Pelagonia Region,Prilep,Municipality of Prilep,7500,Shtavichko Maalo,41.30351535,21.567512,"Holy Salvation, Car Samoil, 7500 Prilep, North Macedonia",,,,,,
Св. Петка,St. Parascheva,Pelagonia Region,Prilep,Municipality of Prilep,7510,Gjorgji Delchev-Goce,41.32544525,21.59474263,"St. Parascheva, A3, 7510 Prilep, North Macedonia",,,,,,
Св. Илија,St. Eliyah,Pelagonia Region,Prilep,Municipality of Prilep,7510,Gjorgji Delchev-Goce,41.32528605,21.5942847,"St. Eliyah, A3, 7510 Prilep, North Macedonia",,,,,,
Св. Димитриј Солунски,St. Demetrius of Salonica,Pelagonia Region,Prilep,Municipality of Prilep,7510,Gjorgji Delchev-Goce,41.32501655,21.59392296,"St. Demetrius of Salonica, A3, 7510 Prilep, North Macedonia",,,,,,
Св. Преображение,Holy Transfiguration,Pelagonia Region,Zrze,Municipality of Dolneni,7505,,41.5214238,21.34198765,"Holy Transfiguration, R29375, 7505 Zrze, North Macedonia",,,,,,
Св. Петар и Св. Павле,St. Petar and St. Paul,Pelagonia Region,Zrze,Municipality of Dolneni,7505,,41.5210754,21.34138679,"St. Petar and St. Paul, R29375, 7505 Zrze, North Macedonia",,,,,,
Св. Троица,Holy Trinity,Pelagonia Region,Dolneni,Municipality of Dolneni,7504,,41.43149535,21.4505226,"Holy Trinity, R1303.1, 7504 Dolneni, North Macedonia",,,,,,
Св. Атанасиј,St. Athanasius,Pelagonia Region,Nikodin,Municipality of Prilep,,,41.4428174,21.7305967,"St. Athanasius, Nikodin, Pelagonia Region, North Macedonia",,,,,,
Рождество на Пресвета Богородица,Nativity of Holy Mother of God,Pelagonia Region,Toplica,Municipality of Prilep,,,41.4379948,21.74252733,"Nativity of Holy Mother of God, R1101, Toplica, North Macedonia",,,,,,
Св. Троица,Holy Trinity,Pelagonia Region,Toplica,Municipality of Prilep,,,41.4381872,21.7428796,"Holy Trinity, R1101, Toplica, North Macedonia",,,,,,
Св. Архангел Михаил,St. Archangel Michael,Pelagonia Region,Bitola,Municipality of Bitola,7000,,41.04293995,21.33139275,"St. Archangel Michael, A3, 7000 Bitola, North Macedonia",,,,,,
Воскресение Христово,Resurection of Christ,Pelagonia Region,Berovci,Municipality of Prilep,7515,,41.2958289,21.49853317,"Resurection of Christ, R1101, 7515 Berovci, North Macedonia",,,,,,
Св. Никола,St. Nicholas,Pelagonia Region,Manastir,Municipality of Prilep,,,41.1655799,21.7266777,"St. Nicholas, Path to Chebren, Manastir, North Macedonia",,,,,,
Св. Архангел Михаил,St. Archangel Michael,Pelagonia Region,Dunje,Municipality of Prilep,,,41.20684625,21.65402489,"St. Archangel Michael, R1107, Dunje, North Macedonia",,,,,,
Св. Димитриј Солунски,St. Demetrius of Salonica,Pelagonia Region,Veprchani,Municipality of Prilep,,,41.2707897,21.7635885,"St. Demetrius of Salonica, Veprchani, Pelagonia Region, North Macedonia",,,,,,
Св. Спас,Holy Salvation,Pelagonia Region,Dunje,Municipality of Prilep,,,41.2674589,21.74567245,"Holy Salvation, R29172, Dunje, North Macedonia",,,,,,
Св. Атанасиј,St. Athanasius,Pelagonia Region,Vitolishte,Municipality of Prilep,,,41.1804623,21.82617765,"St. Athanasius, R1107, Vitolishte, North Macedonia",,,,,,
Св. Спас,Holy Salvation,Pelagonia Region,Kalen,Municipality of Prilep,,,41.25472215,21.64429265,"Holy Salvation, R1107, Kalen, North Macedonia",,,,,,
Св. Архангел Михаил,St. Archangel Michael,Pelagonia Region,Klepach,Municipality of Prilep,7512,,41.204685,21.4573688,"St. Archangel Michael, R2340, 7512 Klepach, North Macedonia",,,,,,
Св. Атанасиј,St. Athanasius,Pelagonia Region,Zhitoshe,Municipality of Dolneni,,,41.40431775,21.29352315,"St. Athanasius, R2335, Zhitoshe, North Macedonia",,,,,,
Стара Џамија,Old Mosque,Pelagonia Region,Zhitoshe,Municipality of Dolneni,,,41.41980225,21.29255081,"Old Mosque, R2335, Zhitoshe, North Macedonia",,,,,,
Пресвета Богородица,Holy Mother of God,Pelagonia Region,Peshtalevo,Municipality of Dolneni,,,41.4656112,21.39901915,"Holy Mother of God, R2336, Peshtalevo, North Macedonia",,,,,,
Долна џамија,,Pelagonia Region,Crnilishte,Municipality of Dolneni,7516,,41.5301881,21.41450273,"Долна џамија, R2336, 7516 Crnilishte, North Macedonia",,,,,,
Горна џамија,,Pelagonia Region,Crnilishte,Municipality of Dolneni,7516,,41.53078885,21.41223245,"Горна џамија, R2336, 7516 Crnilishte, North Macedonia",,,,,,
Св. Атанасиј Велики,St. Athanasius the Great,Pelagonia Region,Bitola,Municipality of Bitola,7000,,41.02657215,21.31397524,"St. Athanasius the Great, Partizanski Odredi na Makedonija 0, 7000 Bitola, North Macedonia",,,,,,
Црква „Св. Апостоли Петар и Павле“,,Skopje Region,Skopje,Municipality of Aerodrom,1000,Gorno Lisiche,41.96447215,21.49361008,"Црква „Св. Апостоли Петар и Павле“, Горно Лисиче, 1000 Skopje, North Macedonia",,,,,,
Св. Јован Крстител,St. John the Baptist,Pelagonia Region,Sarandinovo,Municipality of Dolneni,,,41.4139568,21.412138,"St. John the Baptist, R1303, Sarandinovo, North Macedonia",,,,,,
Св. Никола,St. Nicholas,Pelagonia Region,Podvis,Municipality of Krivogashtani,,,41.3935258,21.37372857,"St. Nicholas, Dame Gruev, Podvis, North Macedonia",,,,,,
Св. Атанасиј Велики,St. Athanasius the Great,Pelagonia Region,Gostirazhni,Municipality of Dolneni,7516,,41.55416925,21.43218649,"St. Athanasius the Great, R2336, 7516 Gostirazhni, North Macedonia",,,,,,
Пресвета Богородица,Holy MOther of God,Pelagonia Region,Prilep (Vicinity),Municipality of Prilep,7513,,41.41717585,21.5333161,"Holy MOther of God, Hiking trail Prilep - Treskavec, 7513 Prilep (Vicinity), North Macedonia",,,,,,
Св. Георгиј,St. George,Pelagonia Region,Debreshte,Municipality of Dolneni,7537,,41.4788807,21.31481443,"St. George, R1303, 7537 Debreshte, North Macedonia",,,,,,
Баталоска,Bataloska,Pelagonia Region,Debreshte,Municipality of Dolneni,7537,,41.47803265,21.32829493,"Bataloska, R1303, 7537 Debreshte, North Macedonia",,,,,,
Долна,Lower,Pelagonia Region,Debreshte,Municipality of Dolneni,7537,,41.47955165,21.31776577,"Lower, R1303, 7537 Debreshte, North Macedonia",,,,,,
Св. Троица,Holy Trinity,Pelagonia Region,Desovo,Municipality of Dolneni,,,41.46318645,21.48923385,"Holy Trinity, Desovo, Pelagonia Region, North Macedonia",,,,,,
Св. Спас,Holy Salvation,Pelagonia Region,Dolneni,Municipality of Dolneni,7504,,41.4272966,21.45378559,"Holy Salvation, R1303.1, 7504 Dolneni, North Macedonia",,,,,,
Св. Теодор Тирон,St. Theodore,Pelagonia Region,Drenovci,Municipality of Dolneni,,,41.46789235,21.54358607,"St. Theodore, Drenovci, Pelagonia Region, North Macedonia",,,,,,
Св. Атанасиј Велики,St. Athanasius the Great,Pelagonia Region,Beranci,Municipality of Mogila,,,41.15736415,21.35640746,"St. Athanasius the Great, A3, Beranci, North Macedonia",,,,,,
Св. Атанасиј,St. Athanasius,Pelagonia Region,Ropotovo,Municipality of Dolneni,,,41.4618817,21.37558979,"St. Athanasius, R2336, Ropotovo, North Macedonia",,,,,,
Св. Архангел Михаил,St. Archangel Michael,Pelagonia Region,Ropotovo,Municipality of Dolneni,7537,,41.45348525,21.36906719,"St. Archangel Michael, Andon Ivanoski, 7537 Ropotovo, North Macedonia",,,,,,
Нова Џамија,New Mosque,Pelagonia Region,Zhitoshe,Municipality of Dolneni,,,41.4214396,21.28164677,"Zhitoshe, Upper Neighbourhood, North Macedonia",,,,,,
Св. Атанасиј Велики,St. Athanasius the Great,Pelagonia Region,Gorno Selo,Municipality of Dolneni,7513,,41.4319332,21.49254662,"St. Athanasius the Great, R29374, 7513 Gorno Selo, North Macedonia",,,,,,
Св. Никола,St. Nicholas,Pelagonia Region,Zrze,Municipality of Dolneni,7505,,41.51809895,21.3496249,"St. Nicholas, R29375, 7505 Zrze, North Macedonia",,,,,,
Рождество на Пресвета Богородица,Nativity of the Virgin Mary,Pelagonia Region,Kostinci,Municipality of Dolneni,7516,,41.504743,21.40612316,"Nativity of the Virgin Mary, R2336, 7516 Kostinci, North Macedonia",,,,,,
Св. Димитриј Солунски,St. Demetrius of Salonica,Pelagonia Region,Debreshte,Municipality of Dolneni,7537,,41.4732717,21.289086,"St. Demetrius of Salonica, R1303, 7537 Debreshte, North Macedonia",,,,,,
Св. Никола,St. Nicholas,Pelagonia Region,Zhitoshe,Municipality of Dolneni,7537,,41.46488415,21.28764277,"St. Nicholas, R2335, 7537 Zhitoshe, North Macedonia",,,,,,
Св. Атанасиј Велики,St. Athanasiu the Great,Pelagonia Region,Zhitoshe,Municipality of Dolneni,7537,,41.4647808,21.29379595,"St. Athanasiu the Great, R2335, 7537 Zhitoshe, North Macedonia",,,,,,
Нова Џамија,New Mosque,Pelagonia Region,Lazhani,Municipality of Dolneni,7537,,41.4415293,21.31495985,"New Mosque, R2335, 7537 Lazhani, North Macedonia",,,,,,
Стара Џамија,Old Mosque,Pelagonia Region,Lazhani,Municipality of Dolneni,7537,,41.44377905,21.31606113,"Old Mosque, R2335, 7537 Lazhani, North Macedonia",,,,,,
Св. Никола,St. Nicholas,Pelagonia Region,Lazhani,Municipality of Dolneni,7537,,41.45120485,21.32236595,"St. Nicholas, R2335, 7537 Lazhani, North Macedonia",,,,,,
Св. Троица,Holy Trinity,Pelagonia Region,Lokveni,Municipality of Dolneni,7524,,41.39918125,21.30968925,"Holy Trinity, R2335, 7524 Lokveni, North Macedonia",,,,,,
Св. Никола,St. Nicholas,Pelagonia Region,Prilep (Vicinity),Municipality of Prilep,7513,,41.44941895,21.5603131,"St. Nicholas, Hiking trail Prilep - Treskavec, 7513 Prilep (Vicinity), North Macedonia",,,,,,
Св. Георгиј,St. George,Pelagonia Region,Sarandinovo,Municipality of Dolneni,,,41.43287025,21.40999393,"St. George, R1303, Sarandinovo, North Macedonia",,,,,,
Св. Атанасиј,,Pelagonia Region,Sekirci,Municipality of Dolneni,7516,,41.47895375,21.40995018,"Св. Атанасиј, R2336, 7516 Sekirci, North Macedonia",,,,,,
Св. Атанасиј Велики,St. Athanasius the Great,Pelagonia Region,Senokos,Municipality of Dolneni,7504,,41.4123172,21.46730498,"St. Athanasius the Great, R1303, 7504 Senokos, North Macedonia",,,,,,
Св. Атанасиј,St. Athanasius,Pelagonia Region,Zrze,Municipality of Dolneni,7505,,41.4964637,21.38205952,"St. Athanasius, R29375, 7505 Zrze, North Macedonia",,,,,,
Воведение на Пресвета Богородица,Presentation of the Holy Mother of God,Pelagonia Region,Ropotovo,Municipality of Dolneni,7537,,41.4140933,21.36017027,"Presentation of the Holy Mother of God, R2335, 7537 Ropotovo, North Macedonia",,,,,,
Успение на Пресвета Богородица,Dormition of the Virgin Mary,Pelagonia Region,Vrboec,Municipality of Krushevo,7524,,41.3347123,21.29369824,"Dormition of the Virgin Mary, R1306, 7524 Vrboec, North Macedonia",,,,,,
Св. Петка,,Vardar Region,Kavadarci,Municipality of Kavadarci,1430,,41.4431181,22.00832146,"Св. Петка, Булевар Вељко Влаховиќ, 1430 Kavadarci, North Macedonia",,,,,,
Св. Димитриј,,Vardar Region,Kavadarci,Municipality of Kavadarci,1430,,41.43459515,22.00855908,"Св. Димитриј, Пано Мударов, 1430 Kavadarci, North Macedonia",,,,,,
Св. Петка,,Vardar Region,Veles,Municipality of Veles,1400,Babuna,41.70081585,21.79142894,"Св. Петка, R1102, 1400 Veles, North Macedonia",,,,,,
Св. Никола,,Vardar Region,Veles,Municipality of Veles,1400,Babuna,41.7000612,21.7910351,"Св. Никола, R1102, 1400 Veles, North Macedonia",,,,,,
Св. Јован Крстител,,Vardar Region,Veles,Municipality of Veles,1400,Babuna,41.7035112,21.7912027,"Св. Јован Крстител, R1102, 1400 Veles, North Macedonia",,,,,,
Св. Константин и Св. Елена,St. Constantine & St. Helen,Pelagonia Region,Bitola,Municipality of Bitola,7000,Borimechka,41.02594885,21.33213433,"St. Constantine & St. Helen, Stefan Naumov-Stiv, 7000 Bitola, North Macedonia",,,,,,
Св. Ана,St. Anna,Pelagonia Region,Bitola,Municipality of Bitola,7000,Novo Strezhevo,41.03869335,21.32385534,"St. Anna, Karaorman, 7000 Bitola, North Macedonia",,,,,,
Св. Наум Охридски,St. Naum of Ohrid,Pelagonia Region,Bitola,Municipality of Bitola,7000,Borimechka,41.02841495,21.33895917,"St. Naum of Ohrid, Hristo Hristov 15, 7000 Bitola, North Macedonia",,,,,,
Св. 40. Севастиски маченици,Forty Martyrs of Sebaste,Pelagonia Region,Bitola,Municipality of Bitola,7000,Novo Strezhevo,41.03998115,21.33540105,"Forty Martyrs of Sebaste, Христијан Карпош, 7000 Bitola, North Macedonia",,,,,,
Св. Злата Мегленска,,Pelagonia Region,Bitola,Municipality of Bitola,7000,,41.0366237,21.35222474,"Св. Злата Мегленска, Шералти, 7000 Bitola, North Macedonia",,,,,,
Св. Јован Крстител,St. John the Baptist,Pelagonia Region,Beranci,Municipality of Mogila,,,41.1553684,21.3467061,"St. John the Baptist, A3, Beranci, North Macedonia",,,,,,
Св. Константин и Св. Елена,St. Constantine & St. Helen,Pelagonia Region,Beranci,Municipality of Mogila,,,41.16105455,21.35815408,"St. Constantine & St. Helen, A3, Beranci, North Macedonia",,,,,,
Црква „Св. Архангел Михаил“,St. Michael the Archangel Church,Polog Region,Podbgege,Municipality of Jegunovce,,,42.062585,21.12119638,"St. Michael the Archangel Church, R2242, Podbgege, North Macedonia",,,,,,
Св. Архангел Гаврил,St Archangel Gabriel,Pelagonia Region,Bitola,Municipality of Bitola,7000,Dovledzhik,41.0357695,21.30265577,"St Archangel Gabriel, 11 Brigada, 7000 Bitola, North Macedonia",,,,,,
Св. Александар Солунски,St. Alexander of Salonica,Pelagonia Region,Bitola,Municipality of Bitola,7000,Gorno Orizari,41.0486606,21.35604044,"St. Alexander of Salonica, Dimitar Robev, 7000 Bitola, North Macedonia",,,,,,
Црква Св. Никола,,Polog Region,Podbgege,Municipality of Jegunovce,,,42.04560735,21.13800779,"Црква Св. Никола, R2242, Podbgege, North Macedonia",,,,,,
Црква Св. Теодор Тирон,,Polog Region,Janchishte,Municipality of Jegunovce,,,42.05132535,21.11466505,"Црква Св. Теодор Тирон, R2242, Janchishte, North Macedonia",,,,,,
Св. Кирил и Методиј,Saint Cyril & St. Methodius,Pelagonia Region,Loznani,Municipality of Mogila,7512,,41.20182465,21.40045445,"Saint Cyril & St. Methodius, A3, 7512 Loznani, North Macedonia",,,,,,
Св. Никола,St. Nicholas,Pelagonia Region,Suvo Dol,Municipality of Novaci,,,41.07489215,21.54010056,"St. Nicholas, R1311, Suvo Dol, North Macedonia",,,,,,
Света Петка,,Skopje Region,Skopje,Municiplity of Kisela Voda,1111,Crniche,41.9857725,21.4312278,"Света Петка, Street Naum Ohridski, 1111 Skopje, North Macedonia",,,,,,
Црква „Рождество на Пресвета Богородица“ - Ново Лисиче,,Skopje Region,Skopje,Municipality of Aerodrom,1001,Novo Lisiche,41.9853763,21.4754451,"Црква „Рождество на Пресвета Богородица“ - Ново Лисиче, Тоше Проески (Детска Улица), 1001 Skopje, North Macedonia",,,,,,
Црква „Св. Великомаченик Георгиј“,,Skopje Region,Skopje,Municipality of Aerodrom,1001,Gorno Lisiche,41.9783403,21.496101,"Црква „Св. Великомаченик Георгиј“, Ѓорѓи Капчев, 1001 Skopje, North Macedonia",,,,,,
Црква „Св. Апостоли Петар и Павле“,Saints Peter and Paul the Apostles Church,Skopje Region,Skopje,Municipality of Aerodrom,1000,Gorno Lisiche,41.9644772,21.4936632,"Saints Peter and Paul the Apostles Church, Горно Лисиче, 1000 Skopje, North Macedonia",,,,,,
Манастир Св. Харалампие,Saint Charalambos monastery,Eastern Region,Preseka,Municipality of Kochani,,,41.9864791,22.48190627,"Saint Charalambos monastery, Preseka, Eastern Region, North Macedonia",,,,,,
Sveti Nikola,,Skopje Region,Nova Breznica,Municipality of Sopishte,,,41.8848347,21.278329,"Sveti Nikola, R1106, Nova Breznica, North Macedonia",,,,,,
Sv.Atanasij,,Polog Region,Chelopek,Municipality of Brvenica,1216,,41.9773007,21.01026888,"Sv.Atanasij, 54, 1216 Chelopek, North Macedonia",,,,,,
Св. Ѓорѓи,St. George,Eastern Region,Kochani,Municipality of Kochani,2300,,41.9173405,22.4087299,"St. George, Ilindenska, 2300 Kochani, North Macedonia",,,,,,
Јаја-пашина џамија,Yaya Pacha Mosque,Skopje Region,Skopje,Municipality of Chair,1000,Dukjandzhik,42.00754015,21.44214199,"Yaya Pacha Mosque, Bulevard Cvetan Dimov, 1000 Skopje, North Macedonia",,,,,,
Свети Никола,,Northeastern Region,Kumanovo,Municipality of Kumanovo,1300,,42.137538,21.72075308,"Свети Никола, Димитар Влахов, 1300 Kumanovo, North Macedonia",,,,,,
Света Троица,,Northeastern Region,Kumanovo,Municipality of Kumanovo,1300,,42.13428875,21.72086418,"Света Троица, Циганско сокаче, 1300 Kumanovo, North Macedonia",,,,,,
Sv. Krstovden-Kuckovo,,Skopje Region,Kuchkovo,Municipality of Gjorche Petrov,,,42.05167875,21.31109254,"Sv. Krstovden-Kuckovo, Улица 103, Kuchkovo, North Macedonia",,,,,,
Света Богородица - Матка,,Skopje Region,Dolna Matka,Municipality of Saraj,,,41.9619256,21.29614504,"Света Богородица - Матка, Ul. 2, Dolna Matka, North Macedonia",,,,,,
Св. Архангел Михаил,Saint Michael the Archangel,Skopje Region,Skopje,Municipality of Gazi Baba,1001,Автокоманда,42.0023472,21.4565664,"Arhimedova, 1001 Skopje, North Macedonia",,,,,,
Пресв. Богородица,Holy Mother of God,Skopje Region,Skopje,Municipality of Centar,1000,Madzhir Maalo,41.996151,21.43940961,"Holy Mother of God, Пајко Маало, 1000 Skopje, North Macedonia",,,,,,
Св. Ѓорѓи,,Skopje Region,Skopje,Municipality of Chair,1000,Dukjandzhik,42.01190895,21.44383435,"Св. Ѓорѓи, Cvetan Dimov, 1000 Skopje, North Macedonia",,,,,,
Св. Јован Крстител,,Skopje Region,Skopje,Municipality of Centar,1000,Kapishtec,41.99290625,21.41003433,"Св. Јован Крстител, Zagrepska, 1000 Skopje, North Macedonia",,,,,,
Св. Георгиј,,Skopje Region,Skopje,Municipality of Centar,1000,Karposh 2,42.01203215,21.42427103,"Св. Георгиј, Nikola Karev Boulevard, 1000 Skopje, North Macedonia",,,,,,
Св. Спас,,Skopje Region,Skopje,Municipality of Gazi Baba,1001,Hipodrom,41.99450285,21.50314715,"Св. Спас, Благоја Стефковски, 1001 Skopje, North Macedonia",,,,,,
Св. Димитрија,,Skopje Region,Markova Sushica,Municipality of Studenichani,1054,,41.89353655,21.40231218,"Св. Димитрија, R104, 1054 Markova Sushica, North Macedonia",,,,,,
Св. Петка,,Northeastern Region,Mlado Nagorichane,Municipality of Staro Nagorichane,,,42.1703016,21.81106575,"Св. Петка, A2, Mlado Nagorichane, North Macedonia",,,,,,
Евагелистичка Методистичка Црква,,Skopje Region,Skopje,Municipality of Centar,1000,Debar Maalo,41.9964303,21.42363067,"Евагелистичка Методистичка Црква, Kosta Kirkov, 1000 Skopje, North Macedonia",,,,,,
Свети Илија,,Skopje Region,Skopje,Municipality of Aerodrom,1000,Aerodrom,41.98586495,21.458145,"Свети Илија, Ангел Димовски, 1000 Skopje, North Macedonia",,,,,,
Ѓуришки Манастир,,Vardar Region,Krushica,Municipality of Sveti Nikole,,,41.90306395,21.83756174,"Ѓуришки Манастир, R105, Krushica, North Macedonia",,,,,,
Св. Архангел Михаил,Saint Michael's Church,Eastern Region,Dreveno,Municipality of Probishtip,,,42.01328305,22.22828741,"Saint Michael's Church, R1309, Dreveno, North Macedonia",,,,,,
Манастир Св. Богородица,St. Holy Mother of God Monastery,Skopje Region,Pobozhje,Municipality of Chucher Sandevo,,,42.12561345,21.42829508,"St. Holy Mother of God Monastery, R2239, Pobozhje, North Macedonia",,,,,,
Манастир Св. Никола,Saint Nicholas Monastery,Skopje Region,Brodec,Municipality of Chucher Sandevo,,,42.10977925,21.46959973,"Saint Nicholas Monastery, Љубанци - Бродец, Brodec, North Macedonia",,,,,,
Манастир Св. Илија,Monastery of St. Elijah,Skopje Region,Mirkovci,Municipality of Chucher Sandevo,,,42.08556665,21.40986039,"Monastery of St. Elijah, R2239, Mirkovci, North Macedonia",,,,,,
Манастир Добра Вода,Monastery Dobra Voda,Eastern Region,Orizari,Municipality of Kochani,2300,,41.93806105,22.4596785,"Monastery Dobra Voda, Gotse Delchev Str., 2300 Orizari, North Macedonia",,,,,,
Манастир Св. Пантелејом,Monastery St. Panteleimon,Eastern Region,Leshki,Municipality of Kochani,2300,,41.96829965,22.30975653,"Monastery St. Panteleimon, R1309, 2300 Leshki, North Macedonia",,,,,,
Манастир Св. Петка,Monastery St. Paraskevi,Eastern Region,Kalauzlija,Municipality of Karbinci,,,41.7891106,22.32752998,"Monastery St. Paraskevi, R2431, Kalauzlija, North Macedonia",,,,,,
Манастир Св. Архангели,"Monastery St, Archangels",Skopje Region,Pobozhje,Municipality of Chucher Sandevo,,,42.13210295,21.41419914,"Monastery St, Archangels, R2239, Pobozhje, North Macedonia",,,,,,
Манастир Св. Архангели,Monastery St. Archangels,Skopje Region,Pobozhje,Municipality of Chucher Sandevo,,,42.13210145,21.41419871,"Monastery St. Archangels, R2239, Pobozhje, North Macedonia",,,,,,
Св. Спас,Holy Salvation,Pelagonia Region,Alinci,Municipality of Prilep,7514,,41.2613694,21.48663945,"Holy Salvation, A3, 7514 Alinci, North Macedonia",,,,,,
Св. Ѓорѓија,St. George,Skopje Region,Deljadrovci,Municipality of Ilinden,,,42.0242554,21.67607685,"St. George, Friendship, Deljadrovci, North Macedonia",,,,,,
Св. Никола,St. Nicholas,Pelagonia Region,Kadino Selo,Municipality of Prilep,7512,,41.2588632,21.4228231,"St. Nicholas, R2339, 7512 Kadino Selo, North Macedonia",,,,,,
Св. Илија,St. Eliyah,Pelagonia Region,Slavej,Municipality of Krivogashtani,,Slavej IZ,41.3416567,21.39969057,"St. Eliyah, R1306, Slavej, North Macedonia",,,,,,
Св. Троица,Holy Trinity,Pelagonia Region,Krushevo OT,Municipality of Krushevo,7550,Gipsy Neighbourhood,41.36517465,21.25285735,"Holy Trinity, Pitu Guli 0, 7550 Krushevo OT, North Macedonia",,,,,,
Св. Димитриј Солунски,St. Demetrius of Salonica,Pelagonia Region,Oreovec,Municipality of Prilep,,,41.38937535,21.64244831,"St. Demetrius of Salonica, Prilep-Gradsko, Oreovec, North Macedonia",,,,,,
Св. Димитриј Солунски,St. Demetrius of Salonica,Pelagonia Region,Krivogashtani,Municipality of Krivogashtani,7524,,41.33761305,21.32883142,"St. Demetrius of Salonica, Filip Vtori, 7524 Krivogashtani, North Macedonia",,,,,,
Св. Теодор Тирон,St. Theodor Thiron,Pelagonia Region,Krivogashtani,Municipality of Krivogashtani,7524,,41.3359129,21.3359757,"St. Theodor Thiron, Filip Vtori, 7524 Krivogashtani, North Macedonia",,,,,,
Пресв. Богородица,Holy Mother of God,Pelagonia Region,Krivogashtani,Municipality of Krivogashtani,7524,,41.33549535,21.32925,"Holy Mother of God, Avstriska, 7524 Krivogashtani, North Macedonia",,,,,,
Св. Николај,St. Nicholas,Pelagonia Region,Krivogashtani,Municipality of Krivogashtani,7524,,41.33368935,21.331408,"St. Nicholas, Brakja Mocanoski, 7524 Krivogashtani, North Macedonia",,,,,,
Свети Никола,Saint Nicholas,Pelagonia Region,Demir Hisar,Municipality of Demir Hisar/Murgashevo,7240,,41.21980895,21.21051864,"Saint Nicholas, 11 Oktomvri, 7240 Demir Hisar, North Macedonia",,,,,,
Преображение Христово,,Southwestern Region,Mogilec,Municipality of Makedonski Brod,,,41.6625426,21.22009845,"Преображение Христово, R2132, Mogilec, North Macedonia",,,,,,
Манастир Св. Архангел Михаил,,Pelagonia Region,Skochivir,Municipality of Novaci,,,40.96980525,21.64239084,"Манастир Св. Архангел Михаил, R2338, Skochivir, North Macedonia",,,,,,
Св. Константин и Елена,Sts. Constantine and Helena,Pelagonia Region,Veselchani,Municipality of Prilep,7512,,41.26502155,21.43758725,"Sts. Constantine and Helena, A3, 7512 Veselchani, North Macedonia",,,,,,
Св. Петка,St. Parascheva,Pelagonia Region,Krushevo OT,Municipality of Krushevo,7550,Влашко Маало,41.36507975,21.2416082,"St. Parascheva, Blagoj Celev, 7550 Krushevo OT, North Macedonia",,,,,,
Св. Петар и Павле,St. Peter and Paul,Skopje Region,Skopje,Municipality of Gjorche Petrov,1060,Оризари,42.00936525,21.36199288,"St. Peter and Paul, Булевар Македонска Војска, 1060 Skopje, North Macedonia",,,,,,
Св. Злата Мегленска,,Skopje Region,Skopje,Municipality of Saraj,1060,Saraj,42.0040455,21.33293425,"Св. Злата Мегленска, Улица 20, 1060 Skopje, North Macedonia",,,,,,
Св. Спас,Church of the Holy Savior,Skopje Region,Orman,Municipality of Gjorche Petrov,,,42.07007265,21.3557092,"Church of the Holy Savior, A4, Orman, North Macedonia",,,,,,
Св. Јован Крстител,St. John The Baptist,Pelagonia Region,Krushevo OT,Municipality of Krushevo,7550,Lower Krushevo,41.36952875,21.24923957,"St. John The Baptist, Nikola Gjurkovikj, 7550 Krushevo OT, North Macedonia",,,,,,
Св. Никола,St. Nicholas,Pelagonia Region,Krushevo OT,Municipality of Krushevo,7550,Lower Krushevo,41.3683475,21.24908799,"St. Nicholas, Маршал тито, 7550 Krushevo OT, North Macedonia",,,,,,
Манастир Св. Илија,Monastery St. Elijah,Skopje Region,Banjane,Municipality of Chucher Sandevo,,,42.12994875,21.38758628,"Monastery St. Elijah, Манастир Св. Илија, Banjane, North Macedonia",,,,,,
Св. Еремија,,Skopje Region,Skopje,Municiplity of Kisela Voda,1050,Пинтија,41.94532105,21.48383337,"Св. Еремија, Саса-2, 1050 Skopje, North Macedonia",,,,,,
Sulltan Bejazit,,Southwestern Region,Kichevo,Municipality of Kichevo,6250,Chiflik,41.5146118,20.96290576,"Sulltan Bejazit, Гоце Делчев, 6250 Kichevo, North Macedonia",,,,,,
Црква Св. Кузман и Дамјан - Триангла,,Skopje Region,Skopje,Municipality of Gazi Baba,1001,Madzhari,41.9987378,21.49242741,"Црква Св. Кузман и Дамјан - Триангла, Анри Барбис, 1001 Skopje, North Macedonia",,,,,,
Св. Атанас,,Skopje Region,Dolna Matka,Municipality of Saraj,,,41.97120715,21.3101193,"Св. Атанас, Ul. 2, Dolna Matka, North Macedonia",,,,,,
Св. Никола,St. Nicholas,Pelagonia Region,Pashino Ruvci,Municipality of Krivogashtani,7525,,41.24869175,21.39484675,"St. Nicholas, Boris Trajkovski, 7525 Pashino Ruvci, North Macedonia",,,,,,
"Црква ""Пресвета Богородица""","Church ""Тhe Blessed Mother of God""",Polog Region,Gostivar,Municipality of Gostivar,1230,,41.7931916,20.91104382,"Church Тhe Blessed Mother of God""",,,"Димитар Влахов, 1230 Gostivar, North Macedonia",246171790,,
Св.Спас,Holy Saviour Church,Skopje Region,Drachevo,Municiplity of Kisela Voda,1050,,41.934994,21.5178031,"Holy Saviour Church, Јустинијан Први, 1050 Drachevo, North Macedonia",,,,,,
Саат Џамија;Bey Mahala,The Clock Mosque,Polog Region,Gostivar,Municipality of Gostivar,1230,,41.79527545,20.91094721,"The Clock Mosque, Boris Kirdich, 1230 Gostivar, North Macedonia",,,,,,
"Црква ""Свети Ѓорѓија""","Church ""Saint George""",Polog Region,Zdunje,Municipality of Gostivar,1230,,41.79202075,20.87804442,"Church Saint George""",,,"R29279, 1230 Zdunje, North Macedonia",266824490,,
Xhamia e Kadrit,,Polog Region,Gostivar,Municipality of Gostivar,1230,,41.79418043,20.8933393,"Jna, 1230 Gostivar, North Macedonia",,,,,,
"Црква ""Свети Никола""",Saint Nicolas Church,Polog Region,Mirdita,Municipality of Gostivar,1230,,41.75810505,20.87881021,"Saint Nicolas"" Church",,,"A2, 1230 Mirdita, North Macedonia",268394494,,
Црква Св. Атанасиј,,Polog Region,Brvenica,Municipality of Brvenica,1216,,41.96624295,20.98133307,"Црква Св. Атанасиј, R2233, 1216 Brvenica, North Macedonia",,,,,,
Xhamia e Loke,,Polog Region,Chegrane,Municipality of Gostivar,1237,,41.8345188,20.97063665,"Xhamia e Loke, R2233, 1237 Chegrane, North Macedonia",,,,,,
Xhamia në dalje të Çegranit,,Polog Region,Chegrane,Municipality of Gostivar,1237,,41.84541045,20.9786125,"Xhamia në dalje të Çegranit, R2233, 1237 Chegrane, North Macedonia",,,,,,
Џамија во Радиовце,,Polog Region,Radiovce,Municipality of Brvenica,1213,,41.90749555,20.96505893,"Џамија во Радиовце, 102, 1213 Radiovce, North Macedonia",,,,,,
Црква „Св. Никола“,,Polog Region,Tenovo,Municipality of Brvenica,1213,,41.89491345,20.98393414,"Црква „Св. Никола“, 102, 1213 Tenovo, North Macedonia",,,,,,
Стара џамија во Теново,,Polog Region,Tenovo,Municipality of Brvenica,1213,,41.8950092,20.98435509,"Стара џамија во Теново, 102, 1213 Tenovo, North Macedonia",,,,,,
Нова џамија во Теново,,Polog Region,Tenovo,Municipality of Brvenica,1213,,41.89213345,20.97855991,"Нова џамија во Теново, 102, 1213 Tenovo, North Macedonia",,,,,,
Света Троица,Holy Trinity,Pelagonia Region,Podvis,Municipality of Krivogashtani,,,41.3944488,21.32657285,"Holy Trinity, Dame Gruev, Podvis, North Macedonia",,,,,,
Св. Атанасиј Велики,,Pelagonia Region,Godivle,Municipality of Krivogashtani,7524,,41.3663968,21.31650603,"Св. Атанасиј Велики, Јане Сандански, 7524 Godivle, North Macedonia",,,,,,
Св. Константин и Елена,St. Constantine and Helen,Pelagonia Region,Prilep,Municipality of Prilep,7510,Tipski,41.3514694,21.56367985,"St. Constantine and Helen, Panko Brashnarov, 7510 Prilep, North Macedonia",,,,,,
Св. Атанасиј,,Pelagonia Region,Prilep,Municipality of Prilep,7500,Kozle,41.35937835,21.5325699,"Св. Атанасиј, Borka Lopach 0, 7500 Prilep, North Macedonia",,,,,,
Св. Архангел Михаил,St. Archangel Michael,Pelagonia Region,Prilep,Municipality of Prilep,7500,Kozle,41.36037695,21.53445404,"St. Archangel Michael, Borka Lopach 0, 7500 Prilep, North Macedonia",,,,,,
Св. Богородица,,Pelagonia Region,Prilep,Municipality of Prilep,7513,Kozle,41.35822835,21.53438865,"Св. Богородица, Borka Lopach, 7513 Prilep, North Macedonia",,,,,,
Св. Димитрија,,Pelagonia Region,Prilep,Municipality of Prilep,7513,Kozle,41.357881,21.5318083,"Св. Димитрија, Blagoja Shukuroski, 7513 Prilep, North Macedonia",,,,,,
Св. Петар и Павле,,Pelagonia Region,Prilep,Municipality of Prilep,7513,Kozle,41.35653385,21.53666662,"Св. Петар и Павле, Borka Lopach, 7513 Prilep, North Macedonia",,,,,,
Св. Никола,,Pelagonia Region,Prilep,Municipality of Prilep,7513,Kozle,41.3571657,21.53388545,"Св. Никола, Ilija Jovcheski, 7513 Prilep, North Macedonia",,,,,,
Св. Петка,St. Parascheva,Pelagonia Region,Lenishte,Municipality of Prilep,,,41.35884245,21.6270508,"St. Parascheva, R1101, Lenishte, North Macedonia",,,,,,
Манастир Св. Ѓорѓи,,Southeastern Region,Oraovica,Municipality of Radovish,2420,,41.64527175,22.50925227,"Манастир Св. Ѓорѓи, Илија Алексов, 2420 Oraovica, North Macedonia",,,,,,
Чебренски Манастир,,Pelagonia Region,Rapesh,Municipality of Novaci,,,41.1326711,21.67994828,"Чебренски Манастир, R1311, Rapesh, North Macedonia",,,,,,
Св. Атанасиј,,Pelagonia Region,Staravina,Municipality of Novaci,,,41.08600055,21.71906764,"Св. Атанасиј, R1311, Staravina, North Macedonia",,,,,,
Света Троица,Тhe church of the holly Trinity,Skopje Region,Bardovci,Municipality of Karposh,1060,,42.0292294,21.37830177,"Тhe church of the holly Trinity, Street 6, 1060 Bardovci, North Macedonia",,,,,,
Пресвета Богородица,Holy Mother of God,Southwestern Region,Makedonski Brod,Municipality of Makedonski Brod,6530,,41.51368015,21.21411975,"Holy Mother of God, Ilija Igeski-Cvetan, 6530 Makedonski Brod, North Macedonia",,,,,,
Тулбе,Tulbe,Southwestern Region,Makedonski Brod,Municipality of Makedonski Brod,6530,,41.5086055,21.21497909,"Tulbe, Porecka;Porečka 54, 6530 Makedonski Brod, North Macedonia",,,,,,
Турбе на Иса-бег,Tomb of Ishak Bey,Skopje Region,Skopje,Municipality of Chair,1001,Dukjandzhik,42.00242035,21.44143528,"Tomb of Ishak Bey, Васил Анџеларски, 1001 Skopje, North Macedonia",,,,,,
Покров на Пресвета Богородица,Shroud of the Most Holy Mother of God,Pelagonia Region,Prilep,Municipality of Prilep,7500,Shtavichko Maalo,41.3220951,21.5610036,"Shroud of the Most Holy Mother of God, Car Samoil, 7500 Prilep, North Macedonia",,,,,,
Рождество на Пресвета Богородица,Nativity of Virgin Mary,Pelagonia Region,Kadino Selo,Municipality of Prilep,,,41.3053214,21.45768987,"Nativity of Virgin Mary, R2339, Kadino Selo, North Macedonia",,,,,,
Св. Атанасиј,St. Athanasius,Pelagonia Region,Galichani,Municipality of Prilep,7515,,41.3035098,21.47059236,"St. Athanasius, R2339, 7515 Galichani, North Macedonia",,,,,,
Св.Талалеј,,Skopje Region,Arachinovo,Municipality of Arachinovo,1041,,42.02515045,21.5652379,"Св.Талалеј, Улица 1, 1041 Arachinovo, North Macedonia",,,,,,
Св. Јован Крстител,,Skopje Region,Skopje,Municipality of Aerodrom,1001,Novo Lisiche,41.9899259,21.47468825,"Св. Јован Крстител, Srbija, 1001 Skopje, North Macedonia",,,,,,
Св. Никола,St. Nicholas,Pelagonia Region,Sarandinovo,Municipality of Dolneni,,,41.4076239,21.39663953,"St. Nicholas, R1303, Sarandinovo, North Macedonia",,,,,,
Св. Троица,Holy Trinity,Pelagonia Region,Golemo Konjari,Municipality of Prilep,,,41.34156305,21.43697715,"Holy Trinity, R1306, Golemo Konjari, North Macedonia",,,,,,
Св. Пантелејмон,,Pelagonia Region,Beshishte,Municipality of Prilep,,,41.1364108,21.8069666,"Св. Пантелејмон, R2338, Beshishte, North Macedonia",,,,,,
Св. Димитриј,,Eastern Region,Shtip,Municipality of Shtip,2000,Кежовица,41.73441035,22.18118925,"Св. Димитриј, Krste Misirkov, 2000 Shtip, North Macedonia",,,,,,
Св. Богородица,,Eastern Region,Shtip,Municipality of Shtip,2000,Кежовица,41.7360819,22.182105,"Св. Богородица, Krste Misirkov, 2000 Shtip, North Macedonia",,,,,,
Св. Спас,,Eastern Region,Shtip,Municipality of Shtip,2000,Кежовица,41.7347907,22.1848158,"Св. Спас, Nikola Karev, 2000 Shtip, North Macedonia",,,,,,
Манастир „Свети Димитрија“,,Vardar Region,Veles,Municipality of Veles,1400,Babuna,41.7019638,21.79120236,"Манастир „Свети Димитрија“, R1102, 1400 Veles, North Macedonia",,,,,,
Св. Димитрија,,Polog Region,Gostivar,Municipality of Gostivar,1230,,41.7932068,20.9158082,"Св. Димитрија, Mara Ugirnoska, 1230 Gostivar, North Macedonia",,,,,,
Св. Димитриј Солунски,St. Demetrius of Salonica,Pelagonia Region,Trap,Municipality of Mogila,,,41.14121185,21.4357812,"St. Demetrius of Salonica, R29175, Trap, North Macedonia",,,,,,
Св. Атанасиј,St. Athanasius,Pelagonia Region,Pashino Ruvci,Municipality of Krivogashtani,7525,,41.2743076,21.36831554,"St. Athanasius, Ljube Grujoski, 7525 Pashino Ruvci, North Macedonia",,,,,,
Св. Георгиј,St. George,Pelagonia Region,Pashino Ruvci,Municipality of Krivogashtani,7525,,41.271358,21.39021372,"St. George, R2339, 7525 Pashino Ruvci, North Macedonia",,,,,,
Св. Петка,St. Parascheva,Northeastern Region,Voinovikj,Municipality of Kumanovo,,,42.2155793,21.69932307,"St. Parascheva, Friendship, Voinovikj, North Macedonia",,,,,,
Св.Никола,,Eastern Region,Shtip,Municipality of Shtip,2000,Кежовица,41.73663665,22.18890649,"Св.Никола, R1204, 2000 Shtip, North Macedonia",,,,,,
Мурат-пашина џамија,Murat Pasha Mosque,Skopje Region,Skopje,Municipality of Chair,1009,Dukjandzhik,42.00078735,21.43743807,"Murat Pasha Mosque, Битпазарска, 1009 Skopje, North Macedonia",,,,,,
Св. Никола,St. Nicholas,Pelagonia Region,Rashtani,Municipality of Bitola,7000,,41.05142,21.3247045,"St. Nicholas, A3, 7000 Rashtani, North Macedonia",,,,,,
Св. Арханѓел,,Eastern Region,Shtip,Municipality of Shtip,2000,Кежовица,41.7389336,22.18816526,"Св. Арханѓел, Пане Гочев, 2000 Shtip, North Macedonia",,,,,,
Кадан Ана Џамија,,Eastern Region,Shtip,Municipality of Shtip,2000,,41.73802014,22.19801625,"General Mihaylo Apostolski St., 2000 Shtip, North Macedonia",,,,,,
Св. Архангел Михаил,,Eastern Region,Shtip,Municipality of Shtip,2000,Кежовица,41.7380907,22.19129535,"Св. Архангел Михаил, Иво Лола Рибар, 2000 Shtip, North Macedonia",,,,,,
Св. Атанасиј Велики,St. Athanasius,Eastern Region,Orizari,Municipality of Kochani,2300,,41.9221786,22.4468081,"St. Athanasius, Gotse Delchev Str., 2300 Orizari, North Macedonia",,,,,,
Св. Атанасиј,St. Athanasius,Polog Region,Sarakjino,Municipality of Tetovo,,,41.9816694,21.03900105,"St. Athanasius, R1206, Sarakjino, North Macedonia",,,,,,
Пресвета Богородица,Holy Mother of God,Polog Region,Sarakjino,Municipality of Tetovo,,,41.98076845,21.04121195,"Holy Mother of God, R1206, Sarakjino, North Macedonia",,,,,,
св. Тројица,Sv. Trojitca,Skopje Region,Banjane,Municipality of Chucher Sandevo,,,42.1027654,21.37854295,"Sv. Trojitca, Манастир Св. Илија, Banjane, North Macedonia",,,,,,
Xhamia e Cairit,,Skopje Region,Skopje,Municipality of Chair,1009,Топанско Поле,42.01887835,21.44511715,"Xhamia e Cairit, Teki Derishi, 1009 Skopje, North Macedonia",,,,,,
Xhamia e Uhudit,,Skopje Region,Skopje,Municipality of Chair,1009,Топанско Поле,42.01862725,21.4383825,"Xhamia e Uhudit, Дижонска 83, 1009 Skopje, North Macedonia",,,,,,
Хаџиќазимова џамија,,Skopje Region,Skopje,Municipality of Chair,1001,Dukjandzhik,42.00361155,21.44519637,"Хаџиќазимова џамија, Челопек, 1001 Skopje, North Macedonia",,,,,,
Sv. Mala Bogorodica,,Skopje Region,Kuchkovo,Municipality of Gjorche Petrov,1060,,42.0385762,21.3307823,"Sv. Mala Bogorodica, Mother Teresa, 1060 Kuchkovo, North Macedonia",,,,,,
Кебир Мехмед Челеби џамија,,Skopje Region,Skopje,Municipality of Centar,1001,Centar,41.9993074,21.4452542,"Кебир Мехмед Челеби џамија, Штипска, 1001 Skopje, North Macedonia",,,,,,
Sveto Prepolovenie Rusa Sreda,Sveto Prepolovenie Rusa Sreda,Skopje Region,Batinci,Municipality of Studenichani,1050,Ljubosh,41.9168077,21.49535085,"Sveto Prepolovenie Rusa Sreda, Улица 8, 1050 Batinci, North Macedonia",,,,,,
Manastir Sv. Spas,,Vardar Region,Kavadarci,Municipality of Kavadarci,1430,,41.445737,21.9811109,"Manastir Sv. Spas, R1103, 1430 Kavadarci, North Macedonia",,,,,,
св. Софија аеродром,,Skopje Region,Skopje,Municipality of Aerodrom,1001,Novo Lisiche,41.98083715,21.47361115,"св. Софија аеродром, Видое Смилевски-Бато, 1001 Skopje, North Macedonia",,,,,,
Црква Свети Никола - Аеродром,Saint Nicholas,Skopje Region,Skopje,Municipality of Aerodrom,1001,Jane Sandanski,41.98379065,21.47145191,"Saint Nicholas, Булевар Јане Сандански, 1001 Skopje, North Macedonia",,,,,,
Рождество на Пресвета Богородица,Nativity of the Virgin Mary,Pelagonia Region,Malo Konjari,Municipality of Prilep,,,41.3331612,21.4619236,"Nativity of the Virgin Mary, R1306, Malo Konjari, North Macedonia",,,,,,
Xhamia e Re,,Northeastern Region,Kumanovo,Municipality of Kumanovo,1300,,42.1265567,21.70901556,"Xhamia e Re, Pero Stojmanovski, 1300 Kumanovo, North Macedonia",,,,,,
Св. Георгиј,St. George,Pelagonia Region,Prisad,Municipality of Prilep,,,41.42871355,21.62006505,"St. George, R1312, Prisad, North Macedonia",,,,,,
Св. Никола,,Pelagonia Region,Vogjani,Municipality of Krivogashtani,7525,,41.28420415,21.3385586,"Св. Никола, Најдо Најдоски, 7525 Vogjani, North Macedonia",,,,,,
Св. Архангел Гаврил,,Skopje Region,Skopje,Municipality of Gjorche Petrov,1060,Dame Gruev,42.0234766,21.3427234,"Св. Архангел Гаврил, Лука Геров, 1060 Skopje, North Macedonia",,,,,,
Евангелска Конгрешанска Црква,,Skopje Region,Skopje,Municipality of Centar,1000,Kapishtec,41.9983498,21.41490282,"Евангелска Конгрешанска Црква, Hristo Smirnenski, 1000 Skopje, North Macedonia",,,,,,
Св. Илија,St. Eliyah,Pelagonia Region,Veselchani,Municipality of Prilep,7512,,41.2707346,21.4440719,"St. Eliyah, R1101, 7512 Veselchani, North Macedonia",,,,,,
Св. Јован Крстител,St. John the Baptist,Pelagonia Region,Oreovec,Municipality of Prilep,7510,,41.36643295,21.59850961,"St. John the Baptist, Prilep-Gradsko, 7510 Oreovec, North Macedonia",,,,,,
Св. Павле,St. Oaul,Eastern Region,Vinica,Municipality of Vinica,2310,,41.88453865,22.50502826,"St. Oaul, Angel of Vinica, 2310 Vinica, North Macedonia",,,,,,
Св. Архангел Миахил,St. Archangel Michael,Pelagonia Region,Kalen,Municipality of Prilep,,,41.2919043,21.62518705,"St. Archangel Michael, R1107, Kalen, North Macedonia",,,,,,
Св.Илија,,Eastern Region,Shtip,Municipality of Shtip,2000,Кежовица,41.73573435,22.19551821,"Св.Илија, Ленинова, 2000 Shtip, North Macedonia",,,,,,
En-Nur Mosque,,Skopje Region,Bukovikj,Municipality of Saraj,,,41.9732352,21.2385472,"En-Nur Mosque, R1206, Bukovikj, North Macedonia",,,,,,
SV Petka,,Skopje Region,Divlje,Municipality of Petrovec,,,41.92117855,21.76202715,"SV Petka, R105, Divlje, North Macedonia",,,,,,
Храм Св. Троица,Holy Trinity Church,Southwestern Region,Belica,Municipality of Makedonski Brod,,,41.6748482,21.31190495,"Holy Trinity Church, Belica, Southwestern Region, North Macedonia",,,,,,
Sv. Bogorodica,,Vardar Region,Nemanjici,Municipality of Sveti Nikole,,,41.91389825,22.01334285,"Sv. Bogorodica, R2236, Nemanjici, North Macedonia",,,,,,
Св. Никола,St. Nicholas,Pelagonia Region,Shtavica,Municipality of Prilep,,,41.29017695,21.59672447,"St. Nicholas, R1107, Shtavica, North Macedonia",,,,,,
Св. Георгиј,,Pelagonia Region,Buchin,Municipality of Krushevo,7525,,41.2745032,21.29211954,"Св. Георгиј, R2339, 7525 Buchin, North Macedonia",,,,,,
Св. Архангел Михаил,,Southwestern Region,Lokvica,Municipality of Makedonski Brod,6530,,41.54682845,21.25005901,"Св. Архангел Михаил, R1106, 6530 Lokvica, North Macedonia",,,,,,
Св. Илија,,Pelagonia Region,Kalen,Municipality of Prilep,,,41.24839285,21.6078234,"Св. Илија, R1107, Kalen, North Macedonia",,,,,,
Св. Недела,St. Domenica,Pelagonia Region,Dunje,Municipality of Prilep,,,41.1977032,21.6701648,"St. Domenica, R1107, Dunje, North Macedonia",,,,,,
Св. Петар и Павле,St. Peter and Paul,Pelagonia Region,Dunje,Municipality of Prilep,,,41.2473974,21.6694508,"St. Peter and Paul, R1107, Dunje, North Macedonia",,,,,,
Св. Георгиј,Church St. George,Pelagonia Region,Dunje,Municipality of Prilep,,,41.22014355,21.6862205,"Church St. George, R1107, Dunje, North Macedonia",,,,,,
Св. Преображение,,Pelagonia Region,Krushevo OT,Municipality of Krushevo,7550,,41.40811945,21.22094657,"Св. Преображение, Krst Bozhji, 7550 Krushevo OT, North Macedonia",,,,,,
Св. Илија,,Pelagonia Region,Krushevo OT,Municipality of Krushevo,7550,Gipsy Neighbourhood,41.3113797,21.26943102,"Св. Илија, R1306, 7550 Krushevo OT, North Macedonia",,,,,,
Св. Георгиј,St. George,Pelagonia Region,Ostrilci,Municipality of Krushevo,7550,,41.32871745,21.23538683,"St. George, R1306, 7550 Ostrilci, North Macedonia",,,,,,
Св. Никола,,Pelagonia Region,Berovci,Municipality of Prilep,7515,,41.29620315,21.48754745,"Св. Никола, R2339, 7515 Berovci, North Macedonia",,,,,,
Св. Недела,St. Sunday,Southwestern Region,Drugovo,Municipality of Kichevo,6261,,41.4841715,20.92338911,"St. Sunday, Гоце Делчев, 6261 Drugovo, North Macedonia",,,,,,
Св. Атанасиј,St. Athanasius,Pelagonia Region,Lenishte,Municipality of Prilep,7510,,41.362435,21.61955335,"St. Athanasius, R1101, 7510 Lenishte, North Macedonia",,,,,,
Св. Троица,Holy Trinity,Vardar Region,Rosoman,Municipality of Rosoman,1422,,41.5180287,21.94543601,"Holy Trinity, L10701, 1422 Rosoman, North Macedonia",,,,,,
Манастир Свети Ѓорѓи - Кнежино,,Southwestern Region,Knezhino,Municipality of Kichevo,6261,,41.51619265,20.92154529,"Манастир Свети Ѓорѓи - Кнежино, Патека до манастир Св. Ѓорѓи (Кнежино), 6261 Knezhino, North Macedonia",,,,,,
Свети Димитрија,,Southwestern Region,Knezhino,Municipality of Kichevo,6261,,41.5212624,20.91664401,"Свети Димитрија, Кнежино, 6261 Knezhino, North Macedonia",,,,,,
Св. Архангел Михаил,,Southwestern Region,:Lavchani,Municipality of Kichevo,6261,,41.48302375,20.86723133,"6261 :Lavchani, North Macedonia",,,,,,
Св. Никола,St. Nicholas,Pelagonia Region,Zheleznec,Municipality of Demir Hisar/Murgashevo,,,41.29780345,21.0721115,"St. Nicholas, R1305, Zheleznec, North Macedonia",,,,,,
Св. Петка,St. Parascheva,Pelagonia Region,Prilep,Municipality of Prilep,7500,Tochila,41.34812925,21.53842896,"St. Parascheva, Brakja Miladinovci 0, 7500 Prilep, North Macedonia",,,,,,
Св. Атанасиј,St. Athanasius,Pelagonia Region,Zheleznec,Municipality of Demir Hisar/Murgashevo,,,41.2828107,21.04652866,"St. Athanasius, R1305, Zheleznec, North Macedonia",,,,,,
Рождество на Пресвета Богородица,Nativity of the Virgin Mary,Pelagonia Region,Barakovo,Municipality of Demir Hisar/Murgashevo,7240,,41.25094535,21.2263374,"Nativity of the Virgin Mary, R512, 7240 Barakovo, North Macedonia",,,,,,
Св. Никола,St. Nicholas,Pelagonia Region,Belche,Municipality of Demir Hisar/Murgashevo,7240,,41.24459455,21.1965553,"St. Nicholas, R1305, 7240 Belche, North Macedonia",,,,,,
Св. Богородица - Пречиста Кичевска,,Southwestern Region,Manastirsko Dolenci,Municipality of Kichevo,6261,,41.45918985,20.93541951,"Св. Богородица - Пречиста Кичевска, R1305, 6261 Manastirsko Dolenci, North Macedonia",,,,,,
Св. Георгиј,St. George,Pelagonia Region,Zashle,Municipality of Demir Hisar/Murgashevo,,,41.3404335,21.1264776,"St. George, Цер - Зашле, Zashle, North Macedonia",,,,,,
Св. Константин и Св. Елена,St. Constantine and St. Elena,Pelagonia Region,Edinakovci,Municipality of Demir Hisar/Murgashevo,,,41.23488085,21.25097585,"St. Constantine and St. Elena, R512, Edinakovci, North Macedonia",,,,,,
Gorno Orizari Mosque,,Vardar Region,Gorno Orizari,Municipality of Veles,1400,,41.68590605,21.73318095,"Gorno Orizari Mosque, 10124, 1400 Gorno Orizari, North Macedonia",,,,,,
Laka Mosque,,Skopje Region,Skopje,Municipality of Gjorche Petrov,9100,Hrom,41.9975331,21.36628138,"Laka Mosque, Рафаел Батино, 9100 Skopje, North Macedonia",,,,,,
Taftalidzhe Mosque,,Skopje Region,Skopje,Municipality of Karposh,9100,Taftalidzhe 2,42.00313065,21.38345186,"Taftalidzhe Mosque, Демир Трајко, 9100 Skopje, North Macedonia",,,,,,
Kasim Bey Mosque,,Skopje Region,Skopje,Municipality of Chair,1001,Dukjandzhik,42.00232175,21.44531921,"Kasim Bey Mosque, Петре Георгиев, 1001 Skopje, North Macedonia",,,,,,
Halit Efendi Mosque,,Northeastern Region,Slupchane,Municipality of Lipkovo,,,42.17499735,21.62692676,"Halit Efendi Mosque, R29272, Slupchane, North Macedonia",,,,,,
Св. Јован,St. John,Pelagonia Region,Demir Hisar,Municipality of Demir Hisar/Murgashevo,7240,,41.2262859,21.1518382,"St. John, 1 Maj, 7240 Demir Hisar, North Macedonia",,,,,,
Балаклија,,Pelagonia Region,Boishte,Municipality of Demir Hisar/Murgashevo,7240,,41.2384538,21.1506913,"Балаклија, R29371, 7240 Boishte, North Macedonia",,,,,,
Св. Никола,St. Nicholas,Pelagonia Region,Sloeshtica,Municipality of Demir Hisar/Murgashevo,,Lower Babino,41.28456975,21.09193138,"St. Nicholas, R29371, Sloeshtica, North Macedonia",,,,,,
Св. Петар,St Peter,Pelagonia Region,Smilevo,Municipality of Demir Hisar/Murgashevo,,,41.1705792,21.10637495,"St Peter, R29371, Smilevo, North Macedonia",,,,,,
Св. Атанасиј,St. Atanasius,Pelagonia Region,Sopotnica,Municipality of Demir Hisar/Murgashevo,,,41.3137409,21.1467739,"St. Atanasius, R1305, Sopotnica, North Macedonia",,,,,,
Успение на Пресвета Богородица,,Pelagonia Region,Lopatica,Municipality of Demir Hisar/Murgashevo,7240,,41.20658105,21.24524835,"Успение на Пресвета Богородица, R1305, 7240 Lopatica, North Macedonia",,,,,,
Црква „Свети Никола“,"Church ""Saint Nicholas""",Vardar Region,Sveti Nikole,Municipality of Sveti Nikole,2220,Каракански Бавчи,41.86629555,21.94234054,"Church Saint Nicholas""",,,"Цветан Димов, 2220 Sveti Nikole, North Macedonia",839361758,,
Света Лидија Македонска,,Vardar Region,Sveti Nikole,Municipality of Sveti Nikole,2220,Бел Камен,41.86119505,21.93933527,"Света Лидија Македонска, Септемвриска, 2220 Sveti Nikole, North Macedonia",,,,,,
Св. Тодор,,Pelagonia Region,Sveto Todori,Municipality of Mogila,7525,,41.2212667,21.32920105,"Св. Тодор, R2335, 7525 Sveto Todori, North Macedonia",,,,,,
Св. Илија,St. Eliyah,Pelagonia Region,Krklino,Municipality of Bitola,7000,,41.06909725,21.31731161,"St. Eliyah, манастир св.Илија - Снегово, 7000 Krklino, North Macedonia",,,,,,
Св. Архангел Михаил,St. Archangel Michael,Pelagonia Region,Lisolaj,Municipality of Bitola,,,41.1483904,21.32185497,"St. Archangel Michael, R1305, Lisolaj, North Macedonia",,,,,,
Кокино,,Northeastern Region,Kokino,Municipality of Staro Nagorichane,,,42.2651061,21.9531678,"Кокино, R2244, Kokino, North Macedonia",,,,,,
Џамија Дуди Ханум,Mosque Dudi Hanum,Eastern Region,Kochani,Municipality of Kochani,2300,,41.92450165,22.41016313,"Mosque Dudi Hanum, Goce Delchev, 2300 Kochani, North Macedonia",,,,,,
Св. Атанасиј,St. Athanasius,Skopje Region,Usje,Municiplity of Kisela Voda,1054,,41.9560054,21.4561801,"St. Athanasius, Улица 32, 1054 Usje, North Macedonia",,,,,,
Св. Илија,St. Eliyah,Pelagonia Region,Golemo Ilino,Municipality of Demir Hisar/Murgashevo,,,41.2928037,20.98046997,"St. Eliyah, R29273, Golemo Ilino, North Macedonia",,,,,,
Св. Наум Охридски,St. Naum of Ohrid,Pelagonia Region,Prilep,Municipality of Prilep,7500,Shtavichko Maalo,41.3371013,21.55492138,"St. Naum of Ohrid, Car Samoil 0, 7500 Prilep, North Macedonia",,,,,,
Св. Троица,Holy Trinity,Pelagonia Region,Topolchani,Municipality of Prilep,7512,,41.2379496,21.40617682,"Holy Trinity, Тополчани, 7512 Topolchani, North Macedonia",,,,,,
Успение на Пресвета Богородица,Dormition of the Holy Mother of God,Pelagonia Region,Novaci,Municipality of Novaci,,,41.04511335,21.43874443,"Dormition of the Holy Mother of God, R1311, Novaci, North Macedonia",,,,,,
Св. Атанасиј,St. Athanasius,Pelagonia Region,Veleselo,Municipality of Novaci,,,41.01677125,21.53727066,"St. Athanasius, L50728, Veleselo, North Macedonia",,,,,,
Св. Димитриј Солунски,St. Demetrius of Salonica,Pelagonia Region,Budimirci,Municipality of Novaci,,,41.03706015,21.74280605,"St. Demetrius of Salonica, R2338, Budimirci, North Macedonia",,,,,,
Св. Атанасиј,St. Athanasius,Pelagonia Region,Krushevo OT,Municipality of Krushevo,7550,Gipsy Neighbourhood,41.29639865,21.25322397,"St. Athanasius, R1306, 7550 Krushevo OT, North Macedonia",,,,,,
Св. Василиј Велики,St. Basil the Great,Pelagonia Region,Krushevo OT,Municipality of Krushevo,7550,5 Letters,41.3464194,21.2742651,"St. Basil the Great, R1306, 7550 Krushevo OT, North Macedonia",,,,,,
Св. Никола,St. Nicholas,Vardar Region,Dabnishte,Municipality of Kavadarci,1430,Vatasha,41.38520365,22.03711197,"St. Nicholas, R1107, 1430 Dabnishte, North Macedonia",,,,,,
Св. Троица,Holy Trinity,Skopje Region,Dolno Lisiche,Municipality of Aerodrom,1050,,41.9576645,21.54033369,"Holy Trinity, R1106, 1050 Dolno Lisiche, North Macedonia",,,,,,
Св. Троица,Holy Trinity,Skopje Region,Dolno Lisiche,Municipality of Aerodrom,1050,,41.95825535,21.54116705,"Holy Trinity, R1106, 1050 Dolno Lisiche, North Macedonia",,,,,,
Св. Спас,Holy Salvation,Pelagonia Region,Noshpal,Municipality of Prilep,7512,,41.2131068,21.48204015,"Holy Salvation, R2340, 7512 Noshpal, North Macedonia",,,,,,
Св. Георгиј,St. George,Pelagonia Region,Alinci,Municipality of Prilep,7514,,41.24179235,21.48413383,"St. George, A3, 7514 Alinci, North Macedonia",,,,,,
Св. Димитриј Солунски,St. Demetrius of Salonica,Pelagonia Region,Melnica,Municipality of Prilep,,,41.1656512,21.78743055,"St. Demetrius of Salonica, R1107, Melnica, North Macedonia",,,,,,
Св. Никола,St. Nicholas,Pelagonia Region,Shtavica,Municipality of Prilep,,,41.2803469,21.57202646,"St. Nicholas, R1107, Shtavica, North Macedonia",,,,,,
Св. Георгиј,St. George,Pelagonia Region,Beshishte,Municipality of Prilep,,,41.16260265,21.68747105,"St. George, Path to Chebren, Beshishte, North Macedonia",,,,,,
Св. Петка,St. Parascheva,Pelagonia Region,Beshishte,Municipality of Prilep,,,41.158583,21.6863433,"St. Parascheva, Path to Chebren, Beshishte, North Macedonia",,,,,,
Св. Димитриј Солунски,St. Demetrius of Salonica,Pelagonia Region,Trojaci,Municipality of Prilep,,,41.3571139,21.77121771,"St. Demetrius of Salonica, R1101, Trojaci, North Macedonia",,,,,,
Св. Георгиј,St. George,Pelagonia Region,Trojaci,Municipality of Prilep,,,41.37029905,21.73877061,"St. George, R1101, Trojaci, North Macedonia",,,,,,
Св. Недела,St. Domenica,Pelagonia Region,Krushevo,Municipality of Krushevo,7550,Miak,41.37516975,21.24085519,"St. Domenica, Todor Proeski-Toshe, 7550 Krushevo, North Macedonia",,,,,,
Св. Архангел Михаил,St. Archangel Michael,Pelagonia Region,Vrpsko,Municipality of Prilep,,,41.2407996,21.81342383,"St. Archangel Michael, Vrpsko, Pelagonia Region, North Macedonia",,,,,,
Св. Димитриј Солунски,St. Demetrius of Salonica,Pelagonia Region,Gugjakovo,Municipality of Prilep,,,41.2826756,21.7988192,"St. Demetrius of Salonica, Gugjakovo, Pelagonia Region, North Macedonia",,,,,,
Св. Петар и Павле,St. Peter and Paul,Pelagonia Region,Zhivovo,Municipality of Prilep,,,41.2077939,21.8163884,"Zhivovo, Pelagonia Region, North Macedonia",,,,,,
Св. Петка,St. Parascheva,Pelagonia Region,Vitolishte,Municipality of Prilep,,,41.2061232,21.81377828,"St. Parascheva, R1107, Vitolishte, North Macedonia",,,,,,
Св. Димитириј Солунски,St. Demetrius of Salonica,Pelagonia Region,Trojaci,Municipality of Prilep,,,41.3365458,21.77614293,"St. Demetrius of Salonica, R1101, Trojaci, North Macedonia",,,,,,
Св. Спас,Holy Salvation,Pelagonia Region,Topolchani,Municipality of Prilep,7512,,41.23004165,21.43026629,"Holy Salvation, Тополчани, 7512 Topolchani, North Macedonia",,,,,,
Св. Никола,St. Nicholas,Pelagonia Region,Toplica,Municipality of Prilep,,,41.4012888,21.7414305,"St. Nicholas, R1101, Toplica, North Macedonia",,,,,,
Св. Георгиј,St. George,Pelagonia Region,Dunje,Municipality of Prilep,,,41.2816681,21.67002744,"St. George, R29172, Dunje, North Macedonia",,,,,,
Св. Петка,St. Parascheva,Pelagonia Region,Dunje,Municipality of Prilep,,,41.2866291,21.67066275,"St. Parascheva, R29172, Dunje, North Macedonia",,,,,,
Св. Илија,St. Eliyah,Pelagonia Region,Kalen,Municipality of Prilep,,,41.27525815,21.66148665,"St. Eliyah, R1107, Kalen, North Macedonia",,,,,,
Св. Димитриј Солунски,St. Demetrius of Salonica,Pelagonia Region,Podmol,Municipality of Prilep,,,41.1991567,21.56290141,"St. Demetrius of Salonica, Podmol, Pelagonia Region, North Macedonia",,,,,,
Св. Спас,Holy Salvation,Pelagonia Region,Melnica,Municipality of Prilep,,,41.1475914,21.82345615,"Holy Salvation, R1107, Melnica, North Macedonia",,,,,,
Св. Димитриј Солунски,St. Demetrius of Salonica,Pelagonia Region,Shtavica,Municipality of Prilep,,,41.2953577,21.58440662,"St. Demetrius of Salonica, R1107, Shtavica, North Macedonia",,,,,,
Св. Атанасиј,St. Athanasius,Pelagonia Region,Prisad,Municipality of Prilep,,,41.434158,21.59738004,"St. Athanasius, R1312, Prisad, North Macedonia",,,,,,
Св. Атанасиј,St. Athanasius,Pelagonia Region,Toplica,Municipality of Prilep,,,41.42172195,21.7465523,"St. Athanasius, R1101, Toplica, North Macedonia",,,,,,
Успение на Пресвета Богородица,Assumption of the Most Holy Mother of God,Pelagonia Region,Prilep,Municipality of Prilep,7510,,41.32528455,21.57799989,"Assumption of the Most Holy Mother of God, A3, 7510 Prilep, North Macedonia",,,,,,
Св. Кирил и Методиј,Ss. Cyril and Methodius,Pelagonia Region,Prilep,Municipality of Prilep,7500,Charshija,41.34660915,21.54929764,"Ss. Cyril and Methodius, Arhiepiskop Dositej, 7500 Prilep, North Macedonia",,,,,,
Св. Пантелејмон,St. Panteleimon,Pelagonia Region,Prilep,Municipality of Prilep,7510,Rid,41.34213285,21.56347875,"St. Panteleimon, Naroden Heroj Trajko Boshkoski-Tarcan, 7510 Prilep, North Macedonia",,,,,,
Св. Никола,St. Niocholas,Pelagonia Region,Lopatica,Municipality of Prilep,,,41.17960895,21.59580835,"St. Niocholas, Lopatica, Pelagonia Region, North Macedonia",,,,,,
Рождение на Пресвета Богородица,Nativity of Virgin Mary,Pelagonia Region,Shtavica,Municipality of Prilep,7515,,41.23281,21.55063107,"Nativity of Virgin Mary, R1107, 7515 Shtavica, North Macedonia",,,,,,
Св. Спас,Holy Salvation,Pelagonia Region,Alinci,Municipality of Prilep,7515,TIDZ Alinci,41.26440195,21.51871538,"Holy Salvation, ТИРЗ, 7515 Alinci, North Macedonia",,,,,,
Св. Никола,St. Nicholas,Pelagonia Region,Dren,Municipality of Prilep,,,41.32740185,21.7853088,"St. Nicholas, Dren, Pelagonia Region, North Macedonia",,,,,,
Св. Илија,St. Eliyah,Pelagonia Region,Dren,Municipality of Prilep,,,41.32282235,21.7800863,"St. Eliyah, Dren, Pelagonia Region, North Macedonia",,,,,,
Св. Параскева,St. Parascheva,Pelagonia Region,Beshishte,Municipality of Prilep,,,41.13838525,21.78345515,"St. Parascheva, R2338, Beshishte, North Macedonia",,,,,,
Св. Јован,St. John,Pelagonia Region,Bonche,Municipality of Prilep,,,41.2276143,21.59512188,"St. John, R1107, Bonche, North Macedonia",,,,,,
Св. Јован Богослов,St. John The Theologian,Pelagonia Region,Bonche,Municipality of Prilep,,,41.226463,21.59755064,"St. John The Theologian, R1107, Bonche, North Macedonia",,,,,,
Св. Петка,,Pelagonia Region,Veprchani,Municipality of Prilep,,,41.27083075,21.75394398,"Св. Петка, Veprchani, Pelagonia Region, North Macedonia",,,,,,
Св. Илија,,Pelagonia Region,Melnica,Municipality of Prilep,,,41.1637134,21.7812879,"Св. Илија, R1107, Melnica, North Macedonia",,,,,,
Св. Харалампиј,St. Charalambos,Pelagonia Region,Vitolishte,Municipality of Prilep,,National Forests - Black Pine,41.17739055,21.8254023,"St. Charalambos, R1107, Vitolishte, North Macedonia",,,,,,
Св. Петка,St. Parascheva,Pelagonia Region,Vitolishte,Municipality of Prilep,,,41.1832086,21.82536265,"St. Parascheva, R1107, Vitolishte, North Macedonia",,,,,,
Св. Никола,St. Nicholas,Pelagonia Region,Prilep (Vicinity),Municipality of Prilep,7513,,41.39311375,21.56405828,"St. Nicholas, Hiking trail Prilep - Treskavec, 7513 Prilep (Vicinity), North Macedonia",,,,,,
Св. Димитриј Солунски,St. Demetrius of Salonica,Pelagonia Region,Dunje,Municipality of Prilep,,,41.25776775,21.6896227,"St. Demetrius of Salonica, R29172, Dunje, North Macedonia",,,,,,
Св. Никола,St. Nicholas,Pelagonia Region,Kanatlarci,Municipality of Prilep,,,41.2168103,21.50485623,"St. Nicholas, Kanatlarci, Pelagonia Region, North Macedonia",,,,,,
Успение на Пресвета Богородица,Dormition of Holy Mother of God,Pelagonia Region,Kanatlarci,Municipality of Prilep,,,41.2169531,21.50508983,"Dormition of Holy Mother of God, Kanatlarci, Pelagonia Region, North Macedonia",,,,,,
Св. Спас,Holy Salvation,Pelagonia Region,Kalen,Municipality of Prilep,,,41.2928025,21.6345665,"Holy Salvation, R1107, Kalen, North Macedonia",,,,,,
Св. Никола,St. Nicholas,Pelagonia Region,Pletvar,Municipality of Prilep,,,41.403982,21.6687494,"St. Nicholas, R1101, Pletvar, North Macedonia",,,,,,
Рождество на Пресвета Богородица,Nativity of Virgin Mary,Pelagonia Region,Toplica,Municipality of Prilep,,,41.37341645,21.79900384,"Nativity of Virgin Mary, R1101, Toplica, North Macedonia",,,,,,
Св. Петка,St. Parascheva,Pelagonia Region,Beshishte,Municipality of Prilep,,,41.116295,21.80463375,"St. Parascheva, R2338, Beshishte, North Macedonia",,,,,,
Св. Петка,St. Parascheva,Skopje Region,Skopje,Municipality of Aerodrom,1001,Novo Lisiche,41.98104665,21.46903509,"St. Parascheva, Srbija, 1001 Skopje, North Macedonia",,,,,,
Св.Тројца,Sv.Trojca,Southeastern Region,Radovish,Municipality of Radovish,2420,,41.6350875,22.4677492,"Sv.Trojca, Bulevard Aleksandar Makedonski, 2420 Radovish, North Macedonia",,,,,,
Св. Петка,St. Parascheva,Pelagonia Region,Prilep,Municipality of Prilep,7500,Shtavichko Maalo,41.30410115,21.5659066,"St. Parascheva, Car Samoil, 7500 Prilep, North Macedonia",,,,,,
Св. Василиј,,Eastern Region,Jastrebnik,Municipality of Kochani,,,42.04039245,22.3522951,"Св. Василиј, R1309, Jastrebnik, North Macedonia",,,,,,
Собор на Сите Македонски Светители,,Pelagonia Region,Bitola,Municipality of Bitola,7000,,41.026193,21.31430691,"Собор на Сите Македонски Светители, Partizanski Odredi na Makedonija 0, 7000 Bitola, North Macedonia",,,,,,
Св. Петар и Павле,St. Peter and St. Paul,Southwestern Region,Kichevo,Municipality of Kichevo,6250,Podvarosh,41.51161135,20.96345986,"St. Peter and St. Paul, Александар Македонски 0, 6250 Kichevo, North Macedonia",,,,,,
Манастир Св.Илија Петти Кладенци,,Northeastern Region,Shopsko Rudare,Municipality of Kratovo,,,42.05597155,21.98936367,"Манастир Св.Илија Петти Кладенци, R29277, Shopsko Rudare, North Macedonia",,,,,,
Манастир Св. Арханѓел Гаврил,,Skopje Region,Zelenikovo,Municipality of Zelenikovo,1053,,41.88500575,21.58376925,"Манастир Св. Арханѓел Гаврил, R117, 1053 Zelenikovo, North Macedonia",,,,,,
Св. Пантелејмон,St. Pantaleon,Pelagonia Region,Prisad,Municipality of Prilep,,,41.429221,21.61976095,"St. Pantaleon, R1312, Prisad, North Macedonia",,,,,,
Пресвето Срце Исусово,,Pelagonia Region,Bitola,Municipality of Bitola,7000,Borimechka,41.02880935,21.33592937,"Пресвето Срце Исусово, Широк Сокак, 7000 Bitola, North Macedonia",,,,,,
Храм Свети Климент Охридски и Света Петка,,Eastern Region,Shtip,Municipality of Shtip,2000,,41.7469713,22.19786542,"Храм Свети Климент Охридски и Света Петка, Никоманска, 2000 Shtip, North Macedonia",,,,,,
Св. Недела,Holy Sunday Church,Eastern Region,Obleshevo,Municipality of Cheshinovo-Obleshevo,,,41.8820608,22.3328605,"Holy Sunday Church, M5, Obleshevo, North Macedonia",,,,,,
Св. Никола,St. Nicholas,Pelagonia Region,Vrboec,Municipality of Krushevo,7524,,41.33659563,21.29709789,"7524 Vrboec, North Macedonia",,,,,,
Св. Троица,Holy Trinity,Pelagonia Region,Trojaci,Municipality of Prilep,,,41.36664405,21.74005972,"Holy Trinity, R1101, Trojaci, North Macedonia",,,,,,
Св. Атанасиј Велики,,Vardar Region,Negotino,Municipality of Negotino,1440,,41.4877502,22.0935922,"Св. Атанасиј Велики, Partizanska, 1440 Negotino, North Macedonia",,,,,,
Св. Јован Крстител,,Vardar Region,Veles,Municipality of Veles,1400,Prevalec,41.710387,21.76285728,"Св. Јован Крстител, Благој Ѓорев, 1400 Veles, North Macedonia",,,,,,
Свети Апостол и евангелист Лука,,Eastern Region,Vinica,Municipality of Vinica,2310,,41.88467705,22.51296534,"Свети Апостол и евангелист Лука, Даме Груев, 2310 Vinica, North Macedonia",,,,,,
Св. Три Светители,,Skopje Region,Skopje,Municipality of Aerodrom,1001,Michurin,41.9901004,21.447026,"Св. Три Светители, Владимир Комаров, 1001 Skopje, North Macedonia",,,,,,
Св. Архангел Гаврил,,Skopje Region,Skopje,Municipality of Gazi Baba,1000,Chento,42.006785,21.50778173,"Св. Архангел Гаврил, Финска 24, 1000 Skopje, North Macedonia",,,,,,
Xhamija e Deshmoreve Hasanbeg,,Skopje Region,Municipality of Gazi Baba,,,Singelikj,42.0149044,21.51421689,"Xhamija e Deshmoreve Hasanbeg, 912, Municipality of Gazi Baba, North Macedonia",,,,,,
Св. Георгиј,St. George,Southwestern Region,Lazarovci,Municipality of Kichevo,6250,,41.53115365,20.9901605,"St. George, R2231, 6250 Lazarovci, North Macedonia",,,,,,
Св. Никола,St. Nicholas,Pelagonia Region,Bitola,Municipality of Bitola,7000,Borimechka,41.02067305,21.34659712,"St. Nicholas, Боримечка, 7000 Bitola, North Macedonia",,,,,,
Св. Атанасиј Велики,St. Athanasius the Great,Pelagonia Region,Kukurechani,Municipality of Bitola,,,41.12147705,21.3354214,"St. Athanasius the Great, A3, Kukurechani, North Macedonia",,,,,,
Св. Никола,,Skopje Region,Skopje,Municipality of Butel,1000,Топанско Поле,42.02200375,21.44039371,"Св. Никола, Втора Македонска Бригада, 1000 Skopje, North Macedonia",,,,,,
Св. Константин и Елена,,Skopje Region,Skopje,Municipality of Gazi Baba,1000,Zhelezara,42.0148381,21.45096952,"Св. Константин и Елена, Тајмишка, 1000 Skopje, North Macedonia",,,,,,
Св. Илија,St. Eliyah,Pelagonia Region,Meglenci,Municipality of Novaci,,,41.07175155,21.5049613,"St. Eliyah, R1311, Meglenci, North Macedonia",,,,,,
Света Троица,,Pelagonia Region,Bitola,Municipality of Bitola,7000,Borimechka,41.02549675,21.34153815,"Света Троица, Nikola Tesla, 7000 Bitola, North Macedonia",,,,,,
Xhamia Sërbicë,,Southwestern Region,Srbica,Municipality of Kichevo,6254,,41.58773125,21.03154071,"Xhamia Sërbicë, Pruga uskog koloseka Skopje – Ohrid, 6254 Srbica, North Macedonia",,,,,,
Св. Архангел Михаил,,Eastern Region,Vinica,Municipality of Vinica,2310,,41.8821196,22.5054658,"Св. Архангел Михаил, Борис Кидрич, 2310 Vinica, North Macedonia",,,,,,
Манастир Св. 40 Маченици,,Skopje Region,Orman,Municipality of Gjorche Petrov,1060,,42.0609829,21.3489729,"Манастир Св. 40 Маченици, Motrokros Pateka Orman, 1060 Orman, North Macedonia",,,,,,
Св. Атанас,,Skopje Region,Kuchkovo,Municipality of Gjorche Petrov,,,42.0598924,21.2983618,"Св. Атанас, Улица 103, Kuchkovo, North Macedonia",,,,,,
Crkva Sv.Tripun,,Skopje Region,Kuchkovo,Municipality of Gjorche Petrov,,,42.0608563,21.3158452,"Crkva Sv.Tripun, Улица 103, Kuchkovo, North Macedonia",,,,,,
Св. Петка,,Skopje Region,Volkovo,Municipality of Gjorche Petrov,1060,,42.0493212,21.3388559,"Св. Петка, Улица 103, 1060 Volkovo, North Macedonia",,,,,,
Св. Атанас,,Skopje Region,Volkovo,Municipality of Gjorche Petrov,1060,,42.0500064,21.339328,"Св. Атанас, Улица 103, 1060 Volkovo, North Macedonia",,,,,,
Sv. Krstovden,,Skopje Region,Kuchkovo,Municipality of Gjorche Petrov,,,42.0516811,21.3110834,"Sv. Krstovden, Улица 103, Kuchkovo, North Macedonia",,,,,,
Sv. Spas-Kuckovo,,Skopje Region,Kuchkovo,Municipality of Gjorche Petrov,,,42.0592027,21.3083108,"Sv. Spas-Kuckovo, Улица 103, Kuchkovo, North Macedonia",,,,,,
Џамија Никиштане,,Skopje Region,Volkovo,Municipality of Gjorche Petrov,1060,,42.0660807,21.3357012,"Џамија Никиштане, Mother Teresa, 1060 Volkovo, North Macedonia",,,,,,
Св. Никита,,Skopje Region,Banjane,Municipality of Chucher Sandevo,,,42.1076532,21.3799578,"Св. Никита, Манастир Св. Илија, Banjane, North Macedonia",,,,,,
Sv.Petka-Kuckovo,,Skopje Region,Kuchkovo,Municipality of Gjorche Petrov,,,42.0540808,21.3135461,"Sv.Petka-Kuckovo, Улица 103, Kuchkovo, North Macedonia",,,,,,
Манастир Св. Андреј,Monastery St. Andrej,Skopje Region,Matka,Municipality of Saraj,,,41.9505936,21.2991931,"Monastery St. Andrej, Přehrada Matka - hráz, Matka, North Macedonia",,,,,,
Св. Никола,,Skopje Region,Shishevo,Municipality of Saraj,,,41.951833,21.3042042,"Св. Никола, Мечкина Дупка, Shishevo, North Macedonia",,,,,,
с.в Наум Охридски,,Skopje Region,Radishani,Municipality of Butel,1010,Radishani,42.0550347,21.4554709,"с.в Наум Охридски, 20, 1010 Radishani, North Macedonia",,,,,,
Пресвета Богородица,,Skopje Region,Radishani,Municipality of Butel,1010,Radishani,42.0719506,21.4487798,"Пресвета Богородица, Радишанска, 1010 Radishani, North Macedonia",,,,,,
Св. Илија,,Skopje Region,Kuchkovo,Municipality of Gjorche Petrov,,,42.0604971,21.2958493,"Св. Илија, Улица 103, Kuchkovo, North Macedonia",,,,,,
Св. Богородица,Holy Mother of God,Vardar Region,Saramzalino,Municipality of Lozovo,,,41.7882229,21.9410619,"Holy Mother of God, A3, Saramzalino, North Macedonia",,,,,,
Св. Богородица,Mother of God,Vardar Region,Demir Kapija,Municipality of Demir Kapija,1442,,41.4091983,22.2367525,"Mother of God, Ilindenska, 1442 Demir Kapija, North Macedonia",,,,,,
Св. Талалеј,,Vardar Region,Klisura,Municipality of Demir Kapija,,,41.3842763,22.2918792,"Св. Талалеј, Road to Klisura (Paved section), Klisura, North Macedonia",,,,,,
Манастир Св. Никола,Monastery St. Nicholas,Vardar Region,Klisura,Municipality of Demir Kapija,,,41.3831513,22.2878614,"Monastery St. Nicholas, Road to Klisura (Paved section), Klisura, North Macedonia",,,,,,
Св. Петка,,Northeastern Region,Gradishte,Municipality of Kumanovo,2220,,41.9997804,21.8606921,"Св. Петка, R1204, 2220 Gradishte, North Macedonia",,,,,,
Manastir Sveta Bogorodica,,Vardar Region,Vetersko,Municipality of Veles,,,41.8289199,21.6864385,"Manastir Sveta Bogorodica, Friendship, Vetersko, North Macedonia",,,,,,
Hayati Baba Teqe,,Southwestern Region,Kichevo,Municipality of Kichevo,6250,Chiflik,41.513223,20.9609726,"Hayati Baba Teqe, 11 Октомври, 6250 Kichevo, North Macedonia",,,,,,
Çulu Baba Teqe,,Southwestern Region,Kichevo,Municipality of Kichevo,6250,Podvarosh,41.5121875,20.9617402,"Çulu Baba Teqe, Санде Штерјоски, 6250 Kichevo, North Macedonia",,,,,,
Balla Mëhalla,,Southwestern Region,Kichevo,Municipality of Kichevo,6250,Bala Maalo,41.5181592,20.9658609,"Balla Mëhalla, Исеин Акиоски, 6250 Kichevo, North Macedonia",,,,,,
Св. Преображение,,Pelagonia Region,Skochivir,Municipality of Novaci,,,40.9820235,21.7749801,"Св. Преображение, Skochivir, Pelagonia Region, North Macedonia",,,,,,
Manastir Sveti Jovan,,Vardar Region,Vetersko,Municipality of Veles,,,41.8286581,21.6894737,"Manastir Sveti Jovan, Friendship, Vetersko, North Macedonia",,,,,,
Св. Архангел Михаил,,Northeastern Region,Kumanovo,Municipality of Kumanovo,1300,,42.1507701,21.7322948,"Св. Архангел Михаил, R1204, 1300 Kumanovo, North Macedonia",,,,,,
Успение на Пресвета Богородица,,Vardar Region,Municipality of Kavadarci,,1430,Vatasha,41.4182976,22.0180718,"Успение на Пресвета Богородица, Boro Vataskhi, 1430 Municipality of Kavadarci, North Macedonia",,,,,,
Св.Петка,,Skopje Region,Drachevo,Municiplity of Kisela Voda,1050,,41.9289057,21.5229042,"Св.Петка, Драчевска-2, 1050 Drachevo, North Macedonia",,,,,,
Црква „Св. Недела“ - Теново,,Polog Region,Tenovo,Municipality of Brvenica,1237,,41.8829405,20.9917833,"Црква „Св. Недела“ - Теново, R2233, 1237 Tenovo, North Macedonia",,,,,,
Manastir Svetka Petka,,Skopje Region,Viniche,Municipality of Gazi Baba,,,42.0594793,21.509645,"Manastir Svetka Petka, Манастир „Св. Петка“ - Црешево, Viniche, North Macedonia",,,,,,
Манастир Св. Богородица Елеуса,Monastery of the Mother of God Eleusa,Southeastern Region,Veljusa,Municipality of Strumica,,,41.4750804,22.5655398,"Veljusa, Southeastern Region, North Macedonia",,,,,,
Манастир Св. Леонтиј,St. Leontius Monastery,Southeastern Region,Vodocha,Municipality of Strumica,2400,,41.4505759,22.5902413,"St. Leontius Monastery, R2432, 2400 Vodocha, North Macedonia",,,,,,
Sveta Petka,,Polog Region,Gostivar,Municipality of Gostivar,1230,,41.7959966,20.9179313,"Sveta Petka, Боге Вељаноски, 1230 Gostivar, North Macedonia",,,,,,
Манастир Св. Никола,,Polog Region,Zhelezna Reka,Municipality of Gostivar,,,41.7004213,21.0333308,"Манастир Св. Никола, R408, Zhelezna Reka, North Macedonia",,,,,,
Црква „Рождество на Пресвета Богородица“,,Skopje Region,Skopje,Municipality of Karposh,1000,Karposh,41.9769543,21.408415,"Црква „Рождество на Пресвета Богородица“, R2138, 1000 Skopje, North Macedonia",,,,,,
Св.Пантелејмон,,Eastern Region,Brest,Municipality of Shtip,,,41.6167785,22.3168135,"Св.Пантелејмон, M6, Brest, North Macedonia",,,,,,
св. Петка,,Southeastern Region,Gradec,Municipality of Valandovo,,,41.3779361,22.392733,"св. Петка, R1102, Gradec, North Macedonia",,,,,,
Manastir Sveti Ilija,Monastery of Saint Ellyah,Vardar Region,Влахчени,Municipality of Veles,,,41.812649,21.6647825,"Monastery of Saint Ellyah, 10134, Влахчени, North Macedonia",,,,,,
Св. Јован Крстител,St. John the Baptist,Northeastern Region,Kratovo,Municipality of Kratovo,,,42.0758863,22.1831257,"St. John the Baptist, Јосиф Даскалов, Kratovo, North Macedonia",,,,,,
џа́мија,,Polog Region,Debreshe,Municipality of Gostivar,1238,,41.8188966,20.8872549,"џа́мија, R1206, 1238 Debreshe, North Macedonia",,,,,,
Крст,,Skopje Region,Skopje,Municipality of Aerodrom,1001,Aerodrom,41.9779014,21.4642214,"Крст, 3 Makedonska Brigada, 1001 Skopje, North Macedonia",,,,,,
Sveti Spas,,Skopje Region,Matka,Municipality of Saraj,,,41.9540687,21.2889878,"Sveti Spas, Sveta Nedela, Matka, North Macedonia",,,,,,
Sveta Nedela,,Skopje Region,Matka,Municipality of Saraj,,,41.949721,21.2914987,"Sveta Nedela, Matka, North Macedonia",,,,,,
Св. Ѓорѓија,,Skopje Region,Petrovec,Municipality of Petrovec,1034,,41.9389087,21.6146788,"Св. Ѓорѓија, Улица 8, 1034 Petrovec, North Macedonia",,,,,,
Св. Ѓорѓи,,Southeastern Region,Garvan,Municipality of Konche,,,41.5578401,22.2870123,"Св. Ѓорѓи, R2433, Garvan, North Macedonia",,,,,,
Sveti Spas,,Skopje Region,Viniche,Municipality of Gazi Baba,,,42.0854161,21.4890684,"Sveti Spas, Манастир „Св. Петка“ - Црешево, Viniche, North Macedonia",,,,,,
Свети Пантелејмон,,Vardar Region,Veles,Municipality of Veles,1400,,41.715156,21.7874159,"Свети Пантелејмон, 10136, 1400 Veles, North Macedonia",,,,,,
Свети Јован Крстител,,Skopje Region,Skopje,Municipality of Butel,1010,Butel,42.038639,21.4470962,"Свети Јован Крстител, Бутелска, 1010 Skopje, North Macedonia",,,,,,
Св. Ѓорѓија,St. George,Vardar Region,Chiflik,Municipality of Demir Kapija,1442,,41.3390523,22.2545875,"St. George, Footpath to Toplo Verishte"" swimming holes",,, 1442 Chiflik," North Macedonia""",6327921348,
Haci Balaban 1440,,Skopje Region,Skopje,Municipality of Chair,1009,Dukjandzhik,42.0049027,21.4368729,"Haci Balaban 1440, Дрварска, 1009 Skopje, North Macedonia",,,,,,
Mosque,,Skopje Region,Skopje,Municipality of Chair,1009,Dukjandzhik,42.0038278,21.4375316,"Mosque, Атанас Бабата, 1009 Skopje, North Macedonia",,,,,,
Mosque,,Southwestern Region,Kolari,Municipality of Kichevo,,,41.6345497,20.9142852,"Mosque, A2, Kolari, North Macedonia",,,,,,
Mosque,,Southwestern Region,Dlapkin Dol,Municipality of Kichevo,6250,,41.5691074,20.9568036,"Mosque, A2, 6250 Dlapkin Dol, North Macedonia",,,,,,
Christijanski Zentar,Church,Skopje Region,Skopje,Municipality of Centar,1000,Debar Maalo,42.0013585,21.4167475,"Church, Blagoj Davkov 10, 1000 Skopje, North Macedonia",,,,,,
"Православна црква ""Свети Илија""",,Southeastern Region,Radovish,Municipality of Radovish,2420,,41.6444402,22.4565993,"Православна црква Свети Илија""",,,"Гоце Делчев, 2420 Radovish, North Macedonia",7416200113,,
Црква Св. Петка,,Southwestern Region,Greshnica,Municipality of Makedonski Brod,6530,,41.5618318,21.1908022,"Црква Св. Петка, R1106, 6530 Greshnica, North Macedonia",,,,,,
Muslim mosque,,Northeastern Region,Voinovikj,Municipality of Kumanovo,,,42.2235516,21.700367,"Muslim mosque, Friendship, Voinovikj, North Macedonia",,,,,,
4 Halifët,,Southwestern Region,Kichevo,Municipality of Kichevo,6250,Partizanski Odredi,41.5204992,20.951301,"4 Halifët, Ужичка Република, 6250 Kichevo, North Macedonia",,,,,,
Bela Kula,,Southwestern Region,Kichevo,Municipality of Kichevo,6250,Kalendarica,41.5186764,20.9627469,"Bela Kula, Marsal Tito, 6250 Kichevo, North Macedonia",,,,,,
"Teqja  ""ADËR BABA""",,Southwestern Region,Kichevo,Municipality of Kichevo,6250,Chiflik,41.5142629,20.9600539,"Teqja  ADËR BABA""",,,"Janko Mihajloski, 6250 Kichevo, North Macedonia",10077534873,,
Muftinia e Kërçovës,,Southwestern Region,Kichevo,Municipality of Kichevo,6250,Bala Maalo,41.5160132,20.9641748,"Muftinia e Kërçovës, Исеин Акиоски, 6250 Kichevo, North Macedonia",,,,,,
Свети Апостол и евангелист Лука,,Eastern Region,Vinica,Municipality of Vinica,2310,,41.8846784,22.5128835,"Свети Апостол и евангелист Лука, Даме Груев, 2310 Vinica, North Macedonia",,,,,,
Св. Атанасиј Велики,,Southwestern Region,Podvis,Municipality of Kichevo,6261,,41.4708932,20.8897693,"Св. Атанасиј Велики, A2, 6261 Podvis, North Macedonia",,,,,,
Sedlarevo Mosque,,Polog Region,Sedlarevo,Municipality of Zhelino,1000,,41.8825844,21.1272696,"Sedlarevo Mosque, 1000 Sedlarevo, North Macedonia",,,,,,
Gurgurnica Mosque,,Polog Region,Gurgurnica,Municipality of Brvenica,,,41.8435051,21.1052173,"Gurgurnica Mosque, Gurgurnica, Polog Region, North Macedonia",,,,,,
Desovo,,Pelagonia Region,Desovo,Municipality of Dolneni,,,41.4627904,21.49067192,"Desovo, Pelagonia Region, North Macedonia",,,,,,
Музеј на современата уметност,Contemporary Art Museum of Macedonia,Skopje Region,Skopje,Municipality of Centar,1000,Debar Maalo,42.00388665,21.43295144,"Contemporary Art Museum of Macedonia, Samoilova, 1000 Skopje, North Macedonia",,,,,,
Национална галерија „Даут-пашин амам“,Daut Pasha Hamam National Gallery,Skopje Region,Skopje,Municipality of Centar,1000,Madzhir Maalo,41.9987239,21.43572365,"Daut Pasha Hamam National Gallery, Плоштад Карпошово Востание""",,, 1000 Skopje," North Macedonia""",172171547,
Музеј на македонската борба,Museum of the Macedonian struggle,Skopje Region,Skopje,Municipality of Centar,1000,Debar Maalo,41.9979421,21.43318647,"Museum of the Macedonian struggle, 11 Март 1, 1000 Skopje, North Macedonia",,,,,,
Спомен куќа на Мајка Тереза,Memorial House of Mother Teresa,Skopje Region,Skopje,Municipality of Centar,1000,Debar Maalo,41.9938448,21.43086346,"Memorial House of Mother Teresa, Makedonija, 1000 Skopje, North Macedonia",,,,,,
Национална галерија на Македонија „Чифте-амам“,Chifte Hammam National Gallery of Macedonia,Skopje Region,Skopje,Municipality of Chair,1000,Dukjandzhik,42.0011289,21.43727285,"Chifte Hammam National Gallery of Macedonia, Леблебиџиска, 1000 Skopje, North Macedonia",,,,,,
Меморијален центар на холокаустот на Евреите од Македонија,Holocaust Memorial Center for the Jews of Macedonia,Skopje Region,Skopje,Municipality of Centar,1000,Debar Maalo,41.9984656,21.43338324,"Holocaust Memorial Center for the Jews of Macedonia, Самоилова 2, 1000 Skopje, North Macedonia",,,,,,
Музеј на Град Скопје,Museum of the City of Skopje,Skopje Region,Skopje,Municipality of Centar,1000,Kapishtec,41.99083115,21.42919817,"Museum of the City of Skopje, Bulevard Makedonija, 1000 Skopje, North Macedonia",,,,,,
Капан АН,,Skopje Region,Skopje,Municipality of Chair,1000,Dukjandzhik,42.00007785,21.43659001,"Капан АН, Салих Асим, 1000 Skopje, North Macedonia",,,,,,
Музеј на Илинденското востание и Крушевската Република,Museum of the Ilinden Uprising and the Republic of Krushevo,Pelagonia Region,Krushevo OT,Municipality of Krushevo,7550,Arnaut Neighbourhood,41.3690527,21.2453034,"Museum of the Ilinden Uprising and the Republic of Krushevo, Dimitar Berberoski - Takja Berber 44А, 7550 Krushevo OT, North Macedonia",,,,,,
Леарница,Foundry,Pelagonia Region,Krushevo OT,Municipality of Krushevo,7550,Miak,41.37217175,21.2466584,"Foundry, Toma Niklev 0, 7550 Krushevo OT, North Macedonia",,,,,,
Музеј,Museum,Pelagonia Region,Prilep,Municipality of Prilep,7500,Rid,41.342827,21.55939354,"Museum, Aleksandar Makedonski 400, 7500 Prilep, North Macedonia",,,,,,
Македониум,,Pelagonia Region,Krushevo OT,Municipality of Krushevo,7550,Upper Krushevo,41.3774084,21.24837151,"Македониум, Плато, 7550 Krushevo OT, North Macedonia",,,,,,
Куршумли-ан,,Skopje Region,Skopje,Municipality of Chair,1000,Dukjandzhik,42.0031499,21.43684302,"Куршумли-ан, Атанас Бабата, 1000 Skopje, North Macedonia",,,,,,
Музеј на Македонија,Museum of Macedonia,Skopje Region,Skopje,Municipality of Chair,1000,Dukjandzhik,42.0026418,21.43580709,"Museum of Macedonia, Св. Прохор Пчињски, 1000 Skopje, North Macedonia",,,,,,
Саат Кула,Clock Tower,Pelagonia Region,Bitola,Municipality of Bitola,7000,Borimechka,41.0308805,21.33389765,"Clock Tower, Јорго Османо, 7000 Bitola, North Macedonia",,,,,,
Јени Џамија,Yeni Mosque,Pelagonia Region,Bitola,Municipality of Bitola,7000,Borimechka,41.03066665,21.33495374,"Yeni Mosque, Magnolia Square, 7000 Bitola, North Macedonia",,,,,,
Саат-кула,,Skopje Region,Skopje,Municipality of Chair,1000,Dukjandzhik,42.0019954,21.44134652,"Саат-кула, Васил Анџеларски, 1000 Skopje, North Macedonia",,,,,,
Иса-бегова џамија,,Skopje Region,Skopje,Municipality of Chair,1000,Dukjandzhik,42.0032292,21.44176149,"Иса-бегова џамија, Петре Георгиев, 1000 Skopje, North Macedonia",,,,,,
Манастир Св. Пантелејмон,Monastery Sv. Pantelejmon,Skopje Region,Gorno Nerezi,Municipality of Karposh,1000,,41.9768751,21.37448351,"Monastery Sv. Pantelejmon, R2138, 1000 Gorno Nerezi, North Macedonia",,,,,,
Мустафа-пашина џамија,Mustafa Pasha's Mosque,Skopje Region,Skopje,Municipality of Chair,1000,Dukjandzhik,42.00202345,21.43546531,"Mustafa Pasha's Mosque, Свеќарска, 1000 Skopje, North Macedonia",,,,,,
Соборен храм Свети Климент Охридски,Church of St. Clement of Ohrid,Skopje Region,Skopje,Municipality of Centar,1000,Debar Maalo,41.99852765,21.42640895,"Church of St. Clement of Ohrid, Boulevard Partizanski Odredi, 1000 Skopje, North Macedonia",,,,,,
Марков Манастир,Marko's Monastery,Skopje Region,Markova Sushica,Municipality of Studenichani,1054,,41.89334405,21.40207743,"Marko's Monastery, R104, 1054 Markova Sushica, North Macedonia",,,,,,
Лесновски манастир,Lesnovo Monastery,Eastern Region,Dreveno,Municipality of Probishtip,,,42.01325205,22.22829392,"Lesnovo Monastery, R1309, Dreveno, North Macedonia",,,,,,
Џамија Ајдар Кади,,Pelagonia Region,Bitola,Municipality of Bitola,7000,Borimechka,41.0349732,21.33846918,"Џамија Ајдар Кади, Цане Василев, 7000 Bitola, North Macedonia",,,,,,
Археолошки музеј на Македонија,Archaeological Museum of Macedonia,Skopje Region,Skopje,Municipality of Centar,1000,Madzhir Maalo,41.9968813,21.43436569,"Archaeological Museum of Macedonia, Мост на цивилизациите во Македонија, 1000 Skopje, North Macedonia",,,,,,
Музеј Штип,,Eastern Region,Shtip,Municipality of Shtip,2000,Кежовица,41.73666625,22.18975125,"Музеј Штип, Marshal Tito St., 2000 Shtip, North Macedonia",,,,,,
Безистен Штип,,Eastern Region,Shtip,Municipality of Shtip,2000,Кежовица,41.73754,22.19269966,"Безистен Штип, Кузман Јосифовски Питу, 2000 Shtip, North Macedonia",,,,,,
Манастир Св. Ѓорѓија,,Skopje Region,Kuchkovo,Municipality of Gjorche Petrov,,,42.0690911,21.3001786,"Манастир Св. Ѓорѓија, Улица 103, Kuchkovo, North Macedonia",,,,,,
Турска Чаршија,Turkish Bazaar,Skopje Region,Skopje,Municipality of Chair,1009,Dukjandzhik,42.0011587,21.43716143,"Turkish Bazaar, Леблебиџиска, 1009 Skopje, North Macedonia",,,,,,
Музеј на икони,,Pelagonia Region,Prilep,Municipality of Prilep,7500,Charshija,41.3439183,21.55867555,"Музеј на икони, Republikanska, 7500 Prilep, North Macedonia",,,,,,
Спомен-дом Блаже Конески,Blazhe Koneski Memorial House,Pelagonia Region,Prilep (Vicinity),Municipality of Prilep,7513,,41.4492956,21.55843252,"Blazhe Koneski Memorial House, Hiking trail Prilep - Treskavec, 7513 Prilep (Vicinity), North Macedonia",,,,,,
Музеј на Битола,Museum of Bitola,Pelagonia Region,Bitola,Municipality of Bitola,7000,Borimechka,41.0238366,21.33604317,"Museum of Bitola, Saint Clement of Ohrid 18, 7000 Bitola, North Macedonia",,,,,,
Меморијален музеј Народен херој Кузман Јосифоски-Питу,People's hero Kuzman Josifoski-Pitu Memorial museum,Pelagonia Region,Prilep,Municipality of Prilep,7500,Rid,41.34252545,21.55973095,"People's hero Kuzman Josifoski-Pitu Memorial museum, Mara Josifoska-Gjurgja 20, 7500 Prilep, North Macedonia",,,,,,
Магаза,Magaza gallery,Pelagonia Region,Bitola,Municipality of Bitola,7000,Borimechka,41.0299321,21.33512472,"Magaza gallery, Magnolia Square, 7000 Bitola, North Macedonia",,,,,,
Јаја-пашина џамија,Yaya Pacha Mosque,Skopje Region,Skopje,Municipality of Chair,1000,Dukjandzhik,42.00754015,21.44214199,"Yaya Pacha Mosque, Bulevard Cvetan Dimov, 1000 Skopje, North Macedonia",,,,,,
Спомен Костурница,Kosturnica Memorial,Vardar Region,Veles,Municipality of Veles,1400,,41.72329265,21.78945368,"Kosturnica Memorial, Ганчо Хаџи Панзов, 1400 Veles, North Macedonia",,,,,,
Света Богородица - Матка,,Skopje Region,Dolna Matka,Municipality of Saraj,,,41.9619256,21.29614504,"Света Богородица - Матка, Ul. 2, Dolna Matka, North Macedonia",,,,,,
Китино Кале,Kita Castle,Southwestern Region,Kichevo,Municipality of Kichevo,6250,Podvarosh,41.51296155,20.96639378,"Kita Castle, Амит Челопечанец, 6250 Kichevo, North Macedonia",,,,,,
11 Октомври 1941,"October the 11th, 1941",Pelagonia Region,Prilep,Municipality of Prilep,7500,Charshija,41.345014,21.55235949,"October the 11th, 1941, Metodija Andonov - Chento, 7500 Prilep, North Macedonia",,,,,,
Никола Мартиноски,Nikola Martinoski,Pelagonia Region,Krushevo OT,Municipality of Krushevo,7550,Струнга,41.36894095,21.25231391,"Nikola Martinoski, Niko Doaga-Koljka, 7550 Krushevo OT, North Macedonia",,,,,,
Музеј на НОВ,,Pelagonia Region,Krushevo,Municipality of Krushevo,7550,Upper Krushevo,41.37561085,21.24571983,"Музеј на НОВ, Nikola Karev, 7550 Krushevo, North Macedonia",,,,,,
Ел Калем,,Skopje Region,Arnakija,Municipality of Saraj,,,41.9869501,21.28764869,"Ел Калем, R1206, Arnakija, North Macedonia",,,,,,
"Muzeu ""Dëshmorët e kombit""",,Northeastern Region,Slupchane,Municipality of Lipkovo,,,42.1791184,21.62037817,"Muzeu Dëshmorët e kombit""",,,"R29272, Slupchane, North Macedonia",834714782,,
Народен Музеј,,Vardar Region,Sveti Nikole,Municipality of Sveti Nikole,2220,Рецко Маало,41.8650268,21.94190668,"Народен Музеј, Karposheva, 2220 Sveti Nikole, North Macedonia",,,,,,
Ловен Дом,,Eastern Region,Kochani,Municipality of Kochani,2300,,41.9151239,22.41379184,"Ловен Дом, 8mi Septemvri, 2300 Kochani, North Macedonia",,,,,,
Goce Delchev Memorial House,,Pelagonia Region,Bitola,Municipality of Bitola,7000,Borimechka,41.0268975,21.33220846,"Goce Delchev Memorial House, Stevo Patako, 7000 Bitola, North Macedonia",,,,,,
